{"type":"FeatureCollection","features":[{"type":"Feature","geometry":{"type":"LineString","coordinates":[[1.44198,42.60373],[1.44273,42.60368],[1.44332,42.60352],[1.44503,42.60363],[1.44551,42.60349],[1.44639,42.60375],[1.44759,42.60382],[1.44798,42.60349],[1.4485,42.60357],[1.44871,42.60332],[1.44932,42.60336],[1.44956,42.60299],[1.45012,42.60274],[1.45057,42.60248],[1.45196,42.60262],[1.45227,42.6025],[1.45275,42.60251],[1.45321,42.60265],[1.45471,42.60236],[1.45497,42.60228],[1.45503,42.60222],[1.45542,42.60221],[1.45558,42.60214],[1.45628,42.60216],[1.45699,42.60233],[1.45729,42.60262],[1.45748,42.60291],[1.45781,42.60299],[1.45834,42.6033],[1.45874,42.60347],[1.45902,42.60377],[1.45907,42.60413],[1.45929,42.60451],[1.45946,42.60471],[1.45971,42.60483],[1.4601,42.60489],[1.46043,42.605],[1.46137,42.60559],[1.4616,42.60565],[1.4619,42.60568],[1.46301,42.60551],[1.46319,42.60552],[1.46326,42.60578],[1.46367,42.60615],[1.46396,42.60651],[1.46405,42.60678],[1.46434,42.60688],[1.46481,42.60693],[1.46538,42.60678],[1.46613,42.60676],[1.46634,42.60663],[1.46686,42.60658],[1.46742,42.6064],[1.46768,42.60646],[1.46807,42.60642],[1.46907,42.6065],[1.46941,42.60682],[1.4695,42.60712],[1.46962,42.60728],[1.46978,42.6077],[1.46977,42.60786],[1.47032,42.6087],[1.47117,42.60906],[1.47168,42.60921],[1.47216,42.60952],[1.47297,42.60986],[1.47321,42.6101],[1.47333,42.61014],[1.47365,42.6105],[1.47398,42.61118],[1.47446,42.61137],[1.47458,42.61146],[1.47465,42.61168],[1.47477,42.61182],[1.47465,42.61199],[1.47469,42.6123],[1.47527,42.61267],[1.47597,42.61283],[1.47673,42.6131],[1.47685,42.61357],[1.47724,42.61377],[1.47737,42.61434],[1.47749,42.61452],[1.47746,42.61475],[1.47736,42.61496],[1.47699,42.6152],[1.47663,42.61562],[1.47647,42.6159],[1.47622,42.61603],[1.47599,42.61643],[1.47551,42.61664],[1.47548,42.61692],[1.47532,42.61707],[1.47522,42.61733],[1.47521,42.6176],[1.47494,42.61784],[1.47479,42.61788],[1.47471,42.61816],[1.47479,42.61848],[1.47445,42.61872],[1.47445,42.61904],[1.47451,42.61919],[1.47438,42.61937],[1.47442,42.61954],[1.47407,42.62015],[1.47407,42.62048],[1.47398,42.62066],[1.47374,42.62167],[1.47351,42.62194],[1.47316,42.62202],[1.47248,42.62254],[1.47213,42.62315],[1.47211,42.62334],[1.47217,42.62357],[1.47182,42.62378],[1.47154,42.62407],[1.47124,42.62426],[1.4709,42.62462],[1.47102,42.62493],[1.4706,42.62521],[1.4704,42.62601],[1.47042,42.62625],[1.47084,42.62686],[1.47096,42.62724],[1.47131,42.62765],[1.47129,42.62856],[1.4712,42.62896],[1.47097,42.62926],[1.47098,42.62946],[1.47029,42.62965],[1.46989,42.62988],[1.46965,42.63013],[1.46902,42.63022],[1.46883,42.63036],[1.46853,42.63049],[1.46834,42.63075],[1.46811,42.63091],[1.46829,42.63103],[1.46836,42.63115],[1.4684,42.63153],[1.46861,42.63209],[1.46902,42.63234],[1.46885,42.63256],[1.4689,42.63277],[1.46938,42.6332],[1.4698,42.63369],[1.46961,42.63419],[1.46988,42.63526],[1.46989,42.63556],[1.47048,42.63603],[1.4707,42.63614],[1.47207,42.63662],[1.47243,42.63691],[1.47262,42.63713],[1.47331,42.63747],[1.47352,42.63784],[1.475,42.63877],[1.47514,42.63895],[1.47546,42.63919],[1.47622,42.64009],[1.47674,42.64047],[1.47707,42.64063],[1.47714,42.64084],[1.47706,42.64123],[1.47723,42.6418],[1.47722,42.64209],[1.47765,42.6426],[1.47768,42.64325],[1.47788,42.6434],[1.47803,42.64362],[1.47796,42.64376],[1.4775,42.64422],[1.47724,42.64447],[1.4771,42.64454],[1.47716,42.64528],[1.47724,42.64553],[1.47775,42.64627],[1.47843,42.64685],[1.47826,42.64702],[1.47824,42.64729],[1.47837,42.64775],[1.4786,42.6483],[1.47885,42.64863],[1.47882,42.64897],[1.4787,42.64939],[1.47865,42.64943],[1.47856,42.64995],[1.47851,42.6506],[1.47859,42.65085],[1.4786,42.65112],[1.4787,42.65142],[1.47894,42.65165],[1.47931,42.65146],[1.48009,42.65128],[1.4805,42.6513],[1.48073,42.65138],[1.48156,42.65137],[1.48181,42.65144],[1.48216,42.65144],[1.48234,42.65161],[1.48269,42.65181],[1.48323,42.65185],[1.48343,42.65195],[1.48428,42.65203],[1.4846,42.65192],[1.48488,42.65192],[1.48559,42.65177],[1.48612,42.65176],[1.48652,42.65163],[1.48674,42.65163],[1.488,42.65194],[1.48835,42.6519],[1.48859,42.65199],[1.48884,42.6522],[1.48925,42.65238],[1.48992,42.65256],[1.49047,42.65281],[1.49119,42.65305],[1.49184,42.65305],[1.49229,42.65294],[1.4934,42.65329],[1.49375,42.65347],[1.4944,42.65249],[1.49481,42.65198],[1.49496,42.6518],[1.4952,42.65168],[1.49526,42.65144],[1.49543,42.65123],[1.49572,42.65104],[1.49618,42.65061],[1.49661,42.65002],[1.49682,42.64964],[1.49723,42.64922],[1.49737,42.64894],[1.49765,42.64866],[1.49806,42.64836],[1.49851,42.6481],[1.49929,42.64776],[1.49946,42.64762],[1.49952,42.64746],[1.49952,42.64732],[1.49945,42.6471],[1.49943,42.64685],[1.4995,42.64658],[1.4994,42.64653],[1.49965,42.64578],[1.49965,42.64567],[1.5002,42.64527],[1.50063,42.64523],[1.50105,42.6451],[1.50129,42.64513],[1.5014,42.64517],[1.50162,42.64547],[1.50199,42.64553],[1.50291,42.64545],[1.50418,42.64525],[1.50538,42.64531],[1.50665,42.64525],[1.50744,42.64548],[1.50787,42.64551],[1.50834,42.64566],[1.50906,42.64574],[1.50975,42.64573],[1.51,42.64568],[1.51016,42.64558],[1.51052,42.64558],[1.51209,42.64582],[1.51236,42.64596],[1.5132,42.64616],[1.51357,42.64611],[1.51411,42.64593],[1.51451,42.64591],[1.51478,42.646],[1.51528,42.64582],[1.51561,42.64581],[1.516,42.6459],[1.51658,42.64581],[1.51712,42.64578],[1.51745,42.64585],[1.51805,42.64588],[1.51843,42.64559],[1.51875,42.64542],[1.51892,42.64543],[1.5192,42.64566],[1.52003,42.64601],[1.52028,42.64624],[1.52057,42.64665],[1.5208,42.64676],[1.52101,42.64701],[1.52122,42.6471],[1.52151,42.64741],[1.52162,42.64756],[1.52155,42.64782],[1.52159,42.64801],[1.52205,42.64863],[1.52233,42.64916],[1.52217,42.64932],[1.52274,42.64947],[1.52428,42.64936],[1.52466,42.64955],[1.52525,42.65014],[1.52645,42.65098],[1.52693,42.65109],[1.52732,42.65111],[1.52769,42.65138],[1.52802,42.6514],[1.52855,42.65174],[1.52868,42.65166],[1.5294,42.65147],[1.52995,42.65109],[1.53059,42.65124],[1.53072,42.65119],[1.53101,42.65097],[1.53175,42.65061],[1.53318,42.64977],[1.53369,42.64971],[1.53407,42.64978],[1.5343,42.64968],[1.53497,42.64995],[1.53533,42.65018],[1.5356,42.65017],[1.53587,42.65026],[1.536,42.65038],[1.53611,42.65058],[1.53648,42.65093],[1.53667,42.65102],[1.53732,42.65167],[1.53752,42.65178],[1.53755,42.65188],[1.53806,42.65234],[1.5381,42.65244],[1.53864,42.65259],[1.54019,42.65264],[1.54052,42.65279],[1.54083,42.65283],[1.54127,42.653],[1.54188,42.65311],[1.54251,42.65348],[1.54322,42.65369],[1.54329,42.65391],[1.54356,42.65414],[1.54426,42.65424],[1.54457,42.65441],[1.54523,42.6546],[1.54541,42.65455],[1.54652,42.65495],[1.5476,42.65518],[1.54925,42.65588],[1.54967,42.65544],[1.55075,42.65488],[1.5512,42.65472],[1.55174,42.65467],[1.55222,42.65447],[1.55257,42.65424],[1.55265,42.65396],[1.55363,42.6537],[1.55561,42.65338],[1.55612,42.65305],[1.5563,42.65282],[1.55668,42.65256],[1.55715,42.65243],[1.55734,42.6523],[1.55787,42.65215],[1.55823,42.652],[1.55838,42.65203],[1.55876,42.65244],[1.55898,42.65257],[1.55937,42.65269],[1.55985,42.65301],[1.56062,42.65341],[1.56165,42.65346],[1.5623,42.65357],[1.56336,42.65293],[1.56389,42.65283],[1.56441,42.65259],[1.56498,42.65227],[1.56547,42.65185],[1.56598,42.65157],[1.56633,42.6512],[1.56655,42.65086],[1.56667,42.65042],[1.56667,42.65011],[1.56681,42.64998],[1.56712,42.64987],[1.56766,42.64946],[1.56837,42.64851],[1.56873,42.64848],[1.56911,42.64831],[1.56938,42.64826],[1.56951,42.64811],[1.57107,42.64799],[1.57125,42.64791],[1.57188,42.64796],[1.57244,42.64807],[1.57324,42.64797],[1.57475,42.64793],[1.57472,42.64752],[1.57489,42.64718],[1.57516,42.64696],[1.57586,42.64625],[1.57591,42.64559],[1.576,42.64545],[1.57604,42.64504],[1.57595,42.64456],[1.57599,42.64323],[1.57679,42.6427],[1.57706,42.64259],[1.57799,42.64241],[1.57827,42.6423],[1.57901,42.64195],[1.57917,42.64179],[1.57937,42.64103],[1.57954,42.64073],[1.57956,42.64051],[1.5792,42.63945],[1.57931,42.6391],[1.57924,42.63879],[1.57951,42.63866],[1.57976,42.63844],[1.57985,42.6383],[1.57995,42.63745],[1.58012,42.63719],[1.58062,42.63676],[1.58111,42.63656],[1.58121,42.63643],[1.58174,42.63621],[1.58288,42.63557],[1.58328,42.6351],[1.58368,42.63481],[1.58385,42.63476],[1.58406,42.63423],[1.58453,42.6339],[1.58572,42.63344],[1.58615,42.63346],[1.58666,42.63372],[1.58743,42.63373],[1.58786,42.63367],[1.58853,42.63343],[1.58899,42.63338],[1.58993,42.63346],[1.5902,42.63337],[1.59074,42.63332],[1.59131,42.6334],[1.59192,42.63329],[1.59253,42.63333],[1.59263,42.63311],[1.59271,42.63303],[1.59442,42.63261],[1.59452,42.6324],[1.59516,42.63192],[1.5953,42.63132],[1.59557,42.63089],[1.59577,42.63074],[1.59616,42.6306],[1.59745,42.62949],[1.59763,42.62922],[1.59783,42.62905],[1.59784,42.62868],[1.59831,42.62799],[1.59889,42.62737],[1.5997,42.62631],[1.60003,42.62606],[1.60038,42.62571],[1.60051,42.62565],[1.60163,42.62562],[1.60284,42.62549],[1.60313,42.6255],[1.60336,42.6256],[1.60455,42.62638],[1.60475,42.62676],[1.60515,42.62697],[1.6053,42.62699],[1.6064,42.62739],[1.60699,42.62789],[1.6078,42.62838],[1.60816,42.62848],[1.60836,42.62841],[1.60874,42.6284],[1.6094,42.62856],[1.61048,42.62768],[1.61058,42.62745],[1.61056,42.62738],[1.61099,42.62708],[1.61112,42.62683],[1.61142,42.62664],[1.61187,42.62672],[1.61292,42.62674],[1.61302,42.62678],[1.61331,42.62671],[1.61472,42.62678],[1.61561,42.62669],[1.61654,42.62686],[1.61664,42.62671],[1.61708,42.62661],[1.61733,42.6263],[1.61777,42.6261],[1.61809,42.62602],[1.61842,42.62585],[1.61913,42.62577],[1.61974,42.62591],[1.61989,42.626],[1.6202,42.62634],[1.62121,42.62689],[1.6224,42.62733],[1.62257,42.62734],[1.62365,42.62715],[1.62379,42.62709],[1.62457,42.62698],[1.62504,42.62659],[1.6252,42.62655],[1.62542,42.62665],[1.62578,42.62672],[1.62623,42.62673],[1.62634,42.62653],[1.62707,42.62665],[1.62723,42.62654],[1.62744,42.62651],[1.62766,42.6264],[1.62807,42.62659],[1.62854,42.62663],[1.62968,42.62709],[1.62988,42.62722],[1.63009,42.62751],[1.63046,42.62782],[1.63136,42.62814],[1.63253,42.62865],[1.63329,42.62883],[1.63376,42.62908],[1.63486,42.62938],[1.63631,42.63007],[1.63685,42.63026],[1.63725,42.63033],[1.63779,42.62986],[1.63793,42.6294],[1.63872,42.62846],[1.6394,42.62814],[1.63993,42.62823],[1.64048,42.62825],[1.64096,42.62818],[1.64234,42.6282],[1.64323,42.62796],[1.64434,42.62772],[1.64485,42.62766],[1.64495,42.62759],[1.6453,42.6275],[1.64615,42.62748],[1.64773,42.62721],[1.64847,42.62718],[1.64869,42.62707],[1.64994,42.62691],[1.65033,42.62678],[1.65115,42.62676],[1.65188,42.62664],[1.65207,42.62657],[1.65273,42.62652],[1.65344,42.62638],[1.65385,42.62619],[1.65396,42.62603],[1.65401,42.62511],[1.65472,42.62491],[1.65482,42.62478],[1.65484,42.62461],[1.65504,42.62458],[1.65507,42.62432],[1.65528,42.62421],[1.6554,42.62387],[1.65533,42.62293],[1.65534,42.62255],[1.65546,42.62238],[1.65568,42.62224],[1.65632,42.6221],[1.65655,42.62196],[1.65671,42.62181],[1.65692,42.62101],[1.65718,42.62093],[1.65805,42.62089],[1.65888,42.62068],[1.65939,42.62069],[1.65995,42.62047],[1.6608,42.62044],[1.66094,42.62039],[1.66116,42.62004],[1.66137,42.61987],[1.66181,42.61963],[1.6622,42.61951],[1.6628,42.61943],[1.66337,42.61908],[1.66383,42.61912],[1.6642,42.61892],[1.66452,42.61918],[1.66469,42.6194],[1.6647,42.61959],[1.66491,42.61981],[1.66473,42.61996],[1.66466,42.62009],[1.66509,42.62027],[1.66538,42.62033],[1.6654,42.62057],[1.66579,42.62075],[1.66605,42.62094],[1.667,42.62133],[1.66815,42.62163],[1.66845,42.62149],[1.6695,42.62126],[1.66985,42.62132],[1.67023,42.62121],[1.6715,42.62134],[1.67213,42.62114],[1.67274,42.62106],[1.67353,42.6207],[1.67382,42.62108],[1.67407,42.62113],[1.67445,42.62144],[1.67478,42.62187],[1.67514,42.6221],[1.67658,42.62252],[1.67716,42.62241],[1.67749,42.6224],[1.67819,42.62244],[1.67849,42.62253],[1.67883,42.62287],[1.679,42.62322],[1.6792,42.62343],[1.67947,42.62389],[1.67977,42.62411],[1.6804,42.62473],[1.68094,42.62487],[1.68182,42.6249],[1.68255,42.62485],[1.68344,42.62499],[1.68477,42.62446],[1.68583,42.62416],[1.68634,42.62411],[1.68675,42.62394],[1.68702,42.62391],[1.68777,42.62395],[1.68852,42.62384],[1.68892,42.62368],[1.68936,42.62368],[1.69004,42.62341],[1.69052,42.6233],[1.69075,42.623],[1.69079,42.62283],[1.69124,42.6227],[1.6914,42.6226],[1.6916,42.62241],[1.69195,42.62221],[1.69201,42.62205],[1.69213,42.62196],[1.69262,42.6221],[1.69318,42.62217],[1.69356,42.62234],[1.6942,42.62248],[1.69452,42.62252],[1.69562,42.62244],[1.69593,42.62248],[1.6966,42.62237],[1.69831,42.62281],[1.69844,42.62281],[1.69965,42.62243],[1.69976,42.62207],[1.70014,42.62181],[1.70007,42.62148],[1.70054,42.62109],[1.70083,42.62101],[1.70127,42.62101],[1.70181,42.62089],[1.70218,42.62054],[1.70398,42.62009],[1.70462,42.61961],[1.70517,42.61939],[1.70609,42.61922],[1.70626,42.61914],[1.70641,42.619],[1.70693,42.61868],[1.7072,42.61839],[1.70739,42.61787],[1.70814,42.61745],[1.70903,42.61702],[1.70975,42.61644],[1.71017,42.61634],[1.71087,42.6164],[1.71123,42.61634],[1.71133,42.61616],[1.71153,42.61598],[1.71184,42.6158],[1.71217,42.61521],[1.71245,42.61515],[1.71294,42.61488],[1.71304,42.61476],[1.71346,42.61473],[1.71365,42.61462],[1.71476,42.61463],[1.71595,42.61471],[1.71613,42.6149],[1.71631,42.61488],[1.71695,42.61497],[1.71757,42.61482],[1.71836,42.61485],[1.71923,42.61508],[1.71987,42.61514],[1.72034,42.61533],[1.72084,42.61561],[1.7217,42.61589],[1.72273,42.61653],[1.7231,42.61642],[1.72362,42.61635],[1.72413,42.61618],[1.72552,42.61597],[1.72609,42.61562],[1.72697,42.61555],[1.72839,42.61557],[1.72862,42.6152],[1.72938,42.61494],[1.7302,42.61457],[1.731,42.61449],[1.73157,42.61454],[1.7322,42.61426],[1.73241,42.61455],[1.7328,42.6148],[1.73315,42.61521],[1.73344,42.61538],[1.73334,42.6157],[1.73347,42.61563],[1.73383,42.61558],[1.73405,42.61544],[1.7344,42.61547],[1.73477,42.61542],[1.73535,42.61551],[1.73554,42.61563],[1.7357,42.61561],[1.73578,42.61566],[1.736,42.61523],[1.73617,42.61516],[1.73648,42.61469],[1.73665,42.61463],[1.73705,42.61425],[1.73726,42.61368],[1.73732,42.61337],[1.73765,42.613],[1.73772,42.61264],[1.73762,42.61262],[1.73748,42.61243],[1.73785,42.61218],[1.73779,42.61204],[1.73785,42.61199],[1.73784,42.61191],[1.73776,42.61171],[1.73742,42.61151],[1.73691,42.61133],[1.73675,42.61119],[1.73656,42.61113],[1.73645,42.611],[1.73629,42.61092],[1.73614,42.61064],[1.73596,42.61057],[1.73611,42.61045],[1.73622,42.61018],[1.73613,42.60992],[1.73614,42.60972],[1.73603,42.60953],[1.73565,42.60921],[1.73533,42.60907],[1.73478,42.60866],[1.7345,42.60853],[1.73439,42.60837],[1.73403,42.60825],[1.73384,42.60806],[1.73346,42.60806],[1.73335,42.60802],[1.73325,42.60791],[1.73265,42.60782],[1.73259,42.60773],[1.73205,42.6076],[1.73205,42.60744],[1.73194,42.60733],[1.73201,42.60704],[1.7319,42.60642],[1.73174,42.60623],[1.73151,42.60612],[1.7314,42.606],[1.73155,42.60585],[1.73166,42.60557],[1.73172,42.60553],[1.73168,42.60534],[1.73169,42.60495],[1.73177,42.60455],[1.7317,42.60425],[1.73136,42.60384],[1.73098,42.60371],[1.73089,42.60361],[1.73085,42.60341],[1.73074,42.60326],[1.73075,42.60283],[1.72981,42.60234],[1.72966,42.60231],[1.72918,42.60189],[1.72895,42.60175],[1.72887,42.60148],[1.72768,42.60099],[1.72767,42.60088],[1.72747,42.60076],[1.72678,42.60069],[1.72629,42.60055],[1.7262,42.60005],[1.72635,42.5995],[1.72633,42.59938],[1.7264,42.59926],[1.72624,42.59891],[1.7263,42.59815],[1.72609,42.59784],[1.72604,42.5977],[1.72608,42.59739],[1.72604,42.59728],[1.72609,42.59706],[1.72629,42.59699],[1.72624,42.59641],[1.72616,42.59633],[1.72615,42.59587],[1.72599,42.59566],[1.72604,42.5956],[1.72609,42.59542],[1.72608,42.59522],[1.72595,42.59496],[1.7261,42.59485],[1.72586,42.59468],[1.72582,42.59445],[1.72596,42.59416],[1.72594,42.59403],[1.72604,42.59356],[1.72601,42.59336],[1.72608,42.59303],[1.7261,42.59251],[1.72607,42.59237],[1.72577,42.59195],[1.72602,42.59172],[1.72599,42.59159],[1.72609,42.59108],[1.72608,42.59093],[1.72577,42.59066],[1.72576,42.59043],[1.72588,42.59016],[1.7261,42.58996],[1.72615,42.58983],[1.72611,42.58964],[1.7266,42.58916],[1.72682,42.58886],[1.72709,42.5887],[1.72761,42.58829],[1.72863,42.58816],[1.72888,42.58821],[1.72942,42.58812],[1.73,42.58815],[1.73038,42.58809],[1.73068,42.58811],[1.73124,42.5879],[1.73173,42.58794],[1.73244,42.58825],[1.73307,42.58832],[1.73337,42.58844],[1.73366,42.58861],[1.73424,42.58828],[1.73498,42.58801],[1.7367,42.58781],[1.73742,42.5878],[1.73766,42.58765],[1.73801,42.5876],[1.73896,42.5877],[1.73943,42.5877],[1.73995,42.5878],[1.74054,42.58772],[1.74143,42.58768],[1.7419,42.58783],[1.74221,42.58774],[1.74269,42.58731],[1.74408,42.58643],[1.74499,42.58615],[1.74536,42.58586],[1.74631,42.58563],[1.74688,42.58535],[1.74717,42.58527],[1.74776,42.58488],[1.7486,42.58448],[1.7489,42.5845],[1.74932,42.58462],[1.74991,42.5845],[1.75037,42.58411],[1.75099,42.58347],[1.7514,42.58326],[1.75194,42.58282],[1.75239,42.58258],[1.75298,42.58243],[1.75336,42.58243],[1.75363,42.58247],[1.75417,42.58274],[1.75564,42.58267],[1.75631,42.58248],[1.7568,42.58224],[1.75728,42.58219],[1.75831,42.58194],[1.7587,42.58166],[1.75962,42.58131],[1.76046,42.58081],[1.76156,42.58081],[1.763,42.58067],[1.76382,42.58071],[1.76448,42.58047],[1.76465,42.58048],[1.76497,42.58062],[1.76523,42.58062],[1.76637,42.58044],[1.76731,42.5804],[1.76779,42.58033],[1.76844,42.5804],[1.76942,42.58041],[1.77006,42.58031],[1.77041,42.58043],[1.77099,42.58053],[1.77111,42.58048],[1.77197,42.58058],[1.7726,42.58046],[1.77315,42.58069],[1.7737,42.58083],[1.77403,42.58101],[1.77426,42.58107],[1.77464,42.58109],[1.77505,42.58131],[1.77542,42.5814],[1.77559,42.58141],[1.77579,42.58135],[1.77636,42.58155],[1.77662,42.58169],[1.77713,42.58175],[1.77789,42.58205],[1.77884,42.58206],[1.77991,42.58226],[1.78022,42.58224],[1.78103,42.58252],[1.78118,42.58253],[1.78313,42.58012],[1.78426,42.57704],[1.78428,42.5768],[1.78442,42.57643],[1.78437,42.57599],[1.78456,42.57548],[1.78535,42.57502],[1.78631,42.5746],[1.78671,42.57415],[1.78625,42.57389],[1.78606,42.57358],[1.78572,42.57331],[1.78551,42.57326],[1.78528,42.57331],[1.78513,42.57329],[1.78509,42.57305],[1.78516,42.57267],[1.78498,42.57235],[1.78441,42.57212],[1.78353,42.57196],[1.7821,42.57125],[1.78194,42.57107],[1.7818,42.57069],[1.78165,42.57049],[1.78154,42.57043],[1.78089,42.57033],[1.78064,42.57012],[1.78045,42.56987],[1.78005,42.56972],[1.77978,42.56954],[1.77947,42.56941],[1.77905,42.56936],[1.7789,42.5693],[1.77862,42.56915],[1.77842,42.56891],[1.77807,42.56869],[1.77767,42.56856],[1.77736,42.56857],[1.77715,42.56851],[1.77686,42.56809],[1.77652,42.56782],[1.77589,42.56778],[1.77538,42.56796],[1.77506,42.56785],[1.775,42.56722],[1.77488,42.56704],[1.77458,42.5669],[1.77413,42.56679],[1.77385,42.56654],[1.77342,42.56636],[1.77327,42.56622],[1.77296,42.56617],[1.7725,42.56623],[1.77192,42.56609],[1.77167,42.56616],[1.77148,42.5663],[1.77117,42.56627],[1.7711,42.56619],[1.77116,42.56601],[1.77104,42.56574],[1.7709,42.56567],[1.77052,42.56571],[1.77037,42.56566],[1.77014,42.56524],[1.76965,42.56477],[1.76933,42.56473],[1.7689,42.56487],[1.76855,42.56466],[1.76838,42.56467],[1.76805,42.56454],[1.76789,42.56455],[1.76772,42.5646],[1.7674,42.56499],[1.76728,42.56506],[1.76706,42.56507],[1.76676,42.565],[1.76648,42.56501],[1.76593,42.56492],[1.76568,42.56505],[1.76553,42.56537],[1.76533,42.56551],[1.7651,42.56555],[1.76451,42.56541],[1.76421,42.56556],[1.76401,42.5656],[1.76387,42.56556],[1.76371,42.56539],[1.76332,42.56528],[1.76309,42.56528],[1.76279,42.56541],[1.76255,42.5654],[1.76231,42.56527],[1.76215,42.5651],[1.76204,42.56507],[1.76183,42.56511],[1.7613,42.56536],[1.76103,42.5653],[1.76071,42.56515],[1.76026,42.56529],[1.75925,42.56536],[1.75915,42.56533],[1.75872,42.565],[1.75829,42.56493],[1.75795,42.56477],[1.75772,42.56474],[1.75713,42.56502],[1.75699,42.56501],[1.75661,42.56487],[1.75631,42.56486],[1.75604,42.56493],[1.75579,42.5651],[1.75524,42.5651],[1.75466,42.56497],[1.75424,42.56482],[1.75361,42.5648],[1.75335,42.56464],[1.75288,42.56448],[1.75276,42.56431],[1.75244,42.56423],[1.75225,42.5641],[1.75169,42.56428],[1.75153,42.56424],[1.75138,42.56405],[1.7512,42.56397],[1.7507,42.56418],[1.75043,42.56413],[1.7501,42.56392],[1.74985,42.56369],[1.74974,42.56337],[1.74952,42.56309],[1.74857,42.56302],[1.74832,42.56314],[1.74821,42.56314],[1.74811,42.5631],[1.74798,42.56292],[1.74776,42.56276],[1.74713,42.56258],[1.74705,42.56244],[1.74684,42.56232],[1.74683,42.56227],[1.74701,42.56208],[1.747,42.56192],[1.74695,42.56188],[1.74659,42.56176],[1.74643,42.56161],[1.74587,42.56151],[1.74564,42.56131],[1.74537,42.56117],[1.74517,42.56114],[1.74497,42.56101],[1.74497,42.56093],[1.7452,42.56062],[1.74516,42.56053],[1.7449,42.56033],[1.74485,42.56021],[1.74456,42.56016],[1.74435,42.5598],[1.74399,42.55969],[1.74371,42.55953],[1.74355,42.55921],[1.74319,42.55898],[1.7432,42.55889],[1.74332,42.55868],[1.74327,42.55856],[1.74295,42.55848],[1.74293,42.5583],[1.74286,42.55826],[1.74241,42.55818],[1.74231,42.55821],[1.7422,42.55815],[1.74208,42.55805],[1.74202,42.55787],[1.74178,42.55761],[1.74167,42.55754],[1.74151,42.55751],[1.74107,42.55732],[1.74092,42.55719],[1.74083,42.55698],[1.74044,42.55682],[1.73995,42.55682],[1.73977,42.55672],[1.73977,42.55656],[1.74006,42.55636],[1.74008,42.55615],[1.73962,42.55587],[1.73903,42.5557],[1.73896,42.55553],[1.739,42.5553],[1.73872,42.55503],[1.73851,42.55458],[1.73805,42.55421],[1.73802,42.55414],[1.73808,42.55406],[1.73806,42.55401],[1.73839,42.55368],[1.73843,42.55347],[1.73828,42.55324],[1.73827,42.55308],[1.73818,42.55295],[1.73788,42.55275],[1.73783,42.55267],[1.73786,42.55241],[1.73777,42.55232],[1.73766,42.55206],[1.73738,42.55191],[1.73703,42.55183],[1.73696,42.55177],[1.73704,42.55167],[1.73689,42.5515],[1.73687,42.55129],[1.73699,42.55107],[1.73697,42.55101],[1.73689,42.55094],[1.73637,42.55075],[1.73603,42.55034],[1.73565,42.55001],[1.7353,42.54989],[1.73505,42.55005],[1.73495,42.54996],[1.73446,42.54901],[1.73481,42.54841],[1.73523,42.54868],[1.73606,42.54901],[1.73651,42.54912],[1.73663,42.54947],[1.7369,42.54962],[1.73788,42.54957],[1.73782,42.54938],[1.73757,42.54922],[1.73748,42.54906],[1.73752,42.54891],[1.73771,42.54871],[1.73774,42.54854],[1.73677,42.5487],[1.7361,42.54851],[1.73542,42.5482],[1.73489,42.54783],[1.73474,42.54756],[1.73508,42.54709],[1.73541,42.54683],[1.73564,42.54644],[1.73549,42.54588],[1.73563,42.54493],[1.73509,42.54437],[1.73519,42.54398],[1.73527,42.54399],[1.73527,42.54378],[1.73568,42.54337],[1.7357,42.54325],[1.73557,42.54284],[1.73542,42.54271],[1.7352,42.54268],[1.7349,42.54239],[1.73434,42.54205],[1.73405,42.54162],[1.73404,42.54148],[1.73414,42.54124],[1.73401,42.54103],[1.73399,42.54082],[1.73437,42.54054],[1.73443,42.5404],[1.73431,42.54012],[1.73433,42.53995],[1.73429,42.53982],[1.73408,42.53959],[1.73406,42.53914],[1.7338,42.53911],[1.7336,42.53897],[1.73349,42.53877],[1.73356,42.53844],[1.7335,42.53831],[1.73352,42.5382],[1.73375,42.53809],[1.73386,42.53794],[1.73384,42.53778],[1.73366,42.53755],[1.73369,42.53728],[1.73388,42.53705],[1.73414,42.53698],[1.73434,42.53673],[1.73444,42.53652],[1.7344,42.5363],[1.73431,42.53614],[1.73445,42.53579],[1.73428,42.53552],[1.73432,42.53525],[1.73423,42.53502],[1.73441,42.53477],[1.73442,42.53456],[1.73455,42.53447],[1.73467,42.53392],[1.73489,42.53372],[1.73473,42.5335],[1.73458,42.53342],[1.73435,42.53305],[1.7343,42.53292],[1.73432,42.53272],[1.73419,42.53263],[1.73417,42.53255],[1.73363,42.5323],[1.73364,42.53219],[1.73359,42.53212],[1.73367,42.53204],[1.73371,42.53189],[1.73349,42.53146],[1.73358,42.53134],[1.73321,42.53101],[1.73312,42.53088],[1.73318,42.53078],[1.73312,42.53067],[1.73308,42.53035],[1.73321,42.53014],[1.73352,42.52786],[1.73319,42.52768],[1.73263,42.52766],[1.73164,42.52894],[1.73149,42.52887],[1.73134,42.52832],[1.73129,42.52779],[1.73096,42.52721],[1.73061,42.52676],[1.73059,42.52647],[1.72966,42.52602],[1.72908,42.52533],[1.72888,42.5247],[1.72879,42.52262],[1.72969,42.5204],[1.72899,42.52013],[1.72861,42.51989],[1.72842,42.5195],[1.72781,42.51923],[1.72765,42.51899],[1.72754,42.51868],[1.72728,42.51854],[1.72697,42.51845],[1.72622,42.51849],[1.72537,42.51879],[1.72513,42.51878],[1.72439,42.51862],[1.72405,42.51835],[1.72326,42.51822],[1.723,42.51821],[1.7228,42.51834],[1.72248,42.51845],[1.72267,42.5181],[1.72262,42.51788],[1.72251,42.51774],[1.7225,42.51762],[1.72235,42.51753],[1.72214,42.51755],[1.72189,42.51751],[1.72146,42.51728],[1.72223,42.51693],[1.72378,42.51637],[1.72413,42.51612],[1.72495,42.5158],[1.72532,42.51547],[1.72542,42.51523],[1.72582,42.51274],[1.72588,42.51205],[1.72596,42.51175],[1.72589,42.5114],[1.72597,42.5106],[1.72581,42.51011],[1.7258,42.50924],[1.72576,42.50907],[1.7255,42.50866],[1.7255,42.5084],[1.72567,42.50741],[1.72565,42.50705],[1.72569,42.50694],[1.72568,42.5067],[1.72562,42.50657],[1.72568,42.50574],[1.72574,42.50528],[1.72584,42.5049],[1.72566,42.50468],[1.72563,42.50457],[1.72565,42.50417],[1.72594,42.50272],[1.72149,42.50061],[1.72054,42.50023],[1.71962,42.4997],[1.71829,42.4991],[1.71651,42.49673],[1.71546,42.49564],[1.71221,42.49285],[1.71029,42.49152],[1.70757,42.48983],[1.70425,42.48909],[1.70258,42.48978],[1.7001,42.49114],[1.6957,42.49375],[1.69265,42.49563],[1.69245,42.4957],[1.69221,42.49569],[1.69167,42.49576],[1.69119,42.49604],[1.69091,42.49608],[1.69035,42.49596],[1.68943,42.49588],[1.6885,42.49596],[1.68586,42.49541],[1.68417,42.49519],[1.66604,42.49364],[1.66412,42.49292],[1.66386,42.49276],[1.66258,42.49005],[1.66246,42.4894],[1.66236,42.48847],[1.66213,42.48559],[1.66173,42.48403],[1.66177,42.48371],[1.66209,42.48263],[1.66197,42.48076],[1.66176,42.47988],[1.66158,42.47946],[1.6613,42.4791],[1.66035,42.47834],[1.66104,42.47721],[1.66127,42.47689],[1.66146,42.47673],[1.66158,42.47653],[1.66164,42.47623],[1.66173,42.47613],[1.66221,42.47514],[1.66251,42.4748],[1.66249,42.47413],[1.66241,42.47379],[1.66222,42.47331],[1.66181,42.4729],[1.66076,42.47241],[1.65993,42.47211],[1.65946,42.47175],[1.65905,42.47133],[1.65842,42.47049],[1.6579,42.46967],[1.65745,42.46882],[1.65732,42.46846],[1.65723,42.46835],[1.65694,42.46824],[1.65657,42.46824],[1.65543,42.46767],[1.65471,42.46737],[1.65369,42.4671],[1.65342,42.46699],[1.65277,42.46693],[1.65198,42.46707],[1.65161,42.46701],[1.65076,42.46697],[1.65003,42.46704],[1.64912,42.4673],[1.64878,42.46746],[1.64803,42.46758],[1.64758,42.46777],[1.64701,42.46851],[1.64675,42.46863],[1.64593,42.46835],[1.6455,42.46814],[1.64482,42.4679],[1.64436,42.4675],[1.64413,42.4674],[1.64365,42.46728],[1.64305,42.46694],[1.64166,42.46653],[1.64055,42.46636],[1.64025,42.46639],[1.63955,42.46666],[1.63875,42.4668],[1.63849,42.46696],[1.63791,42.46752],[1.63746,42.46757],[1.63682,42.4679],[1.63616,42.4681],[1.63582,42.46799],[1.63545,42.46772],[1.6354,42.4674],[1.63461,42.4671],[1.63434,42.46709],[1.63392,42.46695],[1.63368,42.46668],[1.63352,42.4662],[1.63255,42.46611],[1.63232,42.46614],[1.63201,42.46579],[1.6319,42.46524],[1.63183,42.46509],[1.63174,42.46504],[1.63138,42.465],[1.63122,42.46488],[1.63096,42.46425],[1.63086,42.46416],[1.63043,42.46411],[1.63026,42.46385],[1.63014,42.46377],[1.62946,42.46381],[1.62909,42.46402],[1.62898,42.46403],[1.62877,42.46387],[1.62858,42.46378],[1.62847,42.46376],[1.62813,42.46381],[1.62696,42.46445],[1.62672,42.46429],[1.6263,42.46433],[1.62613,42.46426],[1.62591,42.46438],[1.62572,42.46457],[1.62545,42.46473],[1.62516,42.46485],[1.62335,42.46543],[1.62279,42.46567],[1.62231,42.46574],[1.62184,42.46572],[1.62097,42.46552],[1.62064,42.4655],[1.62045,42.46538],[1.62028,42.46507],[1.62003,42.46492],[1.61939,42.46492],[1.61881,42.46469],[1.61862,42.46474],[1.61835,42.46492],[1.61813,42.46497],[1.61773,42.4649],[1.61697,42.46496],[1.61664,42.46508],[1.61619,42.46539],[1.61602,42.46538],[1.6155,42.46519],[1.61527,42.46517],[1.61417,42.46534],[1.61327,42.46524],[1.61235,42.46524],[1.61168,42.46502],[1.61138,42.46501],[1.61062,42.46518],[1.61013,42.46488],[1.60921,42.46466],[1.6083,42.46467],[1.60803,42.46462],[1.60737,42.46436],[1.60656,42.46436],[1.60615,42.46451],[1.60571,42.46474],[1.60455,42.46516],[1.60375,42.46577],[1.6036,42.46565],[1.60335,42.46556],[1.60307,42.46559],[1.60208,42.4659],[1.60132,42.46624],[1.60071,42.46642],[1.6004,42.46656],[1.60015,42.46677],[1.59997,42.46707],[1.59584,42.46555],[1.59402,42.46505],[1.59358,42.46468],[1.59313,42.46447],[1.59138,42.46427],[1.59037,42.46403],[1.59011,42.46392],[1.58994,42.46383],[1.58981,42.46357],[1.58875,42.46261],[1.5873,42.46149],[1.58604,42.46016],[1.5857,42.45964],[1.58553,42.45922],[1.58491,42.45834],[1.58466,42.45777],[1.58418,42.45721],[1.58379,42.45661],[1.5836,42.45608],[1.58342,42.45515],[1.58282,42.45428],[1.5825,42.45312],[1.58231,42.45263],[1.58178,42.45153],[1.58134,42.45092],[1.58115,42.45018],[1.58108,42.45009],[1.58081,42.44999],[1.5789,42.44994],[1.57799,42.45005],[1.57753,42.45017],[1.57732,42.45026],[1.57684,42.45061],[1.57602,42.45143],[1.57515,42.45172],[1.57395,42.45246],[1.57327,42.45292],[1.57263,42.4535],[1.57119,42.45543],[1.57057,42.45609],[1.56934,42.45776],[1.56793,42.45863],[1.56735,42.45887],[1.56704,42.45893],[1.56593,42.45891],[1.56547,42.45881],[1.56471,42.45831],[1.56451,42.45824],[1.56266,42.45807],[1.56233,42.45808],[1.56178,42.45821],[1.56151,42.45833],[1.5611,42.45869],[1.56078,42.45821],[1.55974,42.4569],[1.55921,42.45597],[1.55897,42.45538],[1.55899,42.4549],[1.55953,42.45231],[1.55974,42.45068],[1.55997,42.44994],[1.55998,42.44945],[1.55985,42.44896],[1.55984,42.44843],[1.55945,42.44383],[1.55811,42.44344],[1.5535,42.44245],[1.55432,42.44019],[1.55425,42.43997],[1.55377,42.43923],[1.55373,42.43905],[1.55389,42.43844],[1.55353,42.43797],[1.55337,42.43704],[1.55333,42.43636],[1.55316,42.43603],[1.55314,42.43584],[1.5532,42.43576],[1.55295,42.43541],[1.55289,42.43524],[1.55303,42.43468],[1.55298,42.43443],[1.553,42.43419],[1.55306,42.43406],[1.55296,42.4338],[1.55304,42.43355],[1.55304,42.43338],[1.55235,42.43269],[1.55173,42.43247],[1.55094,42.43232],[1.55052,42.43233],[1.5499,42.4326],[1.54939,42.43261],[1.54923,42.43274],[1.54889,42.43281],[1.54827,42.43303],[1.54734,42.43282],[1.54658,42.43253],[1.54626,42.43249],[1.54423,42.43253],[1.54175,42.43231],[1.53991,42.43284],[1.53962,42.43288],[1.53767,42.43232],[1.53412,42.43228],[1.53234,42.43232],[1.53011,42.43215],[1.52645,42.43197],[1.52633,42.43196],[1.52609,42.43172],[1.52551,42.43106],[1.5252,42.43095],[1.52443,42.43052],[1.52375,42.43037],[1.52335,42.43039],[1.52327,42.43044],[1.52264,42.43035],[1.52142,42.43032],[1.52112,42.43022],[1.52091,42.43024],[1.5205,42.43016],[1.5201,42.43014],[1.51948,42.42996],[1.51936,42.42997],[1.5189,42.42963],[1.51826,42.42941],[1.51794,42.4291],[1.5178,42.42909],[1.51773,42.42904],[1.51766,42.42888],[1.51757,42.42883],[1.51734,42.42882],[1.51715,42.42869],[1.51706,42.42874],[1.51657,42.42876],[1.51625,42.42896],[1.51569,42.42886],[1.51511,42.42899],[1.51444,42.429],[1.51418,42.42909],[1.51382,42.42908],[1.51348,42.42916],[1.51333,42.42915],[1.51306,42.42902],[1.51281,42.429],[1.51213,42.42915],[1.51167,42.4291],[1.51153,42.42916],[1.51143,42.42944],[1.51111,42.4298],[1.51075,42.42992],[1.5097,42.42992],[1.50929,42.4298],[1.50908,42.42963],[1.50892,42.42968],[1.50879,42.4298],[1.50826,42.42988],[1.50809,42.43012],[1.50771,42.43032],[1.50667,42.43058],[1.50588,42.43106],[1.50558,42.43118],[1.50514,42.43152],[1.50454,42.4317],[1.50328,42.43184],[1.50112,42.43267],[1.49893,42.43305],[1.49833,42.43323],[1.49776,42.43325],[1.49576,42.43305],[1.49491,42.43321],[1.49393,42.4331],[1.49291,42.4332],[1.49216,42.43334],[1.49148,42.43336],[1.49025,42.43314],[1.48986,42.43312],[1.4889,42.43321],[1.48791,42.43316],[1.48698,42.43295],[1.48564,42.43296],[1.48482,42.43276],[1.4846,42.43275],[1.48294,42.43325],[1.48211,42.43335],[1.48144,42.43355],[1.48089,42.4336],[1.4806,42.43373],[1.4801,42.43374],[1.47941,42.43398],[1.47882,42.43407],[1.47814,42.43438],[1.47731,42.43468],[1.4764,42.43516],[1.47623,42.43521],[1.47354,42.43529],[1.47293,42.43517],[1.47255,42.43541],[1.47262,42.43555],[1.4724,42.43576],[1.46725,42.43638],[1.4645,42.43678],[1.45871,42.43679],[1.45704,42.43684],[1.45625,42.43696],[1.44927,42.43841],[1.44838,42.43932],[1.44533,42.4422],[1.44276,42.44455],[1.4443,42.44417],[1.44641,42.44356],[1.44621,42.44437],[1.44372,42.45031],[1.44266,42.45079],[1.44205,42.45116],[1.44198,42.45177],[1.44196,42.45374],[1.4418,42.45458],[1.44211,42.4551],[1.44233,42.45577],[1.44282,42.45607],[1.44357,42.45666],[1.44448,42.45719],[1.44547,42.45788],[1.44566,42.45806],[1.44578,42.45833],[1.44712,42.4595],[1.44752,42.46005],[1.44716,42.46024],[1.44578,42.4611],[1.44366,42.46249],[1.44309,42.46278],[1.44167,42.46337],[1.44101,42.46344],[1.44061,42.46359],[1.44029,42.4644],[1.44026,42.46461],[1.44044,42.46681],[1.4404,42.46746],[1.44024,42.46812],[1.44039,42.46936],[1.43995,42.47066],[1.43989,42.47111],[1.44025,42.47278],[1.44071,42.47405],[1.44074,42.47433],[1.4407,42.47467],[1.44093,42.47524],[1.44088,42.47542],[1.44077,42.47558],[1.44051,42.47583],[1.43991,42.47621],[1.43931,42.47698],[1.43844,42.47789],[1.43802,42.47811],[1.4377,42.47834],[1.43711,42.47906],[1.43675,42.47928],[1.4353,42.47979],[1.43503,42.47998],[1.43463,42.4806],[1.43376,42.48122],[1.43348,42.48166],[1.43206,42.48218],[1.43123,42.4824],[1.42974,42.48235],[1.42766,42.48238],[1.42631,42.48231],[1.42468,42.48239],[1.42374,42.48247],[1.42334,42.48258],[1.42223,42.48268],[1.42138,42.48283],[1.41906,42.48271],[1.4177,42.4824],[1.41754,42.48241],[1.41716,42.48262],[1.41654,42.48313],[1.41594,42.48372],[1.41548,42.48426],[1.41528,42.48436],[1.41495,42.4844],[1.41357,42.48429],[1.41117,42.4836],[1.41074,42.48403],[1.40935,42.48495],[1.40887,42.48547],[1.40871,42.48627],[1.40879,42.48657],[1.40905,42.48675],[1.40955,42.48688],[1.40992,42.48722],[1.41096,42.4877],[1.41107,42.48788],[1.4112,42.48797],[1.41139,42.48802],[1.41162,42.48817],[1.41219,42.48835],[1.41258,42.48863],[1.41278,42.489],[1.41312,42.48927],[1.41327,42.4895],[1.41338,42.48959],[1.4139,42.48983],[1.4142,42.49017],[1.41443,42.49029],[1.41468,42.4905],[1.41511,42.49069],[1.41534,42.49085],[1.41576,42.49117],[1.41583,42.49131],[1.41611,42.49156],[1.41683,42.49192],[1.41747,42.49241],[1.41798,42.49267],[1.4181,42.49268],[1.41846,42.49258],[1.41865,42.49241],[1.41904,42.49229],[1.42002,42.49246],[1.42113,42.49243],[1.42156,42.49253],[1.42466,42.49352],[1.43153,42.49344],[1.43931,42.4936],[1.44809,42.49635],[1.45038,42.49712],[1.45075,42.49755],[1.45128,42.49838],[1.45146,42.49879],[1.45178,42.49926],[1.45218,42.50017],[1.45223,42.50041],[1.45243,42.50068],[1.45276,42.50084],[1.45338,42.50137],[1.45364,42.50149],[1.45387,42.50153],[1.45443,42.50187],[1.45495,42.50236],[1.45546,42.50252],[1.45571,42.50268],[1.45611,42.50306],[1.4563,42.50312],[1.45644,42.50328],[1.45651,42.50364],[1.45658,42.50371],[1.45835,42.50434],[1.45865,42.50455],[1.45935,42.5045],[1.4595,42.50455],[1.46012,42.50458],[1.46032,42.50449],[1.46035,42.50469],[1.46059,42.50518],[1.46072,42.50536],[1.46102,42.5056],[1.46171,42.50601],[1.46305,42.5066],[1.46326,42.50695],[1.46339,42.50706],[1.46491,42.5077],[1.46508,42.50791],[1.46509,42.50805],[1.46515,42.50814],[1.46568,42.50847],[1.46717,42.5096],[1.46757,42.50982],[1.46787,42.50993],[1.46681,42.51176],[1.46429,42.51638],[1.46354,42.51843],[1.46145,42.52045],[1.46078,42.52133],[1.46068,42.5217],[1.46025,42.52268],[1.46016,42.52307],[1.45964,42.52344],[1.45923,42.52392],[1.45888,42.52424],[1.45852,42.52486],[1.45806,42.52518],[1.4562,42.52636],[1.45526,42.52648],[1.45486,42.52717],[1.45303,42.5299],[1.45182,42.53186],[1.4515,42.53266],[1.45129,42.53391],[1.45108,42.53465],[1.4512,42.53484],[1.45171,42.53533],[1.45203,42.53571],[1.4522,42.53602],[1.45232,42.53702],[1.45227,42.53854],[1.45222,42.53872],[1.45145,42.53938],[1.45087,42.53983],[1.45031,42.54012],[1.4489,42.54074],[1.44807,42.54098],[1.4467,42.54124],[1.44569,42.54151],[1.44518,42.54198],[1.44344,42.54269],[1.44281,42.54288],[1.44068,42.54335],[1.43778,42.54279],[1.43681,42.54254],[1.4348,42.54183],[1.43197,42.54071],[1.42769,42.5392],[1.42456,42.5389],[1.42392,42.53877],[1.42343,42.53862],[1.42281,42.53837],[1.42168,42.53775],[1.42001,42.53695],[1.41903,42.53645],[1.41841,42.53605],[1.41657,42.5354],[1.41508,42.53545],[1.41357,42.53531],[1.41355,42.5362],[1.41361,42.53656],[1.41369,42.53695],[1.41398,42.53757],[1.41438,42.53887],[1.41434,42.5396],[1.41453,42.54007],[1.41501,42.54066],[1.41611,42.54165],[1.41633,42.54231],[1.41653,42.5426],[1.41705,42.54316],[1.41757,42.54347],[1.41868,42.54398],[1.4191,42.54426],[1.41934,42.5445],[1.4194,42.54514],[1.41926,42.54614],[1.41864,42.54818],[1.41885,42.54856],[1.41889,42.54878],[1.41876,42.54909],[1.41997,42.54938],[1.42038,42.54953],[1.42054,42.54973],[1.4208,42.5504],[1.4213,42.55114],[1.42266,42.55348],[1.42275,42.55377],[1.42279,42.55541],[1.42298,42.55566],[1.4235,42.55601],[1.42372,42.55624],[1.4239,42.55652],[1.42526,42.55809],[1.42545,42.55826],[1.42597,42.55858],[1.4264,42.55867],[1.42716,42.55893],[1.42788,42.55906],[1.42827,42.55923],[1.42992,42.56033],[1.43066,42.5606],[1.4315,42.56062],[1.43191,42.56076],[1.43281,42.56131],[1.43554,42.56232],[1.43706,42.56301],[1.43792,42.56332],[1.43981,42.56369],[1.44031,42.56374],[1.4414,42.56426],[1.44198,42.56515],[1.44253,42.56589],[1.44359,42.56684],[1.44375,42.5671],[1.44433,42.56728],[1.44453,42.56744],[1.44496,42.56819],[1.4449,42.56834],[1.44458,42.56863],[1.44418,42.56913],[1.44363,42.57034],[1.44341,42.5711],[1.44347,42.5719],[1.44297,42.57199],[1.44185,42.57247],[1.44113,42.57269],[1.43831,42.57289],[1.43656,42.5731],[1.43621,42.57325],[1.43577,42.57354],[1.43482,42.57396],[1.43408,42.57419],[1.43356,42.57444],[1.433,42.57487],[1.4321,42.5754],[1.43184,42.57565],[1.43165,42.57598],[1.43158,42.57673],[1.43152,42.57688],[1.43126,42.57706],[1.4307,42.57728],[1.43002,42.5781],[1.42966,42.57832],[1.42937,42.57866],[1.42908,42.57911],[1.42892,42.57948],[1.4282,42.5796],[1.42812,42.57998],[1.42826,42.58019],[1.42755,42.58118],[1.42751,42.58145],[1.42727,42.58184],[1.42656,42.58261],[1.42647,42.58279],[1.42662,42.58359],[1.42671,42.58378],[1.42719,42.58441],[1.42745,42.58489],[1.4275,42.5851],[1.4275,42.58551],[1.42738,42.58629],[1.42738,42.58693],[1.42749,42.58724],[1.42766,42.58746],[1.42779,42.58755],[1.4283,42.58769],[1.42899,42.58779],[1.43022,42.58778],[1.43057,42.58771],[1.43103,42.5878],[1.4314,42.58819],[1.43175,42.58847],[1.43203,42.58862],[1.43218,42.58864],[1.43241,42.58884],[1.43257,42.58939],[1.43338,42.58974],[1.4346,42.59055],[1.43456,42.59067],[1.43485,42.59088],[1.43493,42.59099],[1.43489,42.59113],[1.4352,42.59144],[1.4353,42.59161],[1.43549,42.59175],[1.43689,42.59176],[1.43722,42.59181],[1.43744,42.59194],[1.43789,42.59205],[1.43841,42.59242],[1.43848,42.59254],[1.43877,42.59271],[1.43863,42.59303],[1.4389,42.59345],[1.43917,42.59352],[1.4393,42.59362],[1.43933,42.59385],[1.43961,42.5939],[1.43988,42.59414],[1.44059,42.59445],[1.44038,42.59486],[1.44059,42.59536],[1.44085,42.59556],[1.44087,42.5957],[1.44098,42.59583],[1.44091,42.59609],[1.44103,42.59627],[1.44101,42.59644],[1.44126,42.59674],[1.44121,42.59734],[1.44128,42.59748],[1.44155,42.59777],[1.4419,42.598],[1.44201,42.59826],[1.44219,42.59842],[1.44281,42.59866],[1.44281,42.59921],[1.44265,42.59944],[1.4427,42.60029],[1.44281,42.60071],[1.44297,42.60233],[1.44294,42.60242],[1.44265,42.60258],[1.44226,42.60304],[1.44208,42.60333],[1.44198,42.60373]],"crs":null},"properties":{"agreement":"Acord entre el Govern d'Andorra i el Govern de la República Francesa de delimitació de la frontera signat el 6 de març del 2012 (Bopa núm.38 del 8 d'agost del 2012) Entra en vigor l'1 de setembre del 2015"}}],"metadata":{"generatedAt":"2026-10-06T09:53:42.842Z","source":"govern-sig","attribution":"Base topogràfica cedida pel Govern d’Andorra"}}