{"type":"FeatureCollection","features":[{"type":"Feature","geometry":{"type":"Point","coordinates":[1.48992,42.46398],"crs":null},"properties":{"name":"La Valireta","code":"619","line":"LE"}},{"type":"Feature","geometry":{"type":"Point","coordinates":[1.49046,42.462],"crs":null},"properties":{"name":"Pont de Fontaneda","code":"609","line":"LE"}},{"type":"Feature","geometry":{"type":"Point","coordinates":[1.49264,42.46852],"crs":null},"properties":{"name":"Prat Nou","code":"610","line":"LE"}},{"type":"Feature","geometry":{"type":"Point","coordinates":[1.49341,42.47147],"crs":null},"properties":{"name":"Les Arades","code":"617","line":"LE"}},{"type":"Feature","geometry":{"type":"Point","coordinates":[1.49021,42.47662],"crs":null},"properties":{"name":"Rotonda d'Aixovall","code":"604","line":"LE"}},{"type":"Feature","geometry":{"type":"Point","coordinates":[1.49138,42.48456],"crs":null},"properties":{"name":"Rotonda de la Margineda","code":"5130","line":"LE"}},{"type":"Feature","geometry":{"type":"Point","coordinates":[1.49632,42.49101],"crs":null},"properties":{"name":"Pont Pobladó","code":"5405","line":"LE"}},{"type":"Feature","geometry":{"type":"Point","coordinates":[1.50015,42.4936],"crs":null},"properties":{"name":"Pont de Santa Coloma","code":"5407","line":"LE"}},{"type":"Feature","geometry":{"type":"Point","coordinates":[1.50407,42.49525],"crs":null},"properties":{"name":"Prat Salit","code":"5408","line":"LE"}},{"type":"Feature","geometry":{"type":"Point","coordinates":[1.51072,42.49833],"crs":null},"properties":{"name":"Les Costes","code":"5411","line":"LE"}},{"type":"Feature","geometry":{"type":"Point","coordinates":[1.51375,42.50211],"crs":null},"properties":{"name":"Estadi Comunal","code":"5413","line":"LE"}},{"type":"Feature","geometry":{"type":"Point","coordinates":[1.51991,42.50384],"crs":null},"properties":{"name":"Estació Nacional","code":"5556","line":"LE"}},{"type":"Feature","geometry":{"type":"Point","coordinates":[1.52337,42.50474],"crs":null},"properties":{"name":"Terra Vella","code":"5417","line":"LE"}},{"type":"Feature","geometry":{"type":"Point","coordinates":[1.52621,42.50513],"crs":null},"properties":{"name":"Els Marginets","code":"5419","line":"LE"}},{"type":"Feature","geometry":{"type":"Point","coordinates":[1.53417,42.50755],"crs":null},"properties":{"name":"La Unió","code":"710","line":"LE"}},{"type":"Feature","geometry":{"type":"Point","coordinates":[1.53107,42.50591],"crs":null},"properties":{"name":"Rotonda Escaler","code":"5024","line":"LE"}},{"type":"Feature","geometry":{"type":"Point","coordinates":[1.53417,42.50755],"crs":null},"properties":{"name":"La Unió","code":"710","line":"LE"}},{"type":"Feature","geometry":{"type":"Point","coordinates":[1.52669,42.50519],"crs":null},"properties":{"name":"Els Marginets","code":"5418","line":"LE"}},{"type":"Feature","geometry":{"type":"Point","coordinates":[1.52123,42.50436],"crs":null},"properties":{"name":"Estació Nacional","code":"5555","line":"LE"}},{"type":"Feature","geometry":{"type":"Point","coordinates":[1.51405,42.50234],"crs":null},"properties":{"name":"Estadi Comunal","code":"5412","line":"LE"}},{"type":"Feature","geometry":{"type":"Point","coordinates":[1.51074,42.49835],"crs":null},"properties":{"name":"Les Costes","code":"5410","line":"LE"}},{"type":"Feature","geometry":{"type":"Point","coordinates":[1.50407,42.49525],"crs":null},"properties":{"name":"Prat Salit","code":"5408","line":"LE"}},{"type":"Feature","geometry":{"type":"Point","coordinates":[1.5006,42.4939],"crs":null},"properties":{"name":"Pont de Santa Coloma","code":"5406","line":"LE"}},{"type":"Feature","geometry":{"type":"Point","coordinates":[1.49631,42.49084],"crs":null},"properties":{"name":"Pont Pobladó","code":"5404","line":"LE"}},{"type":"Feature","geometry":{"type":"Point","coordinates":[1.49138,42.48456],"crs":null},"properties":{"name":"Rotonda de la Margineda","code":"5130","line":"LE"}},{"type":"Feature","geometry":{"type":"Point","coordinates":[1.49021,42.47662],"crs":null},"properties":{"name":"Rotonda d'Aixovall","code":"604","line":"LE"}},{"type":"Feature","geometry":{"type":"Point","coordinates":[1.4933,42.4717],"crs":null},"properties":{"name":"Av. de Rocafort","code":"608","line":"LE"}},{"type":"Feature","geometry":{"type":"Point","coordinates":[1.49264,42.46859],"crs":null},"properties":{"name":"Prat Nou","code":"630","line":"LE"}},{"type":"Feature","geometry":{"type":"Point","coordinates":[1.49208,42.4672],"crs":null},"properties":{"name":"Pont de Molines","code":"612","line":"LE"}},{"type":"Feature","geometry":{"type":"Point","coordinates":[1.48932,42.46405],"crs":null},"properties":{"name":"La Valireta","code":"614","line":"LE"}},{"type":"Feature","geometry":{"type":"Point","coordinates":[1.4896,42.46139],"crs":null},"properties":{"name":"Pont de Fontaneda","code":"616","line":"LE"}},{"type":"Feature","geometry":{"type":"Point","coordinates":[1.53346,42.50772],"crs":null},"properties":{"name":" ","code":"5018","line":"LE"}},{"type":"Feature","geometry":{"type":"Point","coordinates":[1.53883,42.51135],"crs":null},"properties":{"name":"Caldea","code":"720","line":"L1"}},{"type":"Feature","geometry":{"type":"Point","coordinates":[1.52936,42.50906],"crs":null},"properties":{"name":"Rotonda","code":"5008","line":"L1"}},{"type":"Feature","geometry":{"type":"Point","coordinates":[1.51363,42.50345],"crs":null},"properties":{"name":"Roureda de Sansa","code":"5104","line":"L1"}},{"type":"Feature","geometry":{"type":"Point","coordinates":[1.5097,42.50079],"crs":null},"properties":{"name":"Gil Torres","code":"5106","line":"L1"}},{"type":"Feature","geometry":{"type":"Point","coordinates":[1.50784,42.49992],"crs":null},"properties":{"name":"Les Prades","code":"5108","line":"L1"}},{"type":"Feature","geometry":{"type":"Point","coordinates":[1.50379,42.49793],"crs":null},"properties":{"name":"El Cedre","code":"5110","line":"L1"}},{"type":"Feature","geometry":{"type":"Point","coordinates":[1.50084,42.49647],"crs":null},"properties":{"name":"Mossèn Lluís Pujol","code":"5120","line":"L1"}},{"type":"Feature","geometry":{"type":"Point","coordinates":[1.49816,42.49507],"crs":null},"properties":{"name":"Sant Vicenç","code":"5122","line":"L1"}},{"type":"Feature","geometry":{"type":"Point","coordinates":[1.49633,42.49191],"crs":null},"properties":{"name":"Riu d'Enclar","code":"5126","line":"L1"}},{"type":"Feature","geometry":{"type":"Point","coordinates":[1.49138,42.48456],"crs":null},"properties":{"name":"Rotonda de la Margineda","code":"5130","line":"L1"}},{"type":"Feature","geometry":{"type":"Point","coordinates":[1.49021,42.47662],"crs":null},"properties":{"name":"Rotonda d'Aixovall","code":"604","line":"L1"}},{"type":"Feature","geometry":{"type":"Point","coordinates":[1.4933,42.4717],"crs":null},"properties":{"name":"Av. de Rocafort","code":"608","line":"L1"}},{"type":"Feature","geometry":{"type":"Point","coordinates":[1.49264,42.46859],"crs":null},"properties":{"name":"Prat Nou","code":"630","line":"L1"}},{"type":"Feature","geometry":{"type":"Point","coordinates":[1.48931,42.46012],"crs":null},"properties":{"name":"La Planella","code":"618","line":"L1"}},{"type":"Feature","geometry":{"type":"Point","coordinates":[1.48739,42.45787],"crs":null},"properties":{"name":"Riu d'Aubinyà","code":"620","line":"L1"}},{"type":"Feature","geometry":{"type":"Point","coordinates":[1.51925,42.50715],"crs":null},"properties":{"name":"Font de la Call","code":"5100","line":"L1"}},{"type":"Feature","geometry":{"type":"Point","coordinates":[1.51511,42.50514],"crs":null},"properties":{"name":"La Stela","code":"5102","line":"L1"}},{"type":"Feature","geometry":{"type":"Point","coordinates":[1.48668,42.45486],"crs":null},"properties":{"name":"La Riberola","code":"622","line":"L1"}},{"type":"Feature","geometry":{"type":"Point","coordinates":[1.52593,42.50824],"crs":null},"properties":{"name":"La Creu Grossa","code":"5004","line":"L1"}},{"type":"Feature","geometry":{"type":"Point","coordinates":[1.48178,42.4459],"crs":null},"properties":{"name":"La Portalada","code":"624","line":"L1"}},{"type":"Feature","geometry":{"type":"Point","coordinates":[1.48715,42.45261],"crs":null},"properties":{"name":"La Riberola","code":"605","line":"L1"}},{"type":"Feature","geometry":{"type":"Point","coordinates":[1.4896,42.46139],"crs":null},"properties":{"name":"Pont de Fontaneda","code":"616","line":"L1"}},{"type":"Feature","geometry":{"type":"Point","coordinates":[1.52199,42.50753],"crs":null},"properties":{"name":"Princep Benlloch","code":"5001","line":"L1"}},{"type":"Feature","geometry":{"type":"Point","coordinates":[1.51799,42.50615],"crs":null},"properties":{"name":"La Quirola","code":"5101","line":"L1"}},{"type":"Feature","geometry":{"type":"Point","coordinates":[1.51386,42.50364],"crs":null},"properties":{"name":"Stela","code":"5103","line":"L1"}},{"type":"Feature","geometry":{"type":"Point","coordinates":[1.51048,42.50114],"crs":null},"properties":{"name":"Gil Torres","code":"5107","line":"L1"}},{"type":"Feature","geometry":{"type":"Point","coordinates":[1.50747,42.49974],"crs":null},"properties":{"name":"Les Prades","code":"5109","line":"L1"}},{"type":"Feature","geometry":{"type":"Point","coordinates":[1.50236,42.49723],"crs":null},"properties":{"name":"El Cedre","code":"5111","line":"L1"}},{"type":"Feature","geometry":{"type":"Point","coordinates":[1.50072,42.49641],"crs":null},"properties":{"name":"Mossèn Lluís Pujol","code":"5121","line":"L1"}},{"type":"Feature","geometry":{"type":"Point","coordinates":[1.49934,42.49574],"crs":null},"properties":{"name":"Sant Vicenç","code":"5123","line":"L1"}},{"type":"Feature","geometry":{"type":"Point","coordinates":[1.49341,42.47147],"crs":null},"properties":{"name":"Les Arades","code":"617","line":"L1"}},{"type":"Feature","geometry":{"type":"Point","coordinates":[1.49264,42.46852],"crs":null},"properties":{"name":"Prat Nou","code":"610","line":"L1"}},{"type":"Feature","geometry":{"type":"Point","coordinates":[1.48178,42.4459],"crs":null},"properties":{"name":"La Portalada","code":"624","line":"L1"}},{"type":"Feature","geometry":{"type":"Point","coordinates":[1.48715,42.45261],"crs":null},"properties":{"name":"La Riberola","code":"605","line":"L1"}},{"type":"Feature","geometry":{"type":"Point","coordinates":[1.48756,42.45803],"crs":null},"properties":{"name":"Riu d'Aubinyà","code":"607","line":"L1"}},{"type":"Feature","geometry":{"type":"Point","coordinates":[1.49046,42.462],"crs":null},"properties":{"name":"Pont de Fontaneda","code":"609","line":"L1"}},{"type":"Feature","geometry":{"type":"Point","coordinates":[1.48992,42.46398],"crs":null},"properties":{"name":"La Valireta","code":"619","line":"L1"}},{"type":"Feature","geometry":{"type":"Point","coordinates":[1.49021,42.47662],"crs":null},"properties":{"name":"Rotonda d'Aixovall","code":"604","line":"L1"}},{"type":"Feature","geometry":{"type":"Point","coordinates":[1.49138,42.48456],"crs":null},"properties":{"name":"Rotonda de la Margineda","code":"5130","line":"L1"}},{"type":"Feature","geometry":{"type":"Point","coordinates":[1.4965,42.49207],"crs":null},"properties":{"name":"Riu d'Enclar","code":"5127","line":"L1"}},{"type":"Feature","geometry":{"type":"Point","coordinates":[1.52532,42.50807],"crs":null},"properties":{"name":"La Creu Grossa","code":"5005","line":"L1"}},{"type":"Feature","geometry":{"type":"Point","coordinates":[1.52803,42.50731],"crs":null},"properties":{"name":"La Sardana","code":"5009","line":"L1"}},{"type":"Feature","geometry":{"type":"Point","coordinates":[1.53108,42.50888],"crs":null},"properties":{"name":"Consell d'Europa","code":"5011","line":"L1"}},{"type":"Feature","geometry":{"type":"Point","coordinates":[1.53883,42.51135],"crs":null},"properties":{"name":"Caldea","code":"720","line":"L1"}},{"type":"Feature","geometry":{"type":"Point","coordinates":[1.52152,42.50818],"crs":null},"properties":{"name":"Plaça Guillemó","code":"5002","line":"L1"}},{"type":"Feature","geometry":{"type":"Point","coordinates":[1.53558,42.51123],"crs":null},"properties":{"name":"Esteve Albert","code":"722","line":"L1"}},{"type":"Feature","geometry":{"type":"Point","coordinates":[1.53875,42.51018],"crs":null},"properties":{"name":"Plaça Coprínceps","code":"704","line":"L1"}},{"type":"Feature","geometry":{"type":"Point","coordinates":[1.49207,42.46718],"crs":null},"properties":{"name":"Pont de Molines","code":"612","line":"L1"}},{"type":"Feature","geometry":{"type":"Point","coordinates":[1.48931,42.46408],"crs":null},"properties":{"name":"La Valireta","code":"614","line":"L1"}},{"type":"Feature","geometry":{"type":"Point","coordinates":[1.55559,42.51825],"crs":null},"properties":{"line":"L2"}},{"type":"Feature","geometry":{"type":"Point","coordinates":[1.58344,42.53684],"crs":null},"properties":{"line":"L2"}},{"type":"Feature","geometry":{"type":"Point","coordinates":[1.58781,42.53497],"crs":null},"properties":{"line":"L2"}},{"type":"Feature","geometry":{"type":"Point","coordinates":[1.57814,42.53297],"crs":null},"properties":{"line":"L2"}},{"type":"Feature","geometry":{"type":"Point","coordinates":[1.58087,42.53438],"crs":null},"properties":{"line":"L2"}},{"type":"Feature","geometry":{"type":"Point","coordinates":[1.55019,42.51218],"crs":null},"properties":{"line":"L2"}},{"type":"Feature","geometry":{"type":"Point","coordinates":[1.57836,42.53308],"crs":null},"properties":{"line":"L2"}},{"type":"Feature","geometry":{"type":"Point","coordinates":[1.57376,42.53196],"crs":null},"properties":{"line":"L2"}},{"type":"Feature","geometry":{"type":"Point","coordinates":[1.528,42.50732],"crs":null},"properties":{"line":"L2"}},{"type":"Feature","geometry":{"type":"Point","coordinates":[1.54535,42.50942],"crs":null},"properties":{"line":"L2"}},{"type":"Feature","geometry":{"type":"Point","coordinates":[1.52787,42.50797],"crs":null},"properties":{"line":"L2"}},{"type":"Feature","geometry":{"type":"Point","coordinates":[1.53898,42.50945],"crs":null},"properties":{"line":"L2"}},{"type":"Feature","geometry":{"type":"Point","coordinates":[1.54239,42.50886],"crs":null},"properties":{"line":"L2"}},{"type":"Feature","geometry":{"type":"Point","coordinates":[1.55035,42.51211],"crs":null},"properties":{"line":"L2"}},{"type":"Feature","geometry":{"type":"Point","coordinates":[1.55294,42.51394],"crs":null},"properties":{"line":"L2"}},{"type":"Feature","geometry":{"type":"Point","coordinates":[1.55584,42.51807],"crs":null},"properties":{"line":"L2"}},{"type":"Feature","geometry":{"type":"Point","coordinates":[1.55947,42.52178],"crs":null},"properties":{"line":"L2"}},{"type":"Feature","geometry":{"type":"Point","coordinates":[1.56722,42.52647],"crs":null},"properties":{"line":"L2"}},{"type":"Feature","geometry":{"type":"Point","coordinates":[1.57186,42.52958],"crs":null},"properties":{"line":"L2"}},{"type":"Feature","geometry":{"type":"Point","coordinates":[1.57323,42.5318],"crs":null},"properties":{"line":"L2"}},{"type":"Feature","geometry":{"type":"Point","coordinates":[1.53992,42.51122],"crs":null},"properties":{"line":"L2"}},{"type":"Feature","geometry":{"type":"Point","coordinates":[1.54218,42.50904],"crs":null},"properties":{"line":"L2"}},{"type":"Feature","geometry":{"type":"Point","coordinates":[1.54508,42.50939],"crs":null},"properties":{"line":"L2"}},{"type":"Feature","geometry":{"type":"Point","coordinates":[1.55256,42.51356],"crs":null},"properties":{"line":"L2"}},{"type":"Feature","geometry":{"type":"Point","coordinates":[1.58539,42.53537],"crs":null},"properties":{"line":"L2"}},{"type":"Feature","geometry":{"type":"Point","coordinates":[1.58491,42.53379],"crs":null},"properties":{"line":"L2"}},{"type":"Feature","geometry":{"type":"Point","coordinates":[1.57172,42.52967],"crs":null},"properties":{"line":"L2"}},{"type":"Feature","geometry":{"type":"Point","coordinates":[1.56758,42.52697],"crs":null},"properties":{"line":"L2"}},{"type":"Feature","geometry":{"type":"Point","coordinates":[1.58143,42.53535],"crs":null},"properties":{"line":"L2"}},{"type":"Feature","geometry":{"type":"Point","coordinates":[1.58347,42.53699],"crs":null},"properties":{"line":"L2"}},{"type":"Feature","geometry":{"type":"Point","coordinates":[1.58731,42.53472],"crs":null},"properties":{"line":"L2"}},{"type":"Feature","geometry":{"type":"Point","coordinates":[1.58536,42.53569],"crs":null},"properties":{"line":"L2"}},{"type":"Feature","geometry":{"type":"Point","coordinates":[1.58551,42.53436],"crs":null},"properties":{"line":"L2"}},{"type":"Feature","geometry":{"type":"Point","coordinates":[1.55975,42.52219],"crs":null},"properties":{"line":"L2"}},{"type":"Feature","geometry":{"type":"Point","coordinates":[1.51954,42.50552],"crs":null},"properties":{"line":"L2"}},{"type":"Feature","geometry":{"type":"Point","coordinates":[1.52648,42.50721],"crs":null},"properties":{"line":"L2"}},{"type":"Feature","geometry":{"type":"Point","coordinates":[1.52117,42.50445],"crs":null},"properties":{"line":"L2"}},{"type":"Feature","geometry":{"type":"Point","coordinates":[1.52446,42.50687],"crs":null},"properties":{"line":"L2"}},{"type":"Feature","geometry":{"type":"Point","coordinates":[1.53111,42.50881],"crs":null},"properties":{"line":"L2"}},{"type":"Feature","geometry":{"type":"Point","coordinates":[1.53422,42.50981],"crs":null},"properties":{"line":"L2"}},{"type":"Feature","geometry":{"type":"Point","coordinates":[1.53867,42.51019],"crs":null},"properties":{"line":"L2"}},{"type":"Feature","geometry":{"type":"Point","coordinates":[1.53496,42.51004],"crs":null},"properties":{"line":"L2"}},{"type":"Feature","geometry":{"type":"Point","coordinates":[1.54071,42.51181],"crs":null},"properties":{"line":"L2"}},{"type":"Feature","geometry":{"type":"Point","coordinates":[1.57115,42.52938],"crs":null},"properties":{"line":"L3"}},{"type":"Feature","geometry":{"type":"Point","coordinates":[1.57976,42.53157],"crs":null},"properties":{"line":"L3"}},{"type":"Feature","geometry":{"type":"Point","coordinates":[1.52114,42.50444],"crs":null},"properties":{"line":"L3"}},{"type":"Feature","geometry":{"type":"Point","coordinates":[1.52619,42.50508],"crs":null},"properties":{"line":"L3"}},{"type":"Feature","geometry":{"type":"Point","coordinates":[1.52664,42.50528],"crs":null},"properties":{"line":"L3"}},{"type":"Feature","geometry":{"type":"Point","coordinates":[1.53102,42.50597],"crs":null},"properties":{"line":"L3"}},{"type":"Feature","geometry":{"type":"Point","coordinates":[1.53171,42.50659],"crs":null},"properties":{"line":"L3"}},{"type":"Feature","geometry":{"type":"Point","coordinates":[1.53869,42.5075],"crs":null},"properties":{"line":"L3"}},{"type":"Feature","geometry":{"type":"Point","coordinates":[1.54792,42.50975],"crs":null},"properties":{"line":"L3"}},{"type":"Feature","geometry":{"type":"Point","coordinates":[1.54776,42.50877],"crs":null},"properties":{"line":"L3"}},{"type":"Feature","geometry":{"type":"Point","coordinates":[1.58583,42.5337],"crs":null},"properties":{"line":"L3"}},{"type":"Feature","geometry":{"type":"Point","coordinates":[1.59802,42.56584],"crs":null},"properties":{"line":"L3"}},{"type":"Feature","geometry":{"type":"Point","coordinates":[1.59751,42.56588],"crs":null},"properties":{"line":"L3"}},{"type":"Feature","geometry":{"type":"Point","coordinates":[1.60052,42.56704],"crs":null},"properties":{"line":"L3"}},{"type":"Feature","geometry":{"type":"Point","coordinates":[1.60172,42.56748],"crs":null},"properties":{"line":"L3"}},{"type":"Feature","geometry":{"type":"Point","coordinates":[1.64937,42.57946],"crs":null},"properties":{"line":"L3"}},{"type":"Feature","geometry":{"type":"Point","coordinates":[1.64974,42.57941],"crs":null},"properties":{"line":"L3"}},{"type":"Feature","geometry":{"type":"Point","coordinates":[1.66645,42.57707],"crs":null},"properties":{"line":"L3"}},{"type":"Feature","geometry":{"type":"Point","coordinates":[1.66689,42.57676],"crs":null},"properties":{"line":"L3"}},{"type":"Feature","geometry":{"type":"Point","coordinates":[1.55261,42.51363],"crs":null},"properties":{"line":"L3"}},{"type":"Feature","geometry":{"type":"Point","coordinates":[1.55307,42.51389],"crs":null},"properties":{"line":"L3"}},{"type":"Feature","geometry":{"type":"Point","coordinates":[1.54862,42.51066],"crs":null},"properties":{"line":"L3"}},{"type":"Feature","geometry":{"type":"Point","coordinates":[1.66858,42.57639],"crs":null},"properties":{"line":"L3"}},{"type":"Feature","geometry":{"type":"Point","coordinates":[1.58726,42.53475],"crs":null},"properties":{"line":"L3"}},{"type":"Feature","geometry":{"type":"Point","coordinates":[1.54856,42.51071],"crs":null},"properties":{"line":"L4"}},{"type":"Feature","geometry":{"type":"Point","coordinates":[1.66406,42.58025],"crs":null},"properties":{"line":"L4"}},{"type":"Feature","geometry":{"type":"Point","coordinates":[1.66642,42.577],"crs":null},"properties":{"line":"L4"}},{"type":"Feature","geometry":{"type":"Point","coordinates":[1.58989,42.56006],"crs":null},"properties":{"line":"L4"}},{"type":"Feature","geometry":{"type":"Point","coordinates":[1.59808,42.56589],"crs":null},"properties":{"line":"L4"}},{"type":"Feature","geometry":{"type":"Point","coordinates":[1.58786,42.53497],"crs":null},"properties":{"line":"L4"}},{"type":"Feature","geometry":{"type":"Point","coordinates":[1.60692,42.57075],"crs":null},"properties":{"line":"L4"}},{"type":"Feature","geometry":{"type":"Point","coordinates":[1.61622,42.57281],"crs":null},"properties":{"line":"L4"}},{"type":"Feature","geometry":{"type":"Point","coordinates":[1.60172,42.56747],"crs":null},"properties":{"line":"L4"}},{"type":"Feature","geometry":{"type":"Point","coordinates":[1.60486,42.56969],"crs":null},"properties":{"line":"L4"}},{"type":"Feature","geometry":{"type":"Point","coordinates":[1.5782,42.53295],"crs":null},"properties":{"line":"L4"}},{"type":"Feature","geometry":{"type":"Point","coordinates":[1.57842,42.53314],"crs":null},"properties":{"line":"L4"}},{"type":"Feature","geometry":{"type":"Point","coordinates":[1.57167,42.5297],"crs":null},"properties":{"line":"L4"}},{"type":"Feature","geometry":{"type":"Point","coordinates":[1.54781,42.5089],"crs":null},"properties":{"line":"L4"}},{"type":"Feature","geometry":{"type":"Point","coordinates":[1.62142,42.57464],"crs":null},"properties":{"line":"L4"}},{"type":"Feature","geometry":{"type":"Point","coordinates":[1.65972,42.57986],"crs":null},"properties":{"line":"L4"}},{"type":"Feature","geometry":{"type":"Point","coordinates":[1.64925,42.57956],"crs":null},"properties":{"line":"L4"}},{"type":"Feature","geometry":{"type":"Point","coordinates":[1.66383,42.58025],"crs":null},"properties":{"line":"L4"}},{"type":"Feature","geometry":{"type":"Point","coordinates":[1.66264,42.58267],"crs":null},"properties":{"line":"L4"}},{"type":"Feature","geometry":{"type":"Point","coordinates":[1.62853,42.57761],"crs":null},"properties":{"line":"L4"}},{"type":"Feature","geometry":{"type":"Point","coordinates":[1.64577,42.57974],"crs":null},"properties":{"line":"L4"}},{"type":"Feature","geometry":{"type":"Point","coordinates":[1.64256,42.57944],"crs":null},"properties":{"line":"L4"}},{"type":"Feature","geometry":{"type":"Point","coordinates":[1.52666,42.50528],"crs":null},"properties":{"line":"L4"}},{"type":"Feature","geometry":{"type":"Point","coordinates":[1.55306,42.51379],"crs":null},"properties":{"line":"L4"}},{"type":"Feature","geometry":{"type":"Point","coordinates":[1.57205,42.52962],"crs":null},"properties":{"line":"L4"}},{"type":"Feature","geometry":{"type":"Point","coordinates":[1.52117,42.50445],"crs":null},"properties":{"line":"L4"}},{"type":"Feature","geometry":{"type":"Point","coordinates":[1.66692,42.57678],"crs":null},"properties":{"line":"L4"}},{"type":"Feature","geometry":{"type":"Point","coordinates":[1.66858,42.57639],"crs":null},"properties":{"line":"L4"}},{"type":"Feature","geometry":{"type":"Point","coordinates":[1.55256,42.51356],"crs":null},"properties":{"line":"L4"}},{"type":"Feature","geometry":{"type":"Point","coordinates":[1.6005,42.56697],"crs":null},"properties":{"line":"L4"}},{"type":"Feature","geometry":{"type":"Point","coordinates":[1.60478,42.57003],"crs":null},"properties":{"line":"L4"}},{"type":"Feature","geometry":{"type":"Point","coordinates":[1.58939,42.55978],"crs":null},"properties":{"line":"L4"}},{"type":"Feature","geometry":{"type":"Point","coordinates":[1.59761,42.56589],"crs":null},"properties":{"line":"L4"}},{"type":"Feature","geometry":{"type":"Point","coordinates":[1.58726,42.53475],"crs":null},"properties":{"line":"L4"}},{"type":"Feature","geometry":{"type":"Point","coordinates":[1.5911,42.55094],"crs":null},"properties":{"line":"L4"}},{"type":"Feature","geometry":{"type":"Point","coordinates":[1.61433,42.57242],"crs":null},"properties":{"line":"L4"}},{"type":"Feature","geometry":{"type":"Point","coordinates":[1.60739,42.571],"crs":null},"properties":{"line":"L4"}},{"type":"Feature","geometry":{"type":"Point","coordinates":[1.63419,42.57831],"crs":null},"properties":{"line":"L4"}},{"type":"Feature","geometry":{"type":"Point","coordinates":[1.62847,42.57778],"crs":null},"properties":{"line":"L4"}},{"type":"Feature","geometry":{"type":"Point","coordinates":[1.64161,42.57956],"crs":null},"properties":{"line":"L4"}},{"type":"Feature","geometry":{"type":"Point","coordinates":[1.64975,42.57939],"crs":null},"properties":{"line":"L4"}},{"type":"Feature","geometry":{"type":"Point","coordinates":[1.64589,42.58003],"crs":null},"properties":{"line":"L4"}},{"type":"Feature","geometry":{"type":"Point","coordinates":[1.66343,42.5839],"crs":null},"properties":{"line":"L4"}},{"type":"Feature","geometry":{"type":"Point","coordinates":[1.65928,42.57981],"crs":null},"properties":{"line":"L4"}},{"type":"Feature","geometry":{"type":"Point","coordinates":[1.52621,42.50506],"crs":null},"properties":{"line":"L4"}},{"type":"Feature","geometry":{"type":"Point","coordinates":[1.52117,42.50445],"crs":null},"properties":{"line":"L4"}},{"type":"Feature","geometry":{"type":"Point","coordinates":[1.53103,42.50597],"crs":null},"properties":{"line":"L4"}},{"type":"Feature","geometry":{"type":"Point","coordinates":[1.52666,42.50528],"crs":null},"properties":{"line":"L4"}},{"type":"Feature","geometry":{"type":"Point","coordinates":[1.54813,42.51018],"crs":null},"properties":{"line":"L4"}},{"type":"Feature","geometry":{"type":"Point","coordinates":[1.53873,42.50742],"crs":null},"properties":{"line":"L4"}},{"type":"Feature","geometry":{"type":"Point","coordinates":[1.53171,42.5066],"crs":null},"properties":{"line":"L4"}},{"type":"Feature","geometry":{"type":"Point","coordinates":[1.67956,42.56449],"crs":null},"properties":{"line":"L4"}},{"type":"Feature","geometry":{"type":"Point","coordinates":[1.68508,42.55999],"crs":null},"properties":{"line":"L4"}},{"type":"Feature","geometry":{"type":"Point","coordinates":[1.685,42.56027],"crs":null},"properties":{"line":"L4"}},{"type":"Feature","geometry":{"type":"Point","coordinates":[1.69544,42.55155],"crs":null},"properties":{"line":"L4"}},{"type":"Feature","geometry":{"type":"Point","coordinates":[1.69554,42.55161],"crs":null},"properties":{"line":"L4"}},{"type":"Feature","geometry":{"type":"Point","coordinates":[1.73394,42.54356],"crs":null},"properties":{"line":"L4"}},{"type":"Feature","geometry":{"type":"Point","coordinates":[1.5835,42.53678],"crs":null},"properties":{"line":"L4"}},{"type":"Feature","geometry":{"type":"Point","coordinates":[1.58343,42.53704],"crs":null},"properties":{"line":"L4"}},{"type":"Feature","geometry":{"type":"Point","coordinates":[1.51603,42.54416],"crs":null},"properties":{"name":"Les Entrades","code":"411","line":"L5"}},{"type":"Feature","geometry":{"type":"Point","coordinates":[1.51949,42.54032],"crs":null},"properties":{"name":"La Cabanota","code":"407","line":"L5"}},{"type":"Feature","geometry":{"type":"Point","coordinates":[1.5359,42.5131],"crs":null},"properties":{"name":"Els Escalls","code":"713","line":"L5"}},{"type":"Feature","geometry":{"type":"Point","coordinates":[1.52123,42.50436],"crs":null},"properties":{"name":"Estació Nacional","code":"5555","line":"L5"}},{"type":"Feature","geometry":{"type":"Point","coordinates":[1.52123,42.50436],"crs":null},"properties":{"name":"Estació Nacional","code":"5555","line":"L5"}},{"type":"Feature","geometry":{"type":"Point","coordinates":[1.51525,42.54504],"crs":null},"properties":{"name":"Les Entrades","code":"412","line":"L5"}},{"type":"Feature","geometry":{"type":"Point","coordinates":[1.51923,42.53992],"crs":null},"properties":{"name":"La Cabanota","code":"408","line":"L5"}},{"type":"Feature","geometry":{"type":"Point","coordinates":[1.5339,42.50793],"crs":null},"properties":{"name":"Fener","code":"5018","line":"L5"}},{"type":"Feature","geometry":{"type":"Point","coordinates":[1.53424,42.50752],"crs":null},"properties":{"name":"La Unió","code":"710","line":"L5"}},{"type":"Feature","geometry":{"type":"Point","coordinates":[1.52675,42.50531],"crs":null},"properties":{"name":"Marginets","code":"5418","line":"L5"}},{"type":"Feature","geometry":{"type":"Point","coordinates":[1.5262,42.50507],"crs":null},"properties":{"name":"Marginets","code":"5419","line":"L5"}},{"type":"Feature","geometry":{"type":"Point","coordinates":[1.53574,42.51267],"crs":null},"properties":{"name":"Escalls","code":"714bs","line":"L5"}},{"type":"Feature","geometry":{"type":"Point","coordinates":[1.52051,42.52509],"crs":null},"properties":{"name":"L'oratori de Sant Antoni","code":"425","line":"L5"}},{"type":"Feature","geometry":{"type":"Point","coordinates":[1.51998,42.53],"crs":null},"properties":{"name":"L'Obac de Sispony","code":"401","line":"L5"}},{"type":"Feature","geometry":{"type":"Point","coordinates":[1.5197,42.53301],"crs":null},"properties":{"name":"Cruïlla d'Anyós","code":"403","line":"L5"}},{"type":"Feature","geometry":{"type":"Point","coordinates":[1.51949,42.53328],"crs":null},"properties":{"name":"Cruïlla d'Anyós","code":"404","line":"L5"}},{"type":"Feature","geometry":{"type":"Point","coordinates":[1.51976,42.53764],"crs":null},"properties":{"name":"Serra de l'Honor","code":"406","line":"L5"}},{"type":"Feature","geometry":{"type":"Point","coordinates":[1.51953,42.53884],"crs":null},"properties":{"name":"Serra de l'Honor","code":"405","line":"L5"}},{"type":"Feature","geometry":{"type":"Point","coordinates":[1.51775,42.54193],"crs":null},"properties":{"name":"Les Costes","code":"409","line":"L5"}},{"type":"Feature","geometry":{"type":"Point","coordinates":[1.51737,42.54228],"crs":null},"properties":{"name":"Les Costes","code":"410","line":"L5"}},{"type":"Feature","geometry":{"type":"Point","coordinates":[1.51384,42.54668],"crs":null},"properties":{"name":"Centre de la vila","code":"416","line":"L5"}},{"type":"Feature","geometry":{"type":"Point","coordinates":[1.51394,42.54675],"crs":null},"properties":{"name":"Centre de la vila","code":"415","line":"L5"}},{"type":"Feature","geometry":{"type":"Point","coordinates":[1.51266,42.54901],"crs":null},"properties":{"name":"Prat Gran","code":"493","line":"L5"}},{"type":"Feature","geometry":{"type":"Point","coordinates":[1.51275,42.54863],"crs":null},"properties":{"name":"Prat Gran","code":"494","line":"L5"}},{"type":"Feature","geometry":{"type":"Point","coordinates":[1.51129,42.55025],"crs":null},"properties":{"name":"El Ravell","code":"452","line":"L5"}},{"type":"Feature","geometry":{"type":"Point","coordinates":[1.51128,42.55039],"crs":null},"properties":{"name":"El Ravell","code":"451","line":"L5"}},{"type":"Feature","geometry":{"type":"Point","coordinates":[1.50684,42.55379],"crs":null},"properties":{"name":"Industrial Teixidor","code":"450","line":"L5"}},{"type":"Feature","geometry":{"type":"Point","coordinates":[1.50693,42.55385],"crs":null},"properties":{"name":"Industrial Teixidor","code":"449","line":"L5"}},{"type":"Feature","geometry":{"type":"Point","coordinates":[1.50466,42.55775],"crs":null},"properties":{"name":"Prat de la Solana","code":"454","line":"L5"}},{"type":"Feature","geometry":{"type":"Point","coordinates":[1.50485,42.55802],"crs":null},"properties":{"name":"Prat de la Solana","code":"453","line":"L5"}},{"type":"Feature","geometry":{"type":"Point","coordinates":[1.49698,42.56155],"crs":null},"properties":{"name":"Erts","code":"455","line":"L5"}},{"type":"Feature","geometry":{"type":"Point","coordinates":[1.49636,42.56149],"crs":null},"properties":{"name":"Erts","code":"456","line":"L5"}},{"type":"Feature","geometry":{"type":"Point","coordinates":[1.49179,42.56492],"crs":null},"properties":{"name":"El Puiol del Pui","code":"457","line":"L5"}},{"type":"Feature","geometry":{"type":"Point","coordinates":[1.49131,42.56524],"crs":null},"properties":{"name":"El Puiol del Pui","code":"458","line":"L5"}},{"type":"Feature","geometry":{"type":"Point","coordinates":[1.48969,42.56727],"crs":null},"properties":{"name":"El Barricó","code":"469","line":"L5"}},{"type":"Feature","geometry":{"type":"Point","coordinates":[1.48976,42.56703],"crs":null},"properties":{"name":"El Barricó","code":"470","line":"L5"}},{"type":"Feature","geometry":{"type":"Point","coordinates":[1.48825,42.56928],"crs":null},"properties":{"name":"Prat de la Mola","code":"459","line":"L5"}},{"type":"Feature","geometry":{"type":"Point","coordinates":[1.48626,42.57107],"crs":null},"properties":{"name":"Prat de Moles","code":"461","line":"L5"}},{"type":"Feature","geometry":{"type":"Point","coordinates":[1.48385,42.57272],"crs":null},"properties":{"name":"Plaça d'Arinsal","code":"463","line":"L5"}},{"type":"Feature","geometry":{"type":"Point","coordinates":[1.48206,42.57444],"crs":null},"properties":{"name":"Prat de Verdú","code":"4651","line":"L5"}},{"type":"Feature","geometry":{"type":"Point","coordinates":[1.4815,42.57573],"crs":null},"properties":{"name":"Sant Andreu","code":"465","line":"L5"}},{"type":"Feature","geometry":{"type":"Point","coordinates":[1.47888,42.57835],"crs":null},"properties":{"name":" ","code":"468","line":"L5"}},{"type":"Feature","geometry":{"type":"Point","coordinates":[1.4814,42.57569],"crs":null},"properties":{"name":"Sant Andreu","code":"466","line":"L5"}},{"type":"Feature","geometry":{"type":"Point","coordinates":[1.48202,42.57432],"crs":null},"properties":{"name":"Prat de Verdú","code":"4650","line":"L5"}},{"type":"Feature","geometry":{"type":"Point","coordinates":[1.48371,42.57273],"crs":null},"properties":{"name":"Plaça d'Arinsal","code":"464","line":"L5"}},{"type":"Feature","geometry":{"type":"Point","coordinates":[1.48618,42.57103],"crs":null},"properties":{"name":"Prat de Moles","code":"462","line":"L5"}},{"type":"Feature","geometry":{"type":"Point","coordinates":[1.48825,42.56909],"crs":null},"properties":{"name":"Prat de la Mola","code":"460","line":"L5"}},{"type":"Feature","geometry":{"type":"Point","coordinates":[1.51394,42.54673],"crs":null},"properties":{"name":"Centre de la vila","code":"415","line":"L6"}},{"type":"Feature","geometry":{"type":"Point","coordinates":[1.5177,42.54188],"crs":null},"properties":{"name":"Les Costes","code":"409","line":"L6"}},{"type":"Feature","geometry":{"type":"Point","coordinates":[1.52138,42.50446],"crs":null},"properties":{"name":"Estació Nacional","code":"5555","line":"L6"}},{"type":"Feature","geometry":{"type":"Point","coordinates":[1.51924,42.54548],"crs":null},"properties":{"name":"El Través","code":"419","line":"L6"}},{"type":"Feature","geometry":{"type":"Point","coordinates":[1.52424,42.54936],"crs":null},"properties":{"name":"La pleta de l'Aldosa","code":"424","line":"L6"}},{"type":"Feature","geometry":{"type":"Point","coordinates":[1.52625,42.5508],"crs":null},"properties":{"name":"Cruïlla de l'Aldosa","code":"307","line":"L6"}},{"type":"Feature","geometry":{"type":"Point","coordinates":[1.52823,42.55327],"crs":null},"properties":{"name":"Clota","code":"305","line":"L6"}},{"type":"Feature","geometry":{"type":"Point","coordinates":[1.51387,42.54669],"crs":null},"properties":{"name":"Centre de la vila","code":"416","line":"L6"}},{"type":"Feature","geometry":{"type":"Point","coordinates":[1.51742,42.54233],"crs":null},"properties":{"name":"Les Costes","code":"410","line":"L6"}},{"type":"Feature","geometry":{"type":"Point","coordinates":[1.51832,42.54543],"crs":null},"properties":{"name":"El Través","code":"420","line":"L6"}},{"type":"Feature","geometry":{"type":"Point","coordinates":[1.52361,42.54922],"crs":null},"properties":{"name":"Pont d'Ordino","code":"309","line":"L6"}},{"type":"Feature","geometry":{"type":"Point","coordinates":[1.52606,42.5505],"crs":null},"properties":{"name":"Cruïlla de l'Aldosa","code":"308","line":"L6"}},{"type":"Feature","geometry":{"type":"Point","coordinates":[1.52883,42.55401],"crs":null},"properties":{"name":"Clota","code":"306","line":"L6"}},{"type":"Feature","geometry":{"type":"Point","coordinates":[1.53272,42.55609],"crs":null},"properties":{"name":"La Closa","code":"304","line":"L6"}},{"type":"Feature","geometry":{"type":"Point","coordinates":[1.53274,42.55662],"crs":null},"properties":{"name":"El Raval","code":"327","line":"L6"}},{"type":"Feature","geometry":{"type":"Point","coordinates":[1.53186,42.55951],"crs":null},"properties":{"name":"Les Moles","code":"325","line":"L6"}},{"type":"Feature","geometry":{"type":"Point","coordinates":[1.53187,42.55931],"crs":null},"properties":{"name":"Les Moles","code":"326","line":"L6"}},{"type":"Feature","geometry":{"type":"Point","coordinates":[1.52696,42.56347],"crs":null},"properties":{"name":"Cruïlla de Sornàs","code":"321","line":"L6"}},{"type":"Feature","geometry":{"type":"Point","coordinates":[1.5271,42.56312],"crs":null},"properties":{"name":"Cruïlla de Sornàs","code":"322","line":"L6"}},{"type":"Feature","geometry":{"type":"Point","coordinates":[1.52387,42.56619],"crs":null},"properties":{"name":"Camping Ansalonga","code":"323","line":"L6"}},{"type":"Feature","geometry":{"type":"Point","coordinates":[1.52363,42.56607],"crs":null},"properties":{"name":"Camping Ansalonga","code":"324","line":"L6"}},{"type":"Feature","geometry":{"type":"Point","coordinates":[1.52153,42.56867],"crs":null},"properties":{"name":"Pont d'Ansalonga","code":"331","line":"L6"}},{"type":"Feature","geometry":{"type":"Point","coordinates":[1.52132,42.56868],"crs":null},"properties":{"name":"Pont d'Ansalonga","code":"332","line":"L6"}},{"type":"Feature","geometry":{"type":"Point","coordinates":[1.5189,42.57291],"crs":null},"properties":{"name":"Bordes del Riu","code":"341","line":"L6"}},{"type":"Feature","geometry":{"type":"Point","coordinates":[1.5198,42.57187],"crs":null},"properties":{"name":"Ed. Eagle","code":"378","line":"L6"}},{"type":"Feature","geometry":{"type":"Point","coordinates":[1.55248,42.51362],"crs":null},"properties":{"name":"Central de FEDA","code":"728","line":"L6"}},{"type":"Feature","geometry":{"type":"Point","coordinates":[1.55301,42.51394],"crs":null},"properties":{"name":"Fener","code":"727","line":"L6"}},{"type":"Feature","geometry":{"type":"Point","coordinates":[1.54808,42.50997],"crs":null},"properties":{"name":"Coll de Caldes","code":"746","line":"L6"}},{"type":"Feature","geometry":{"type":"Point","coordinates":[1.54858,42.51071],"crs":null},"properties":{"name":"C. d'Engolasters","code":"744","line":"L6"}},{"type":"Feature","geometry":{"type":"Point","coordinates":[1.53839,42.5074],"crs":null},"properties":{"name":"Boïgues","code":"748","line":"L6"}},{"type":"Feature","geometry":{"type":"Point","coordinates":[1.53354,42.50781],"crs":null},"properties":{"name":"Fener","code":"5018","line":"L6"}},{"type":"Feature","geometry":{"type":"Point","coordinates":[1.53168,42.50657],"crs":null},"properties":{"name":"Verge del Pilar","code":"5019","line":"L6"}},{"type":"Feature","geometry":{"type":"Point","coordinates":[1.52633,42.50509],"crs":null},"properties":{"name":"Els Marginets","code":"5419","line":"L6"}},{"type":"Feature","geometry":{"type":"Point","coordinates":[1.52685,42.50529],"crs":null},"properties":{"name":"Els Marginets","code":"5418","line":"L6"}},{"type":"Feature","geometry":{"type":"Point","coordinates":[1.54776,42.50886],"crs":null},"properties":{"name":"C. de L'Obac","code":"745","line":"L6"}},{"type":"Feature","geometry":{"type":"Point","coordinates":[1.51973,42.53302],"crs":null},"properties":{"name":"Cruïlla d'Anyós","code":"403","line":"L6"}},{"type":"Feature","geometry":{"type":"Point","coordinates":[1.51944,42.53324],"crs":null},"properties":{"name":"Cruïlla de Sispony","code":"404","line":"L6"}},{"type":"Feature","geometry":{"type":"Point","coordinates":[1.53265,42.5556],"crs":null},"properties":{"name":"Rotonda d'Ordino","code":"311","line":"L6"}},{"type":"Feature","geometry":{"type":"Point","coordinates":[1.51607,42.54406],"crs":null},"properties":{"name":"Les Entrades","code":"411","line":"L7"}},{"type":"Feature","geometry":{"type":"Point","coordinates":[1.51949,42.54042],"crs":null},"properties":{"name":"La Cabanota","code":"407","line":"L7"}},{"type":"Feature","geometry":{"type":"Point","coordinates":[1.53051,42.51585],"crs":null},"properties":{"name":"Canal del Lloser","code":"717","line":"L7"}},{"type":"Feature","geometry":{"type":"Point","coordinates":[1.53177,42.51482],"crs":null},"properties":{"name":"Cruïlla Els Vilars","code":"715","line":"L7"}},{"type":"Feature","geometry":{"type":"Point","coordinates":[1.5359,42.5131],"crs":null},"properties":{"name":"Els Escalls","code":"713","line":"L7"}},{"type":"Feature","geometry":{"type":"Point","coordinates":[1.53422,42.50987],"crs":null},"properties":{"name":"Dama de Gel","code":"709","line":"L7"}},{"type":"Feature","geometry":{"type":"Point","coordinates":[1.53118,42.50885],"crs":null},"properties":{"name":"Consell d'Europa","code":"5011","line":"L7"}},{"type":"Feature","geometry":{"type":"Point","coordinates":[1.52803,42.50731],"crs":null},"properties":{"name":"La Sardana","code":"5009","line":"L7"}},{"type":"Feature","geometry":{"type":"Point","coordinates":[1.5244,42.50685],"crs":null},"properties":{"name":"Ambaixada Espanyola","code":"5201","line":"L7"}},{"type":"Feature","geometry":{"type":"Point","coordinates":[1.51967,42.50555],"crs":null},"properties":{"name":"La Grau","code":"5205","line":"L7"}},{"type":"Feature","geometry":{"type":"Point","coordinates":[1.52123,42.50436],"crs":null},"properties":{"name":"Estació Nacional","code":"5555","line":"L7"}},{"type":"Feature","geometry":{"type":"Point","coordinates":[1.52123,42.50436],"crs":null},"properties":{"name":"Estació Nacional","code":"5555","line":"L7"}},{"type":"Feature","geometry":{"type":"Point","coordinates":[1.52628,42.50721],"crs":null},"properties":{"name":"Ambaixada Espanyola","code":"5200","line":"L7"}},{"type":"Feature","geometry":{"type":"Point","coordinates":[1.52788,42.50798],"crs":null},"properties":{"name":"La Roda","code":"5012","line":"L7"}},{"type":"Feature","geometry":{"type":"Point","coordinates":[1.53296,42.51042],"crs":null},"properties":{"name":"Mitjavila","code":"5010","line":"L7"}},{"type":"Feature","geometry":{"type":"Point","coordinates":[1.53394,42.51132],"crs":null},"properties":{"name":"La Trenca","code":"712","line":"L7"}},{"type":"Feature","geometry":{"type":"Point","coordinates":[1.53524,42.51273],"crs":null},"properties":{"name":"Els Escalls","code":"714","line":"L7"}},{"type":"Feature","geometry":{"type":"Point","coordinates":[1.53159,42.51498],"crs":null},"properties":{"name":"Cruïlla Els Vilars","code":"716","line":"L7"}},{"type":"Feature","geometry":{"type":"Point","coordinates":[1.53002,42.51609],"crs":null},"properties":{"name":"Els Baus","code":"718","line":"L7"}},{"type":"Feature","geometry":{"type":"Point","coordinates":[1.51525,42.54509],"crs":null},"properties":{"name":"Les Entrades","code":"412","line":"L7"}},{"type":"Feature","geometry":{"type":"Point","coordinates":[1.5193,42.53995],"crs":null},"properties":{"name":"La Cabanota","code":"408","line":"L7"}},{"type":"Feature","geometry":{"type":"Point","coordinates":[1.53583,42.51131],"crs":null},"properties":{"name":"Esteve Albert","code":"722","line":"L7"}}],"metadata":{"generatedAt":"2026-10-06T09:53:43.237Z","source":"govern-sig","attribution":"Base topogràfica cedida pel Govern d’Andorra","note":"Govern “Línies autobús 2025” stop layers"}}