{"type":"FeatureCollection","name":"AD_micro-regions","crs":{"type":"name","properties":{"name":"urn:ogc:def:crs:OGC:1.3:CRS84"}},"features":[{"type":"Feature","properties":{"id":"AD-01"},"geometry":{"type":"MultiPolygon","coordinates":[[[[1.77874,42.57317],[1.77446,42.57778],[1.73861,42.61639],[1.69833,42.62611],[1.55972,42.65597],[1.49447,42.65102],[1.48653,42.65041],[1.48007,42.64272],[1.4474,42.60381],[1.44583,42.60194],[1.44076,42.59481],[1.43482,42.58862],[1.42958,42.5888],[1.42825,42.58885],[1.42786,42.58815],[1.4281,42.58778],[1.4281,42.58777],[1.42907,42.58575],[1.42867,42.58155],[1.42928,42.57988],[1.43361,42.57449],[1.43515,42.57417],[1.44267,42.5726],[1.4443,42.57165],[1.44527,42.56699],[1.44519,42.56692],[1.44598,42.56635],[1.44741,42.56532],[1.44912,42.56506],[1.45084,42.56466],[1.45269,42.56391],[1.45424,42.56302],[1.45437,42.56238],[1.45547,42.56226],[1.45659,42.56154],[1.45879,42.56156],[1.45972,42.5612],[1.46267,42.5605],[1.46581,42.55917],[1.47023,42.55843],[1.47607,42.56115],[1.47793,42.56361],[1.48054,42.56571],[1.48415,42.56578],[1.48648,42.56562],[1.48886,42.56636],[1.49093,42.5671],[1.49282,42.56775],[1.49459,42.56808],[1.49593,42.56877],[1.49696,42.56964],[1.49952,42.57088],[1.50188,42.57239],[1.50254,42.57385],[1.50645,42.57478],[1.50872,42.57448],[1.5108,42.5745],[1.51159,42.575],[1.51361,42.57533],[1.51525,42.5758],[1.51811,42.57731],[1.52013,42.57751],[1.52263,42.57857],[1.52429,42.57854],[1.52576,42.57809],[1.52748,42.57811],[1.52925,42.57816],[1.53115,42.57859],[1.53138,42.57913],[1.53224,42.5795],[1.53303,42.57978],[1.53468,42.57974],[1.53671,42.57958],[1.53916,42.57955],[1.54295,42.58012],[1.54583,42.58028],[1.54863,42.58156],[1.55015,42.58221],[1.55081,42.58362],[1.55356,42.58382],[1.55491,42.58428],[1.55589,42.58406],[1.55779,42.58416],[1.56048,42.58441],[1.56133,42.58473],[1.56226,42.58451],[1.56507,42.58453],[1.56556,42.58463],[1.56564,42.58309],[1.56621,42.58219],[1.56652,42.58173],[1.56635,42.58042],[1.56643,42.57906],[1.56643,42.57879],[1.56711,42.57848],[1.56706,42.57735],[1.5669,42.57608],[1.56685,42.57526],[1.56648,42.57481],[1.566,42.57426],[1.56577,42.57344],[1.56585,42.57172],[1.56586,42.57064],[1.56673,42.56947],[1.56748,42.56843],[1.5675,42.56734],[1.56795,42.56549],[1.56852,42.564],[1.57001,42.56252],[1.57156,42.56108],[1.57243,42.55972],[1.57282,42.55832],[1.57253,42.55705],[1.57487,42.55549],[1.57728,42.55414],[1.579,42.5537],[1.58107,42.55421],[1.58382,42.55532],[1.5887,42.55689],[1.59047,42.5569],[1.59187,42.55741],[1.59383,42.55752],[1.59592,42.55726],[1.59782,42.55677],[1.59954,42.55638],[1.60109,42.55512],[1.60123,42.55381],[1.60149,42.55222],[1.60188,42.55091],[1.60244,42.54992],[1.60459,42.54894],[1.60589,42.54827],[1.60664,42.54701],[1.60818,42.54588],[1.60942,42.54471],[1.61017,42.54318],[1.61024,42.54291],[1.61097,42.54332],[1.61335,42.54406],[1.6139,42.54361],[1.615,42.54394],[1.61555,42.54448],[1.6167,42.54526],[1.61834,42.54622],[1.61877,42.54659],[1.62024,42.5465],[1.62078,42.54755],[1.62108,42.54814],[1.62254,42.54838],[1.62438,42.54839],[1.62585,42.54835],[1.62793,42.54547],[1.6276,42.54497],[1.62994,42.54426],[1.63063,42.54263],[1.62985,42.54122],[1.62975,42.53968],[1.62909,42.53828],[1.62934,42.53769],[1.63021,42.53706],[1.63214,42.53431],[1.63363,42.53178],[1.63516,42.5317],[1.63567,42.53067],[1.63685,42.52927],[1.63699,42.52769],[1.63792,42.52615],[1.63818,42.52498],[1.63904,42.52439],[1.64125,42.52414],[1.64425,42.52447],[1.6473,42.52517],[1.6503,42.52505],[1.6514,42.52515],[1.65307,42.52353],[1.65394,42.52213],[1.65671,42.52138],[1.65879,42.52107],[1.66015,42.52018],[1.66005,42.51814],[1.65926,42.51727],[1.65909,42.51582],[1.65911,42.51456],[1.65863,42.51338],[1.65865,42.51134],[1.65867,42.50971],[1.65948,42.50854],[1.66181,42.50814],[1.66402,42.50779],[1.6653,42.50798],[1.66604,42.50776],[1.66672,42.50677],[1.66728,42.50587],[1.66906,42.50556],[1.67053,42.50543],[1.67096,42.50498],[1.67097,42.50412],[1.67141,42.50354],[1.67178,42.503],[1.67252,42.50241],[1.67277,42.50169],[1.67297,42.50083],[1.67325,42.50025],[1.6743,42.49902],[1.6747,42.49876],[1.67582,42.49759],[1.67687,42.49646],[1.67891,42.49484],[1.67903,42.49471],[1.68638,42.49448],[1.69482,42.49458],[1.70292,42.4914],[1.7015,42.49794],[1.7089,42.50014],[1.72079,42.50261],[1.72361,42.50944],[1.72404,42.51996],[1.72406,42.52037],[1.7241,42.52139],[1.74187,42.56062],[1.77139,42.57111],[1.77765,42.57041],[1.78172,42.56996],[1.78034,42.57145],[1.77905,42.57283],[1.77874,42.57317]]]]}},{"type":"Feature","properties":{"id":"AD-02"},"geometry":{"type":"MultiPolygon","coordinates":[[[[1.44598,42.56635],[1.44519,42.56692],[1.44148,42.56387],[1.43478,42.56191],[1.42791,42.55915],[1.42513,42.55744],[1.42291,42.55197],[1.42006,42.54879],[1.41859,42.54375],[1.41449,42.53595],[1.42769,42.53915],[1.43697,42.54243],[1.44378,42.54252],[1.45165,42.53959],[1.4552,42.52765],[1.45912,42.52561],[1.46458,42.51702],[1.46832,42.51013],[1.47005,42.51053],[1.47158,42.51104],[1.47335,42.51137],[1.47457,42.51169],[1.4756,42.5122],[1.47694,42.51262],[1.47945,42.51264],[1.48049,42.51269],[1.48207,42.51361],[1.48347,42.51403],[1.48549,42.51409],[1.48665,42.51428],[1.48806,42.5142],[1.48904,42.51402],[1.49063,42.51395],[1.49259,42.51387],[1.49399,42.51438],[1.49565,42.51407],[1.49735,42.51454],[1.49801,42.51545],[1.50118,42.51674],[1.50289,42.51662],[1.50381,42.51703],[1.50558,42.51691],[1.50588,42.51773],[1.50618,42.51836],[1.50837,42.51929],[1.50909,42.52029],[1.51114,42.52234],[1.51258,42.52461],[1.51343,42.5248],[1.51562,42.52627],[1.51805,42.52755],[1.51884,42.52751],[1.51993,42.52847],[1.52128,42.5288],[1.52226,42.52817],[1.52264,42.52772],[1.5243,42.52728],[1.5248,42.52593],[1.5256,42.52589],[1.52733,42.52436],[1.52832,42.52401],[1.52967,42.52374],[1.53138,42.52367],[1.53188,42.52335],[1.53292,42.52336],[1.53403,42.52282],[1.53513,42.52292],[1.53696,42.52289],[1.53807,42.52245],[1.54015,42.52282],[1.54137,42.52274],[1.54216,42.5232],[1.54351,42.5233],[1.54466,42.52376],[1.5462,42.52377],[1.54633,42.52264],[1.54683,42.52188],[1.54691,42.52043],[1.54692,42.51966],[1.54803,42.51921],[1.54871,42.51867],[1.54872,42.51822],[1.54921,42.51804],[1.54934,42.51691],[1.54973,42.5156],[1.54932,42.51438],[1.54859,42.51369],[1.54774,42.51292],[1.54732,42.51233],[1.54647,42.51187],[1.54586,42.51154],[1.54716,42.5106],[1.55301,42.5077],[1.5553,42.50613],[1.55701,42.50601],[1.55806,42.50574],[1.55868,42.50493],[1.5593,42.50408],[1.56066,42.50332],[1.56073,42.50259],[1.56215,42.50165],[1.56404,42.5018],[1.56533,42.50177],[1.56648,42.50218],[1.56783,42.50233],[1.56886,42.50283],[1.57051,42.50293],[1.57278,42.50286],[1.57462,42.50242],[1.57644,42.50329],[1.57822,42.5033],[1.57938,42.50331],[1.58066,42.50377],[1.58158,42.50382],[1.58231,42.50424],[1.58426,42.50452],[1.58542,42.50462],[1.5864,42.50503],[1.587,42.50549],[1.58786,42.50572],[1.58872,42.50559],[1.58982,42.50551],[1.59049,42.50551],[1.59178,42.50516],[1.59264,42.5049],[1.59362,42.50472],[1.59491,42.504],[1.5959,42.50369],[1.59645,42.50329],[1.59719,42.50321],[1.5978,42.50321],[1.59829,42.50308],[1.59879,42.50272],[1.59903,42.50254],[1.59946,42.50236],[1.60044,42.50223],[1.60094,42.50187],[1.60198,42.5017],[1.60303,42.50103],[1.6042,42.50049],[1.60537,42.5],[1.60739,42.49947],[1.60856,42.4993],[1.60996,42.49921],[1.61113,42.49891],[1.61199,42.49868],[1.61285,42.49846],[1.61377,42.49842],[1.61444,42.49847],[1.6153,42.49848],[1.61584,42.4988],[1.61633,42.49894],[1.61804,42.49927],[1.61872,42.49904],[1.61877,42.49923],[1.62066,42.49978],[1.62219,42.49984],[1.62391,42.49958],[1.62428,42.49913],[1.62546,42.49805],[1.62633,42.4971],[1.62633,42.49647],[1.62573,42.49588],[1.62463,42.49532],[1.62409,42.495],[1.62361,42.49423],[1.62392,42.4936],[1.62657,42.49185],[1.62879,42.49019],[1.63075,42.48975],[1.63137,42.48926],[1.63156,42.48853],[1.63334,42.48805],[1.63506,42.48751],[1.63764,42.48694],[1.63985,42.48605],[1.64237,42.48543],[1.64488,42.4845],[1.64629,42.48432],[1.64709,42.48379],[1.64973,42.48362],[1.65114,42.48345],[1.65242,42.48386],[1.65451,42.48234],[1.65612,42.48103],[1.65729,42.48045],[1.65809,42.47996],[1.65907,42.47983],[1.65969,42.47911],[1.6603,42.47852],[1.66043,42.47848],[1.66261,42.47634],[1.6628,42.48489],[1.66311,42.49157],[1.66573,42.49561],[1.67006,42.504],[1.67325,42.50025],[1.67297,42.50083],[1.67277,42.50169],[1.67252,42.50241],[1.67178,42.503],[1.67141,42.50354],[1.67097,42.50412],[1.67096,42.50498],[1.67053,42.50543],[1.66906,42.50556],[1.66728,42.50587],[1.66672,42.50677],[1.66604,42.50776],[1.6653,42.50798],[1.66402,42.50779],[1.66181,42.50814],[1.65948,42.50854],[1.65867,42.50971],[1.65865,42.51134],[1.65863,42.51338],[1.65911,42.51456],[1.65909,42.51582],[1.65926,42.51727],[1.66005,42.51814],[1.66015,42.52018],[1.65879,42.52107],[1.65671,42.52138],[1.65394,42.52213],[1.65307,42.52353],[1.6514,42.52515],[1.6503,42.52505],[1.6473,42.52517],[1.64425,42.52447],[1.64125,42.52414],[1.63904,42.52439],[1.63818,42.52498],[1.63792,42.52615],[1.63699,42.52769],[1.63685,42.52927],[1.63567,42.53067],[1.63516,42.5317],[1.63363,42.53178],[1.63214,42.53431],[1.63021,42.53706],[1.62934,42.53769],[1.62909,42.53828],[1.62975,42.53968],[1.62985,42.54122],[1.63063,42.54263],[1.62994,42.54426],[1.6276,42.54497],[1.62793,42.54547],[1.62585,42.54835],[1.62438,42.54839],[1.62254,42.54838],[1.62108,42.54814],[1.62078,42.54755],[1.62024,42.5465],[1.61877,42.54659],[1.61834,42.54622],[1.6167,42.54526],[1.61555,42.54448],[1.615,42.54394],[1.6139,42.54361],[1.61335,42.54406],[1.61097,42.54332],[1.61024,42.54291],[1.61017,42.54318],[1.60942,42.54471],[1.60818,42.54588],[1.60664,42.54701],[1.60589,42.54827],[1.60459,42.54894],[1.60244,42.54992],[1.60188,42.55091],[1.60149,42.55222],[1.60123,42.55381],[1.60109,42.55512],[1.59954,42.55638],[1.59782,42.55677],[1.59592,42.55726],[1.59383,42.55752],[1.59187,42.55741],[1.59047,42.5569],[1.5887,42.55689],[1.58382,42.55532],[1.58107,42.55421],[1.579,42.5537],[1.57728,42.55414],[1.57487,42.55549],[1.57253,42.55705],[1.57282,42.55832],[1.57243,42.55972],[1.57156,42.56108],[1.57001,42.56252],[1.56852,42.564],[1.56795,42.56549],[1.5675,42.56734],[1.56748,42.56843],[1.56673,42.56947],[1.56586,42.57064],[1.56585,42.57172],[1.56577,42.57344],[1.566,42.57426],[1.56648,42.57481],[1.56685,42.57526],[1.5669,42.57608],[1.56706,42.57735],[1.56711,42.57848],[1.56643,42.57879],[1.56643,42.57906],[1.56635,42.58042],[1.56652,42.58173],[1.56621,42.58219],[1.56564,42.58309],[1.56556,42.58463],[1.56507,42.58453],[1.56226,42.58451],[1.56133,42.58473],[1.56048,42.58441],[1.55779,42.58416],[1.55589,42.58406],[1.55491,42.58428],[1.55356,42.58382],[1.55081,42.58362],[1.55015,42.58221],[1.54863,42.58156],[1.54583,42.58028],[1.54295,42.58012],[1.53916,42.57955],[1.53671,42.57958],[1.53468,42.57974],[1.53303,42.57978],[1.53224,42.5795],[1.53138,42.57913],[1.53115,42.57859],[1.52925,42.57816],[1.52748,42.57811],[1.52576,42.57809],[1.52429,42.57854],[1.52263,42.57857],[1.52013,42.57751],[1.51811,42.57731],[1.51525,42.5758],[1.51361,42.57533],[1.51159,42.575],[1.5108,42.5745],[1.50872,42.57448],[1.50645,42.57478],[1.50254,42.57385],[1.50188,42.57239],[1.49952,42.57088],[1.49696,42.56964],[1.49593,42.56877],[1.49459,42.56808],[1.49282,42.56775],[1.49093,42.5671],[1.48886,42.56636],[1.48648,42.56562],[1.48415,42.56578],[1.48054,42.56571],[1.47793,42.56361],[1.47607,42.56115],[1.47023,42.55843],[1.46581,42.55917],[1.46267,42.5605],[1.45972,42.5612],[1.45879,42.56156],[1.45659,42.56154],[1.45547,42.56226],[1.45437,42.56238],[1.45424,42.56302],[1.45269,42.56391],[1.45084,42.56466],[1.44912,42.56506],[1.44741,42.56532],[1.44598,42.56635]]],[[[1.6747,42.49876],[1.6743,42.49902],[1.67793,42.49475],[1.67903,42.49471],[1.67891,42.49484],[1.67687,42.49646],[1.67582,42.49759],[1.6747,42.49876]]]]}},{"type":"Feature","properties":{"id":"AD-03"},"geometry":{"type":"MultiPolygon","coordinates":[[[[1.44318,42.45796],[1.45169,42.44693],[1.45579,42.44418],[1.46138,42.44142],[1.47593,42.43812],[1.48376,42.43564],[1.53,42.43564],[1.54231,42.43702],[1.55648,42.44775],[1.5568,42.44782],[1.55657,42.44795],[1.55912,42.45022],[1.55703,42.45484],[1.56016,42.45845],[1.56577,42.45912],[1.57148,42.45542],[1.57552,42.45209],[1.58153,42.44954],[1.58452,42.45692],[1.59023,42.46367],[1.5987,42.46777],[1.60328,42.46483],[1.61024,42.46502],[1.61707,42.4651],[1.62271,42.46458],[1.63127,42.46249],[1.63614,42.46656],[1.64156,42.46629],[1.64553,42.46842],[1.6548,42.46704],[1.65756,42.46975],[1.66257,42.47454],[1.66261,42.47634],[1.66043,42.47848],[1.6603,42.47852],[1.65969,42.47911],[1.65907,42.47983],[1.65809,42.47996],[1.65729,42.48045],[1.65612,42.48103],[1.65451,42.48234],[1.65242,42.48386],[1.65114,42.48345],[1.64973,42.48362],[1.64709,42.48379],[1.64629,42.48432],[1.64488,42.4845],[1.64237,42.48543],[1.63985,42.48605],[1.63764,42.48694],[1.63506,42.48751],[1.63334,42.48805],[1.63156,42.48853],[1.63137,42.48926],[1.63075,42.48975],[1.62879,42.49019],[1.62657,42.49185],[1.62392,42.4936],[1.62361,42.49423],[1.62409,42.495],[1.62463,42.49532],[1.62573,42.49588],[1.62633,42.49647],[1.62633,42.4971],[1.62546,42.49805],[1.62428,42.49913],[1.62391,42.49958],[1.62219,42.49984],[1.62066,42.49978],[1.61877,42.49923],[1.61872,42.49904],[1.61804,42.49927],[1.61633,42.49894],[1.61584,42.4988],[1.6153,42.49848],[1.61444,42.49847],[1.61377,42.49842],[1.61285,42.49846],[1.61199,42.49868],[1.61113,42.49891],[1.60996,42.49921],[1.60856,42.4993],[1.60739,42.49947],[1.60537,42.5],[1.6042,42.50049],[1.60303,42.50103],[1.60198,42.5017],[1.60094,42.50187],[1.60044,42.50223],[1.59946,42.50236],[1.59903,42.50254],[1.59879,42.50272],[1.59829,42.50308],[1.5978,42.50321],[1.59719,42.50321],[1.59645,42.50329],[1.5959,42.50369],[1.59491,42.504],[1.59362,42.50472],[1.59264,42.5049],[1.59178,42.50516],[1.59049,42.50551],[1.58982,42.50551],[1.58872,42.50559],[1.58786,42.50572],[1.587,42.50549],[1.5864,42.50503],[1.58542,42.50462],[1.58426,42.50452],[1.58231,42.50424],[1.58158,42.50382],[1.58066,42.50377],[1.57938,42.50331],[1.57822,42.5033],[1.57644,42.50329],[1.57462,42.50242],[1.57278,42.50286],[1.57051,42.50293],[1.56886,42.50283],[1.56783,42.50233],[1.56648,42.50218],[1.56533,42.50177],[1.56404,42.5018],[1.56215,42.50165],[1.56073,42.50259],[1.56066,42.50332],[1.5593,42.50408],[1.55868,42.50493],[1.55806,42.50574],[1.55701,42.50601],[1.5553,42.50613],[1.55301,42.5077],[1.54716,42.5106],[1.54586,42.51154],[1.54647,42.51187],[1.54732,42.51233],[1.54774,42.51292],[1.54859,42.51369],[1.54932,42.51438],[1.54973,42.5156],[1.54934,42.51691],[1.54921,42.51804],[1.54872,42.51822],[1.54871,42.51867],[1.54803,42.51921],[1.54692,42.51966],[1.54691,42.52043],[1.54683,42.52188],[1.54633,42.52264],[1.5462,42.52377],[1.54466,42.52376],[1.54351,42.5233],[1.54216,42.5232],[1.54137,42.52274],[1.54015,42.52282],[1.53807,42.52245],[1.53696,42.52289],[1.53513,42.52292],[1.53403,42.52282],[1.53292,42.52336],[1.53188,42.52335],[1.53138,42.52367],[1.52967,42.52374],[1.52832,42.52401],[1.52733,42.52436],[1.5256,42.52589],[1.5248,42.52593],[1.5243,42.52728],[1.52264,42.52772],[1.52226,42.52817],[1.52128,42.5288],[1.51993,42.52847],[1.51884,42.52751],[1.51805,42.52755],[1.51562,42.52627],[1.51343,42.5248],[1.51258,42.52461],[1.51114,42.52234],[1.50909,42.52029],[1.50837,42.51929],[1.50618,42.51836],[1.50588,42.51773],[1.50558,42.51691],[1.50381,42.51703],[1.50289,42.51662],[1.50118,42.51674],[1.49801,42.51545],[1.49735,42.51454],[1.49565,42.51407],[1.49399,42.51438],[1.49259,42.51387],[1.49063,42.51395],[1.48904,42.51402],[1.48806,42.5142],[1.48665,42.51428],[1.48549,42.51409],[1.48347,42.51403],[1.48207,42.51361],[1.48049,42.51269],[1.47945,42.51264],[1.47694,42.51262],[1.4756,42.5122],[1.47457,42.51169],[1.47335,42.51137],[1.47158,42.51104],[1.47005,42.51053],[1.46832,42.51013],[1.46856,42.50969],[1.46011,42.50421],[1.45443,42.50155],[1.4424,42.49529],[1.43229,42.49281],[1.42473,42.49298],[1.42178,42.48941],[1.41721,42.48367],[1.43203,42.48325],[1.43952,42.47757],[1.43866,42.47446],[1.43968,42.46755],[1.44492,42.46196],[1.44318,42.45796]]]]}}],"metadata":{"source":"eaws","url":"https://regions.avalanches.org/micro-regions/AD_micro-regions.geojson.json","attribution":"EAWS micro-regions"}}