{"type":"FeatureCollection","features":[{"type":"Feature","geometry":{"type":"Point","coordinates":[1.55357,42.51554],"crs":null},"properties":{"code":"99130001","name":"FEDA (Central)","altitude":1135,"season":"Tot l'any","variables":"Temperatura màxima i mínima, vent, precipitació i gruix de neu"}},{"type":"Feature","geometry":{"type":"Point","coordinates":[1.63941,42.57872],"crs":null},"properties":{"code":"9913004","name":"Ransol","altitude":1645,"season":"Tot l'any","variables":"Manual: temperatura màxima i mínima, precipitació i gruix de neu. Automàtica: temperatura, temperatura de rosada, precipitació i humitat relativa"}},{"type":"Feature","geometry":{"type":"Point","coordinates":[1.71698,42.535],"crs":null},"properties":{"code":"99130006","name":"Envalira","altitude":2510,"season":"Tot l'any","variables":"Temperatura, precipitació, humitat relativa, direcció i força del vent (20 m), irradiació global i insolació"}},{"type":"Feature","geometry":{"type":"Point","coordinates":[1.52294,42.49692],"crs":null},"properties":{"code":"99130008","name":"La Comella","altitude":1225,"season":"Tot l'any","variables":"Temperatura, precipitació, direcció i força del vent (10 m), a partir de 9/2022 insolació i irradiació"}},{"type":"Feature","geometry":{"type":"Point","coordinates":[1.44067,42.55098],"crs":null},"properties":{"code":"40","name":"Bordes de Setúria - SAIH","altitude":1910,"season":"Tot l'any","variables":"Temperatura i precipitació"}},{"type":"Feature","geometry":{"type":"Point","coordinates":[1.47492,42.43556],"crs":null},"properties":{"code":"99130009","name":"Borda Vidal","altitude":873,"season":"Tot l'any","variables":"Temperatura, humitat, precipitació, direcció i força del vent (10 m), alçada dels núvols i temps present"}},{"type":"Feature","geometry":{"type":"Point","coordinates":[1.57171,42.54933],"crs":null},"properties":{"code":"99130012","name":"Bony de les Neres","altitude":2080,"season":"Tot l'any","variables":"Temperatura, humitat, direcció i força del vent (6,5 m), precipitació, gruix de neu, radiació solar global i temperatura del sòl"}},{"type":"Feature","geometry":{"type":"Point","coordinates":[1.47761,42.60014],"crs":null},"properties":{"code":"99130013","name":"Les Fonts d'Arinsal","altitude":2681,"season":"Tot l'any","variables":"Temperatura, humitat, direcció i força del vent (3,8 m), gruix de neu i transport de neu pel vent"}},{"type":"Feature","geometry":{"type":"Point","coordinates":[1.58378,42.46891],"crs":null},"properties":{"code":"99130010","name":"Perafita","altitude":2402,"season":"Tot l'any","variables":"Temperatura, humitat relativa, precipitació, direcció i força del vent (6,5 m), radiació solar, gruix de neu, temperatura sol, temperatura neu"}},{"type":"Feature","geometry":{"type":"Point","coordinates":[1.49359,42.48494],"crs":null},"properties":{"code":"99130016","name":"La Margineda - FEDA","altitude":950,"season":"Tot l'any","variables":"Temperatura, humitat relativa, precipitació, direcció i força del vent (3 m), pressió atmosfèrica"}},{"type":"Feature","geometry":{"type":"Point","coordinates":[1.59399,42.49218],"crs":null},"properties":{"code":"99130021","name":"Fontverd","altitude":1880,"season":"Tot l'any","variables":"Temperatura, humitat, temperatura delsòl i gruix de neu"}},{"type":"Feature","geometry":{"type":"Point","coordinates":[1.63941,42.57872],"crs":null},"properties":{"code":"99130004","name":"Ransol - FEDA","altitude":1641,"season":"Tot l'any","variables":"Manual: temperatura màxima i mínima, precipitació i gruix de neu. Automàtica: temperatura, temperatura de rosada, precipitació i humitat relativa"}},{"type":"Feature","geometry":{"type":"Point","coordinates":[1.54711,42.43488],"crs":null},"properties":{"code":"99130024","name":"Caborreu","altitude":2250,"season":"Tot l'any","variables":"Temperatura, humitat, temperatura delsòl i gruix de neu"}},{"type":"Feature","geometry":{"type":"Point","coordinates":[1.47612,42.51248],"crs":null},"properties":{"code":"99130025","name":"Coll Pa","altitude":2280,"season":"Tot l'any","variables":"Temperatura màxima i mínima, humitat, temperatura del terra i gruix de neu"}},{"type":"Feature","geometry":{"type":"Point","coordinates":[1.56537,42.51682],"crs":null},"properties":{"code":"99130002","name":"Engolasters - FEDA","altitude":1638,"season":"Tot l'any","variables":"Manual: temperatura màxima i mínima, precipitació i gruix de neu. Automàtica: temperatura, temperatura de rosada, precipitació i humitat relativa"}},{"type":"Feature","geometry":{"type":"Point","coordinates":[1.53264,42.51263],"crs":null},"properties":{"code":"99130005","name":"Roc St. Pere","altitude":1113,"season":"Tot l'any","variables":"Temperatura, temperatura de rosada, precipitació, humitat relativa, direcció i força del vent (10 m), irradiació global, insolació"}},{"type":"Feature","geometry":{"type":"Point","coordinates":[1.53803,42.61064],"crs":null},"properties":{"code":"99130007","name":"Les Salines","altitude":1445,"season":"Tot l'any","variables":"Temperatura, precipitació, direcció i força del vent (10 m)"}},{"type":"Feature","geometry":{"type":"Point","coordinates":[1.47959,42.63349],"crs":null},"properties":{"code":"39","name":"Arcalís - SAIH","altitude":2220,"season":"Tot l'any","variables":"Temperatura i precipitació"}},{"type":"Feature","geometry":{"type":"Point","coordinates":[1.69847,42.53269],"crs":null},"properties":{"code":"41","name":"Grau Roig - SAIH","altitude":2083,"season":"Tot l'any","variables":"Temperatura i precipitació"}},{"type":"Feature","geometry":{"type":"Point","coordinates":[1.48162,42.44535],"crs":null},"properties":{"code":"403","name":"Borda Sabaté - SAIH","altitude":861,"season":"Tot l'any","variables":"Temperatura i precipitació"}},{"type":"Feature","geometry":{"type":"Point","coordinates":[1.57113,42.6117],"crs":null},"properties":{"code":"99130014","name":"Sorteny","altitude":2271,"season":"Tot l'any","variables":"Temperatura, humitat relativa, precipitació, direcció i força del vent (6,5 m), radiació solar, pressió atmosfèrica, gruix de neu, temperatura neu, temperatura sòl"}},{"type":"Feature","geometry":{"type":"Point","coordinates":[1.47715,42.48374],"crs":null},"properties":{"code":"99130011","name":"Aixàs","altitude":1538,"season":"Tot l'any","variables":"Temperatura, humitat relativa, precipitació, direcció i força del vent (7,74 m), pressió atmosfèrica, gruix de neu"}},{"type":"Feature","geometry":{"type":"Point","coordinates":[1.64607,42.54889],"crs":null},"properties":{"code":"99130019","name":"Tossa Espiolets","altitude":2446,"season":"Tot l'any","variables":"Temperatura, humitat, direcció i velocitat del vent (6 m.), alçada de neu, precipitació"}},{"type":"Feature","geometry":{"type":"Point","coordinates":[1.69802,42.54878],"crs":null},"properties":{"code":"99130020","name":"Grau Roig - FEDA","altitude":2090,"season":"Tot l'any","variables":"Temperatura, humitat relativa, precipitació, direcció i força del vent (7,74 m), pressió atmosfèrica, gruix de neu"}},{"type":"Feature","geometry":{"type":"Point","coordinates":[1.56886,42.55653],"crs":null},"properties":{"code":"99130022","name":"Coll Ordino","altitude":1901,"season":"Tot l'any","variables":"Temperatura , humitat, temperatura del sòl i gruix de neu"}},{"type":"Feature","geometry":{"type":"Point","coordinates":[1.44312,42.54688],"crs":null},"properties":{"code":"99130026","name":"Setúria","altitude":1900,"season":"Tot l'any","variables":"Temperatura, humitat, temperatura del terra i gruix de neu"}},{"type":"Feature","geometry":{"type":"Point","coordinates":[1.75091,42.57888],"crs":null},"properties":{"code":"99130023","name":"La Solana","altitude":2470,"season":"Tot l'any","variables":"Temperatura, humitat, temperatura del sòl i gruix de neu"}},{"type":"Feature","geometry":{"type":"Point","coordinates":[1.71682,42.53299],"crs":null},"properties":{"code":"99130027","name":"Envalira Antenes","altitude":2510,"season":"Tot l'any","variables":"Temperatura, precipitació, humitat relativa, direcció i força del vent (20 m), irradiació global, insolació, gruix de neu i temperatura de superfície"}},{"type":"Feature","geometry":{"type":"Point","coordinates":[1.48986,42.53622],"crs":null},"properties":{"code":"7993","name":"Pal","altitude":1876,"season":"Hivern","variables":"Observacions nivometeorlògiques (Codi NIMET)"}},{"type":"Feature","geometry":{"type":"Point","coordinates":[1.4708,42.57325],"crs":null},"properties":{"code":"7995","name":"Arinsal","altitude":1923,"season":"Hivern","variables":"Observacions nivometeorlògiques (Codi NIMET)"}},{"type":"Feature","geometry":{"type":"Point","coordinates":[1.65062,42.56415],"crs":null},"properties":{"code":"7996","name":"Soldeu","altitude":2467,"season":"Hivern","variables":"Observacions nivometeorlògiques (Codi NIMET)"}},{"type":"Feature","geometry":{"type":"Point","coordinates":[1.5,42.6317],"crs":null},"properties":{"code":"7994","name":"Arcalís","altitude":2059,"season":"Hivern","variables":"Observacions nivometeorlògiques (Codi NIMET)"}},{"type":"Feature","geometry":{"type":"Point","coordinates":[1.70033,42.53216],"crs":null},"properties":{"code":"7997","name":"Grau Roig","altitude":2152,"season":"Hivern","variables":"Observacions nivometeorlògiques (Codi NIMET)"}},{"type":"Feature","geometry":{"type":"Point","coordinates":[1.7331,42.5399]},"properties":{"code":"7998","name":"El Pas de la Casa","altitude":2120,"variables":"Observacions nivometeorlògiques (Codi NIMET)"}},{"type":"Feature","geometry":{"type":"Point","coordinates":[1.6,42.566]},"properties":{"code":"90000100","name":"Canillo","altitude":1526,"variables":"Temperatura i humitat"}},{"type":"Feature","geometry":{"type":"Point","coordinates":[1.5698,42.5285]},"properties":{"code":"90000200","name":"Ràdio Andorra","altitude":1200,"variables":"Temperatura, humitat, vent i precipitació"}},{"type":"Feature","geometry":{"type":"Point","coordinates":[1.5946,42.5993]},"properties":{"code":"99130017","name":"Vall del Riu FEDA","altitude":2500,"variables":"Temperatura màxima i mínima, vent, precipitació i gruix de neu"}},{"type":"Feature","geometry":{"type":"Point","coordinates":[1.6723,42.6113]},"properties":{"code":"99130018","name":"Cabana Sorda","altitude":2295,"variables":"Temperatura màxima i mínima, vent, precipitació i gruix de neu"}}],"metadata":{"generatedAt":"2026-10-06T09:53:43.395Z","source":"govern-sig","attribution":"Estacions: Servei Meteorològic Nacional / Govern d’Andorra"}}