{"type":"FeatureCollection","features":[{"type":"Feature","geometry":{"type":"Polygon","coordinates":[[[1.56107,42.45864],[1.56084,42.45868],[1.55613,42.46467],[1.55039,42.46925],[1.54481,42.47228],[1.54494,42.47642],[1.54399,42.47998],[1.53183,42.48119],[1.52471,42.4811],[1.51428,42.4828],[1.50911,42.48057],[1.50327,42.47964],[1.49348,42.47986],[1.48877,42.47862],[1.48385,42.47973],[1.47912,42.48338],[1.47728,42.48573],[1.47448,42.49289],[1.47131,42.49667],[1.46582,42.49996],[1.4604,42.50479],[1.46032,42.50449],[1.46012,42.50458],[1.45935,42.5045],[1.45865,42.50455],[1.45835,42.50434],[1.45658,42.50371],[1.45651,42.50364],[1.45644,42.50328],[1.45571,42.50268],[1.45546,42.50252],[1.45495,42.50236],[1.45443,42.50187],[1.45387,42.50153],[1.45338,42.50137],[1.45276,42.50084],[1.45243,42.50068],[1.45223,42.50041],[1.45178,42.49926],[1.45106,42.49802],[1.45038,42.49712],[1.44997,42.49697],[1.43931,42.4936],[1.43153,42.49344],[1.42466,42.49352],[1.42113,42.49243],[1.42002,42.49246],[1.41904,42.49229],[1.41865,42.49241],[1.41846,42.49258],[1.41798,42.49267],[1.41747,42.49241],[1.41683,42.49192],[1.41611,42.49156],[1.41583,42.49131],[1.41576,42.49117],[1.41534,42.49085],[1.41468,42.4905],[1.4142,42.49017],[1.4139,42.48983],[1.41338,42.48959],[1.41312,42.48927],[1.41278,42.489],[1.41258,42.48863],[1.41224,42.48838],[1.4112,42.48797],[1.41107,42.48788],[1.41098,42.48771],[1.40992,42.48722],[1.40955,42.48688],[1.40905,42.48675],[1.40879,42.48657],[1.40871,42.48627],[1.40887,42.48547],[1.40908,42.48521],[1.4097,42.48469],[1.41074,42.48403],[1.41117,42.4836],[1.41357,42.48429],[1.41495,42.4844],[1.41528,42.48436],[1.41548,42.48426],[1.41654,42.48313],[1.41716,42.48262],[1.41754,42.48241],[1.4177,42.4824],[1.41906,42.48271],[1.42138,42.48283],[1.42334,42.48258],[1.42374,42.48247],[1.42468,42.48239],[1.42631,42.48231],[1.42766,42.48238],[1.42974,42.48235],[1.43123,42.4824],[1.43206,42.48218],[1.43348,42.48166],[1.43376,42.48122],[1.43463,42.4806],[1.43503,42.47998],[1.4353,42.47979],[1.43675,42.47928],[1.43711,42.47906],[1.4377,42.47834],[1.43844,42.47789],[1.43931,42.47698],[1.43991,42.47621],[1.44051,42.47583],[1.44077,42.47558],[1.44093,42.47524],[1.4407,42.47467],[1.44071,42.47405],[1.44025,42.47278],[1.43989,42.47111],[1.43995,42.47066],[1.44039,42.46936],[1.44024,42.46812],[1.4404,42.46746],[1.44044,42.46681],[1.44026,42.46461],[1.44029,42.4644],[1.44061,42.46359],[1.44101,42.46344],[1.44167,42.46337],[1.44366,42.46249],[1.44752,42.46005],[1.44712,42.4595],[1.44578,42.45833],[1.44566,42.45806],[1.44547,42.45788],[1.44448,42.45719],[1.44357,42.45666],[1.44282,42.45607],[1.44233,42.45577],[1.44211,42.4551],[1.4418,42.45458],[1.44196,42.45374],[1.44198,42.45177],[1.44205,42.45116],[1.44266,42.45079],[1.44372,42.45031],[1.44621,42.44437],[1.44641,42.44356],[1.44276,42.44455],[1.44533,42.4422],[1.44927,42.43841],[1.45625,42.43696],[1.45742,42.43681],[1.4645,42.43678],[1.46725,42.43638],[1.4724,42.43576],[1.47262,42.43555],[1.47255,42.43541],[1.47293,42.43517],[1.47354,42.43529],[1.47623,42.43521],[1.47731,42.43468],[1.47882,42.43407],[1.47941,42.43398],[1.4801,42.43374],[1.4806,42.43373],[1.48089,42.4336],[1.48294,42.43325],[1.4846,42.43275],[1.48564,42.43296],[1.48698,42.43295],[1.48791,42.43316],[1.4889,42.43321],[1.48986,42.43312],[1.49025,42.43314],[1.49148,42.43336],[1.49216,42.43334],[1.49393,42.4331],[1.49491,42.43321],[1.49576,42.43305],[1.49776,42.43325],[1.49833,42.43323],[1.49893,42.43305],[1.50112,42.43267],[1.50328,42.43184],[1.50454,42.4317],[1.50514,42.43152],[1.50558,42.43118],[1.50588,42.43106],[1.50667,42.43058],[1.50771,42.43032],[1.50809,42.43012],[1.50826,42.42988],[1.50879,42.4298],[1.50908,42.42963],[1.50929,42.4298],[1.5097,42.42992],[1.51075,42.42992],[1.51111,42.4298],[1.51143,42.42944],[1.51153,42.42916],[1.51167,42.4291],[1.51213,42.42915],[1.51281,42.429],[1.51306,42.42902],[1.51348,42.42916],[1.51382,42.42908],[1.51418,42.42909],[1.51444,42.429],[1.51511,42.42899],[1.51569,42.42886],[1.51625,42.42896],[1.51657,42.42876],[1.51706,42.42874],[1.51715,42.42869],[1.51734,42.42882],[1.51766,42.42888],[1.51773,42.42904],[1.51794,42.4291],[1.51826,42.42941],[1.5189,42.42963],[1.51936,42.42997],[1.5201,42.43014],[1.52112,42.43022],[1.52142,42.43032],[1.52264,42.43035],[1.52327,42.43044],[1.52375,42.43037],[1.52443,42.43052],[1.52551,42.43106],[1.52633,42.43196],[1.53234,42.43232],[1.53412,42.43228],[1.53767,42.43232],[1.53962,42.43288],[1.54175,42.43231],[1.54423,42.43253],[1.54626,42.43249],[1.54658,42.43253],[1.54734,42.43282],[1.54827,42.43303],[1.54923,42.43274],[1.54939,42.43261],[1.5499,42.4326],[1.55052,42.43233],[1.55094,42.43232],[1.55173,42.43247],[1.55235,42.43269],[1.55304,42.43338],[1.55296,42.4338],[1.55306,42.43406],[1.55298,42.43443],[1.55303,42.43468],[1.55289,42.43524],[1.5532,42.43576],[1.55314,42.43584],[1.55316,42.43603],[1.55333,42.43636],[1.55337,42.43704],[1.55353,42.43797],[1.55389,42.43844],[1.55373,42.43905],[1.55377,42.43923],[1.55425,42.43997],[1.55432,42.44019],[1.5535,42.44245],[1.55811,42.44344],[1.55945,42.44383],[1.55985,42.44896],[1.55998,42.44945],[1.55997,42.44994],[1.55974,42.45068],[1.55953,42.45231],[1.55899,42.4549],[1.55897,42.45538],[1.55921,42.45597],[1.55974,42.4569],[1.56107,42.45864]]],"crs":null},"properties":{"name":"Sant Julià de Lòria","abbrev":"STJ","postalCode":"AD600"}},{"type":"Feature","geometry":{"type":"Polygon","coordinates":[[[1.55039,42.46925],[1.55778,42.47381],[1.56083,42.47516],[1.55895,42.47732],[1.55637,42.4795],[1.55451,42.48267],[1.55366,42.48491],[1.55119,42.48886],[1.54823,42.49304],[1.54176,42.49658],[1.53981,42.5024],[1.53715,42.50416],[1.53547,42.50678],[1.53536,42.50676],[1.53452,42.50736],[1.53421,42.50717],[1.53398,42.50937],[1.5338,42.50983],[1.53325,42.51048],[1.53362,42.51075],[1.53351,42.5111],[1.53332,42.51108],[1.53299,42.51202],[1.53307,42.51216],[1.53289,42.5123],[1.5325,42.51364],[1.53188,42.51398],[1.53182,42.51417],[1.53159,42.51438],[1.53146,42.51463],[1.53107,42.51481],[1.53066,42.51525],[1.53017,42.51543],[1.52988,42.51546],[1.52864,42.51653],[1.52826,42.51657],[1.52778,42.51671],[1.527,42.51714],[1.52635,42.51736],[1.52589,42.5176],[1.52529,42.5182],[1.5238,42.51937],[1.52364,42.52016],[1.52335,42.52062],[1.52315,42.52117],[1.52283,42.52149],[1.52196,42.52208],[1.52134,42.52182],[1.51993,42.52145],[1.51848,42.52147],[1.51764,42.52134],[1.5159,42.52032],[1.515,42.51996],[1.51439,42.51982],[1.51244,42.51958],[1.51108,42.5193],[1.5106,42.51926],[1.50962,42.51923],[1.50897,42.51937],[1.50863,42.51938],[1.50797,42.51917],[1.50781,42.51902],[1.50713,42.51882],[1.50473,42.51698],[1.50263,42.51642],[1.50171,42.51668],[1.50121,42.51666],[1.49885,42.5159],[1.49843,42.51571],[1.49766,42.51513],[1.49702,42.51452],[1.4957,42.51398],[1.49437,42.51432],[1.4938,42.51437],[1.49219,42.51384],[1.49174,42.51379],[1.49136,42.51381],[1.49092,42.51397],[1.48904,42.514],[1.48824,42.51425],[1.48777,42.51433],[1.4874,42.51418],[1.48646,42.51424],[1.48497,42.51401],[1.4834,42.51403],[1.48316,42.514],[1.48259,42.51366],[1.48146,42.51332],[1.48107,42.51294],[1.48058,42.51265],[1.47964,42.51261],[1.47916,42.51249],[1.47821,42.51248],[1.47711,42.51258],[1.47558,42.51218],[1.47521,42.51198],[1.47453,42.51179],[1.47403,42.51156],[1.47174,42.51106],[1.47028,42.51047],[1.46913,42.51033],[1.46845,42.51002],[1.46757,42.50982],[1.46717,42.5096],[1.46568,42.50847],[1.46515,42.50814],[1.46508,42.50791],[1.46491,42.5077],[1.46339,42.50706],[1.46326,42.50695],[1.46305,42.5066],[1.46171,42.50601],[1.46102,42.5056],[1.46072,42.50536],[1.4604,42.50479],[1.46582,42.49996],[1.47131,42.49667],[1.47448,42.49289],[1.47728,42.48573],[1.47912,42.48338],[1.48385,42.47973],[1.48877,42.47862],[1.49348,42.47986],[1.50327,42.47964],[1.50911,42.48057],[1.51428,42.4828],[1.52471,42.4811],[1.53183,42.48119],[1.54399,42.47998],[1.54494,42.47642],[1.54481,42.47228],[1.55039,42.46925]]],"crs":null},"properties":{"name":"Andorra la Vella","abbrev":"AND","postalCode":"AD500"}},{"type":"Feature","geometry":{"type":"Polygon","coordinates":[[[1.66343,42.4919],[1.66214,42.49232],[1.66037,42.49263],[1.65818,42.49272],[1.65315,42.49425],[1.6477,42.49462],[1.64373,42.49555],[1.62598,42.49901],[1.62504,42.49925],[1.62235,42.50039],[1.62151,42.5007],[1.62103,42.5008],[1.62042,42.50088],[1.61983,42.50085],[1.61949,42.50074],[1.61905,42.50047],[1.61823,42.4994],[1.6161,42.49901],[1.61529,42.49849],[1.61478,42.49829],[1.6131,42.49825],[1.61263,42.49833],[1.61237,42.49847],[1.61132,42.49862],[1.61026,42.49907],[1.60963,42.49917],[1.6086,42.49905],[1.60812,42.49904],[1.60768,42.49913],[1.60601,42.49974],[1.60517,42.50013],[1.60274,42.5014],[1.60145,42.50197],[1.59968,42.50288],[1.59348,42.50585],[1.58666,42.51033],[1.58417,42.51224],[1.57564,42.51689],[1.57287,42.51843],[1.57147,42.51932],[1.57092,42.51928],[1.56905,42.51829],[1.56759,42.5177],[1.56604,42.5177],[1.56557,42.51867],[1.56424,42.51837],[1.56253,42.51826],[1.56152,42.51793],[1.55914,42.51472],[1.55316,42.51401],[1.55237,42.51433],[1.54962,42.5162],[1.54919,42.51697],[1.54907,42.5177],[1.54854,42.5183],[1.54841,42.51864],[1.54755,42.51941],[1.54674,42.51964],[1.54681,42.52088],[1.54675,42.5213],[1.54678,42.52165],[1.54663,42.52201],[1.54646,42.52217],[1.54629,42.52255],[1.5462,42.52322],[1.54624,42.52378],[1.54589,42.5239],[1.54526,42.52381],[1.54404,42.52344],[1.54269,42.52329],[1.54153,42.52288],[1.53982,42.52278],[1.5388,42.52287],[1.53856,42.52282],[1.53772,42.5223],[1.53743,42.52257],[1.53695,42.52268],[1.53457,42.52273],[1.53412,42.52269],[1.53389,42.52285],[1.53298,42.52318],[1.53211,42.52328],[1.53191,42.52323],[1.53168,42.52304],[1.53157,42.5232],[1.53116,42.52342],[1.5296,42.52354],[1.52852,42.52376],[1.52799,42.52352],[1.52758,42.52322],[1.5273,42.52314],[1.52603,42.5232],[1.52529,42.52284],[1.5238,42.52271],[1.52196,42.52208],[1.52283,42.52149],[1.52315,42.52117],[1.52335,42.52062],[1.52364,42.52016],[1.5238,42.51937],[1.52529,42.5182],[1.52589,42.5176],[1.52635,42.51736],[1.527,42.51714],[1.52778,42.51671],[1.52826,42.51657],[1.52864,42.51653],[1.52988,42.51546],[1.53017,42.51543],[1.53066,42.51525],[1.53107,42.51481],[1.53146,42.51463],[1.53159,42.51438],[1.53182,42.51417],[1.53188,42.51398],[1.5325,42.51364],[1.53289,42.5123],[1.53307,42.51216],[1.53299,42.51202],[1.53332,42.51108],[1.53351,42.5111],[1.53362,42.51075],[1.53325,42.51048],[1.5338,42.50983],[1.53398,42.50937],[1.53421,42.50717],[1.53452,42.50736],[1.53536,42.50676],[1.53547,42.50678],[1.53715,42.50416],[1.53981,42.5024],[1.54176,42.49658],[1.54823,42.49304],[1.55119,42.48886],[1.55366,42.48491],[1.55451,42.48267],[1.55637,42.4795],[1.55895,42.47732],[1.56083,42.47516],[1.55778,42.47381],[1.55039,42.46925],[1.55613,42.46467],[1.56084,42.45868],[1.56107,42.45864],[1.5611,42.45869],[1.56151,42.45833],[1.56178,42.45821],[1.56233,42.45808],[1.56266,42.45807],[1.56451,42.45824],[1.56471,42.45831],[1.56547,42.45881],[1.56593,42.45891],[1.56704,42.45893],[1.56735,42.45887],[1.56793,42.45863],[1.56934,42.45776],[1.57057,42.45609],[1.57148,42.45505],[1.57234,42.45384],[1.57327,42.45292],[1.57492,42.45184],[1.57602,42.45143],[1.57684,42.45061],[1.57732,42.45026],[1.57799,42.45005],[1.5789,42.44994],[1.58058,42.44997],[1.58097,42.45003],[1.58115,42.45018],[1.58134,42.45092],[1.58178,42.45153],[1.58231,42.45263],[1.58282,42.45428],[1.58342,42.45515],[1.5836,42.45608],[1.58379,42.45661],[1.58418,42.45721],[1.58466,42.45777],[1.58491,42.45834],[1.58553,42.45922],[1.5858,42.45981],[1.58638,42.46056],[1.5873,42.46149],[1.58875,42.46261],[1.58981,42.46357],[1.58994,42.46383],[1.59037,42.46403],[1.59138,42.46427],[1.59313,42.46447],[1.59358,42.46468],[1.59402,42.46505],[1.59584,42.46555],[1.59997,42.46707],[1.60015,42.46677],[1.6004,42.46656],[1.60071,42.46642],[1.60307,42.46559],[1.60335,42.46556],[1.60375,42.46577],[1.60455,42.46516],[1.60656,42.46436],[1.60737,42.46436],[1.6083,42.46467],[1.60921,42.46466],[1.61013,42.46488],[1.61062,42.46518],[1.61138,42.46501],[1.61168,42.46502],[1.61235,42.46524],[1.61327,42.46524],[1.61417,42.46534],[1.61527,42.46517],[1.61619,42.46539],[1.61664,42.46508],[1.61697,42.46496],[1.61773,42.4649],[1.61813,42.46497],[1.61881,42.46469],[1.61939,42.46492],[1.62003,42.46492],[1.62028,42.46507],[1.62045,42.46538],[1.62064,42.4655],[1.62097,42.46552],[1.62184,42.46572],[1.62231,42.46574],[1.62279,42.46567],[1.62335,42.46543],[1.62516,42.46485],[1.62545,42.46473],[1.62613,42.46426],[1.6263,42.46433],[1.62672,42.46429],[1.62696,42.46445],[1.62813,42.46381],[1.62858,42.46378],[1.62898,42.46403],[1.62946,42.46381],[1.63014,42.46377],[1.63026,42.46385],[1.63043,42.46411],[1.63086,42.46416],[1.63096,42.46425],[1.63122,42.46488],[1.63138,42.465],[1.63183,42.46509],[1.63201,42.46579],[1.63232,42.46614],[1.63255,42.46611],[1.63352,42.4662],[1.63368,42.46668],[1.63392,42.46695],[1.63434,42.46709],[1.63461,42.4671],[1.6354,42.4674],[1.63545,42.46772],[1.63582,42.46799],[1.63616,42.4681],[1.63682,42.4679],[1.63746,42.46757],[1.63791,42.46752],[1.63849,42.46696],[1.63875,42.4668],[1.63955,42.46666],[1.64025,42.46639],[1.64055,42.46636],[1.64166,42.46653],[1.64305,42.46694],[1.64365,42.46728],[1.64436,42.4675],[1.64482,42.4679],[1.64675,42.46863],[1.64701,42.46851],[1.64758,42.46777],[1.64803,42.46758],[1.64878,42.46746],[1.64912,42.4673],[1.65003,42.46704],[1.65076,42.46697],[1.65198,42.46707],[1.65277,42.46693],[1.65342,42.46699],[1.65471,42.46737],[1.65657,42.46824],[1.65694,42.46824],[1.65723,42.46835],[1.6579,42.46967],[1.65905,42.47133],[1.65946,42.47175],[1.65993,42.47211],[1.66076,42.47241],[1.66181,42.4729],[1.66222,42.47331],[1.66241,42.47379],[1.66249,42.47413],[1.66251,42.4748],[1.66221,42.47514],[1.66164,42.47623],[1.66158,42.47653],[1.66146,42.47673],[1.66104,42.47721],[1.66035,42.47834],[1.6613,42.4791],[1.66158,42.47946],[1.66176,42.47988],[1.66197,42.48076],[1.66209,42.48263],[1.66173,42.48403],[1.66213,42.48559],[1.66236,42.48847],[1.66258,42.49005],[1.66343,42.4919]]],"crs":null},"properties":{"name":"Escaldes-Engordany","abbrev":"ESC","postalCode":"AD700"}},{"type":"Feature","geometry":{"type":"Polygon","coordinates":[[[1.46907,42.6065],[1.46807,42.60642],[1.46768,42.60646],[1.46742,42.6064],[1.46686,42.60658],[1.46634,42.60663],[1.46613,42.60676],[1.46538,42.60678],[1.46481,42.60693],[1.46434,42.60688],[1.46405,42.60678],[1.46396,42.60651],[1.46326,42.60578],[1.46319,42.60552],[1.4619,42.60568],[1.4616,42.60565],[1.46137,42.60559],[1.46043,42.605],[1.45971,42.60483],[1.45946,42.60471],[1.45929,42.60451],[1.45907,42.60413],[1.45902,42.60377],[1.45866,42.6034],[1.45834,42.6033],[1.45781,42.60299],[1.45748,42.60291],[1.45729,42.60262],[1.45699,42.60233],[1.45628,42.60216],[1.45575,42.60213],[1.45503,42.60222],[1.45471,42.60236],[1.45321,42.60265],[1.45275,42.60251],[1.45227,42.6025],[1.45196,42.60262],[1.45057,42.60248],[1.44956,42.60299],[1.44932,42.60336],[1.44871,42.60332],[1.4485,42.60357],[1.44798,42.60349],[1.44759,42.60382],[1.44639,42.60375],[1.44551,42.60349],[1.44503,42.60363],[1.44332,42.60352],[1.44273,42.60368],[1.44197,42.60374],[1.44208,42.60333],[1.44226,42.60304],[1.44265,42.60258],[1.44294,42.60242],[1.44297,42.60233],[1.44281,42.60071],[1.4427,42.60029],[1.44265,42.59944],[1.44281,42.59921],[1.44281,42.59866],[1.44219,42.59842],[1.44201,42.59826],[1.4419,42.598],[1.44155,42.59777],[1.44128,42.59748],[1.44121,42.59734],[1.44126,42.59674],[1.44101,42.59644],[1.44103,42.59627],[1.44091,42.59609],[1.44098,42.59583],[1.44087,42.5957],[1.44085,42.59556],[1.44059,42.59536],[1.44038,42.59486],[1.44059,42.59445],[1.43988,42.59414],[1.43961,42.5939],[1.43933,42.59385],[1.4393,42.59362],[1.43917,42.59352],[1.4389,42.59345],[1.43863,42.59303],[1.43877,42.59271],[1.43789,42.59205],[1.43744,42.59194],[1.43722,42.59181],[1.43689,42.59176],[1.43549,42.59175],[1.43489,42.59113],[1.43493,42.59099],[1.43456,42.59067],[1.4346,42.59055],[1.43338,42.58974],[1.43257,42.58939],[1.43241,42.58884],[1.43218,42.58864],[1.43175,42.58847],[1.43103,42.5878],[1.43057,42.58771],[1.43022,42.58778],[1.42899,42.58779],[1.4283,42.58769],[1.42766,42.58746],[1.42749,42.58724],[1.42738,42.58693],[1.42738,42.58629],[1.4275,42.58551],[1.42745,42.58489],[1.42719,42.58441],[1.42662,42.58359],[1.42647,42.58279],[1.42656,42.58261],[1.42727,42.58184],[1.42751,42.58145],[1.42755,42.58118],[1.42826,42.58019],[1.42812,42.57998],[1.4282,42.5796],[1.42892,42.57948],[1.42908,42.57911],[1.42937,42.57866],[1.42966,42.57832],[1.43002,42.5781],[1.4307,42.57728],[1.43126,42.57706],[1.43152,42.57688],[1.43165,42.57598],[1.43184,42.57565],[1.4321,42.5754],[1.433,42.57487],[1.43356,42.57444],[1.43408,42.57419],[1.43482,42.57396],[1.43577,42.57354],[1.43621,42.57325],[1.43656,42.5731],[1.43831,42.57289],[1.44113,42.57269],[1.44185,42.57247],[1.44297,42.57199],[1.44347,42.5719],[1.44341,42.5711],[1.44363,42.57034],[1.44418,42.56913],[1.4449,42.56834],[1.44496,42.56819],[1.44453,42.56744],[1.44433,42.56728],[1.44375,42.5671],[1.44359,42.56684],[1.44253,42.56589],[1.4414,42.56426],[1.44031,42.56374],[1.43792,42.56332],[1.43706,42.56301],[1.43554,42.56232],[1.43281,42.56131],[1.43191,42.56076],[1.4315,42.56062],[1.43066,42.5606],[1.42992,42.56033],[1.42827,42.55923],[1.42788,42.55906],[1.42716,42.55893],[1.42597,42.55858],[1.42526,42.55809],[1.4239,42.55652],[1.42372,42.55624],[1.4235,42.55601],[1.42298,42.55566],[1.42279,42.55541],[1.42275,42.55377],[1.42266,42.55348],[1.4213,42.55114],[1.4208,42.5504],[1.42054,42.54973],[1.42038,42.54953],[1.41997,42.54938],[1.41876,42.54909],[1.41889,42.54878],[1.41885,42.54856],[1.41864,42.54818],[1.41926,42.54614],[1.4194,42.54514],[1.41934,42.5445],[1.4191,42.54426],[1.41868,42.54398],[1.41757,42.54347],[1.41705,42.54316],[1.41633,42.54231],[1.41611,42.54165],[1.41501,42.54066],[1.41453,42.54007],[1.41434,42.5396],[1.41438,42.53887],[1.41398,42.53757],[1.41369,42.53695],[1.41361,42.53656],[1.41355,42.5362],[1.41357,42.53531],[1.41508,42.53545],[1.41657,42.5354],[1.41841,42.53605],[1.41903,42.53645],[1.42001,42.53695],[1.42168,42.53775],[1.42281,42.53837],[1.42343,42.53862],[1.42456,42.5389],[1.42769,42.5392],[1.43197,42.54071],[1.4348,42.54183],[1.43681,42.54254],[1.43778,42.54279],[1.44068,42.54335],[1.44281,42.54288],[1.44344,42.54269],[1.44518,42.54198],[1.44569,42.54151],[1.4489,42.54074],[1.45031,42.54012],[1.45087,42.53983],[1.45145,42.53938],[1.45222,42.53872],[1.45227,42.53854],[1.45232,42.53702],[1.4522,42.53602],[1.45203,42.53571],[1.45108,42.53465],[1.45129,42.53391],[1.4515,42.53266],[1.45182,42.53186],[1.45526,42.52648],[1.4562,42.52636],[1.45806,42.52518],[1.45852,42.52486],[1.45888,42.52424],[1.45964,42.52344],[1.46016,42.52307],[1.46078,42.52133],[1.46145,42.52045],[1.46354,42.51843],[1.46429,42.51638],[1.46681,42.51176],[1.46787,42.50993],[1.46845,42.51002],[1.46913,42.51033],[1.47028,42.51047],[1.47174,42.51106],[1.47403,42.51156],[1.47453,42.51179],[1.47521,42.51198],[1.47558,42.51218],[1.47711,42.51258],[1.47821,42.51248],[1.47916,42.51249],[1.47964,42.51261],[1.48058,42.51265],[1.48107,42.51294],[1.48146,42.51332],[1.48259,42.51366],[1.48316,42.514],[1.48497,42.51401],[1.48646,42.51424],[1.4874,42.51418],[1.48777,42.51433],[1.48824,42.51425],[1.48904,42.514],[1.49092,42.51397],[1.49136,42.51381],[1.49174,42.51379],[1.49219,42.51384],[1.4938,42.51437],[1.49437,42.51432],[1.4957,42.51398],[1.49702,42.51452],[1.49766,42.51513],[1.49843,42.51571],[1.49885,42.5159],[1.50121,42.51666],[1.50171,42.51668],[1.50263,42.51642],[1.50473,42.51698],[1.50713,42.51882],[1.50781,42.51902],[1.50797,42.51917],[1.50863,42.51938],[1.50897,42.51937],[1.50962,42.51923],[1.5106,42.51926],[1.51108,42.5193],[1.51244,42.51958],[1.51439,42.51982],[1.515,42.51996],[1.5159,42.52032],[1.51764,42.52134],[1.51848,42.52147],[1.51993,42.52145],[1.52043,42.52156],[1.52134,42.52182],[1.5238,42.52271],[1.52529,42.52284],[1.52603,42.5232],[1.5273,42.52314],[1.52758,42.52322],[1.52799,42.52352],[1.52852,42.52376],[1.5296,42.52354],[1.53116,42.52342],[1.53157,42.5232],[1.53168,42.52304],[1.53191,42.52323],[1.53211,42.52328],[1.53298,42.52318],[1.53389,42.52285],[1.53412,42.52269],[1.53457,42.52273],[1.53695,42.52268],[1.53743,42.52257],[1.53772,42.5223],[1.53856,42.52282],[1.5388,42.52287],[1.53982,42.52278],[1.54153,42.52288],[1.54269,42.52329],[1.54404,42.52344],[1.54526,42.52381],[1.54589,42.5239],[1.54624,42.52378],[1.54709,42.52504],[1.54793,42.5256],[1.54851,42.52626],[1.54836,42.52747],[1.54794,42.52773],[1.54793,42.52819],[1.54744,42.52867],[1.5472,42.52924],[1.54837,42.53116],[1.54879,42.53216],[1.54908,42.53249],[1.55167,42.53482],[1.5527,42.5355],[1.55378,42.5358],[1.55438,42.53619],[1.55446,42.5363],[1.55455,42.53679],[1.55483,42.5373],[1.5559,42.53882],[1.55662,42.53936],[1.55713,42.54031],[1.55755,42.54084],[1.55827,42.54139],[1.55912,42.54225],[1.55905,42.54254],[1.55908,42.54279],[1.55936,42.54361],[1.55936,42.54409],[1.55959,42.54454],[1.56172,42.54606],[1.56047,42.54663],[1.55787,42.54693],[1.55289,42.54766],[1.55163,42.54773],[1.54962,42.5475],[1.548,42.54694],[1.54668,42.54658],[1.54621,42.54654],[1.5454,42.54665],[1.54449,42.54667],[1.54324,42.54628],[1.54182,42.5462],[1.54098,42.54588],[1.54005,42.54584],[1.53631,42.54737],[1.53274,42.54849],[1.52153,42.54917],[1.52124,42.54976],[1.52013,42.55075],[1.52057,42.55165],[1.51948,42.55263],[1.5194,42.55286],[1.51905,42.55438],[1.51902,42.55544],[1.51942,42.55611],[1.51947,42.55643],[1.51976,42.55704],[1.5198,42.55741],[1.51915,42.55881],[1.51878,42.55906],[1.51795,42.56055],[1.51627,42.56101],[1.51606,42.56112],[1.5153,42.56123],[1.51523,42.56129],[1.51509,42.56201],[1.51484,42.56259],[1.51393,42.56395],[1.51341,42.56439],[1.51299,42.56535],[1.51229,42.56617],[1.5095,42.56674],[1.50863,42.56704],[1.50758,42.56766],[1.50575,42.56845],[1.50507,42.56891],[1.50503,42.5693],[1.50493,42.56952],[1.50467,42.56982],[1.50417,42.5703],[1.50275,42.57135],[1.50181,42.57241],[1.50216,42.573],[1.50227,42.57365],[1.5019,42.57439],[1.5014,42.57513],[1.50082,42.57573],[1.49989,42.57648],[1.4997,42.57689],[1.49896,42.57773],[1.49809,42.57843],[1.49724,42.57892],[1.49669,42.57889],[1.49723,42.57984],[1.49739,42.58059],[1.49729,42.58163],[1.49717,42.58208],[1.49693,42.58242],[1.49656,42.58318],[1.49653,42.58344],[1.49666,42.58384],[1.49672,42.58456],[1.4971,42.58534],[1.49665,42.58813],[1.49684,42.58894],[1.49669,42.58949],[1.49608,42.59065],[1.4962,42.59107],[1.49606,42.59206],[1.49643,42.59391],[1.49567,42.59468],[1.49448,42.5957],[1.49362,42.59721],[1.49307,42.59793],[1.49271,42.59786],[1.49224,42.59789],[1.49028,42.59736],[1.4883,42.5975],[1.48629,42.5986],[1.48563,42.5992],[1.48483,42.59935],[1.48419,42.59938],[1.4816,42.60061],[1.4815,42.60093],[1.48063,42.60113],[1.4793,42.6013],[1.47813,42.60112],[1.4778,42.6019],[1.47724,42.60228],[1.47692,42.60304],[1.47456,42.60338],[1.47418,42.60335],[1.47305,42.60355],[1.47246,42.60351],[1.47218,42.60371],[1.47185,42.6042],[1.47148,42.6044],[1.47109,42.60474],[1.4705,42.6049],[1.47031,42.60503],[1.46953,42.60582],[1.46915,42.60612],[1.46907,42.60631],[1.46907,42.6065]]],"crs":null},"properties":{"name":"La Massana","abbrev":"LMS","postalCode":"AD400"}},{"type":"Feature","geometry":{"type":"Polygon","coordinates":[[[1.60315,42.62551],[1.60051,42.62565],[1.60021,42.62584],[1.5997,42.62631],[1.59889,42.62737],[1.59831,42.62799],[1.59784,42.62868],[1.59783,42.62905],[1.59687,42.63002],[1.59616,42.6306],[1.59577,42.63074],[1.59557,42.63089],[1.5953,42.63132],[1.59516,42.63192],[1.59452,42.6324],[1.59442,42.63261],[1.59271,42.63303],[1.59253,42.63333],[1.59192,42.63329],[1.59131,42.6334],[1.59074,42.63332],[1.5902,42.63337],[1.58993,42.63346],[1.58899,42.63338],[1.58853,42.63343],[1.58786,42.63367],[1.58743,42.63373],[1.58666,42.63372],[1.58615,42.63346],[1.58572,42.63344],[1.58453,42.6339],[1.58406,42.63423],[1.58385,42.63476],[1.58368,42.63481],[1.58328,42.6351],[1.58288,42.63557],[1.58174,42.63621],[1.58121,42.63643],[1.58111,42.63656],[1.58062,42.63676],[1.58012,42.63719],[1.57995,42.63745],[1.57985,42.6383],[1.57951,42.63866],[1.57924,42.63879],[1.57931,42.6391],[1.5792,42.63945],[1.57956,42.64051],[1.57954,42.64073],[1.57937,42.64103],[1.57917,42.64179],[1.57901,42.64195],[1.57827,42.6423],[1.57679,42.6427],[1.57599,42.64323],[1.57595,42.64456],[1.57604,42.64504],[1.576,42.64545],[1.57591,42.64559],[1.57586,42.64625],[1.57489,42.64718],[1.57472,42.64752],[1.57475,42.64793],[1.57324,42.64797],[1.57244,42.64807],[1.57125,42.64791],[1.57107,42.64799],[1.56951,42.64811],[1.56938,42.64826],[1.56911,42.64831],[1.56873,42.64848],[1.56837,42.64851],[1.56766,42.64946],[1.56712,42.64987],[1.56681,42.64998],[1.56667,42.65011],[1.56667,42.65042],[1.56655,42.65086],[1.56633,42.6512],[1.56598,42.65157],[1.56547,42.65185],[1.56498,42.65227],[1.56441,42.65259],[1.56389,42.65283],[1.56336,42.65293],[1.5623,42.65357],[1.56165,42.65346],[1.56062,42.65341],[1.55937,42.65269],[1.55898,42.65257],[1.55876,42.65244],[1.55838,42.65203],[1.55823,42.652],[1.55668,42.65256],[1.5563,42.65282],[1.55612,42.65305],[1.55561,42.65338],[1.55363,42.6537],[1.55265,42.65396],[1.55257,42.65424],[1.55222,42.65447],[1.55174,42.65467],[1.5512,42.65472],[1.55075,42.65488],[1.54967,42.65544],[1.54925,42.65588],[1.5476,42.65518],[1.54652,42.65495],[1.54541,42.65455],[1.54523,42.6546],[1.54457,42.65441],[1.54426,42.65424],[1.54356,42.65414],[1.54329,42.65391],[1.54322,42.65369],[1.54251,42.65348],[1.54188,42.65311],[1.54052,42.65279],[1.54019,42.65264],[1.53864,42.65259],[1.5381,42.65244],[1.53806,42.65234],[1.53755,42.65188],[1.53752,42.65178],[1.53732,42.65167],[1.53667,42.65102],[1.53648,42.65093],[1.53587,42.65026],[1.5356,42.65017],[1.53533,42.65018],[1.53497,42.64995],[1.5343,42.64968],[1.53407,42.64978],[1.53369,42.64971],[1.53318,42.64977],[1.53175,42.65061],[1.53101,42.65097],[1.53072,42.65119],[1.53059,42.65124],[1.52995,42.65109],[1.5294,42.65147],[1.52855,42.65174],[1.52802,42.6514],[1.52769,42.65138],[1.52732,42.65111],[1.52645,42.65098],[1.52525,42.65014],[1.52466,42.64955],[1.52428,42.64936],[1.52274,42.64947],[1.52217,42.64932],[1.52233,42.64916],[1.52205,42.64863],[1.52159,42.64801],[1.52155,42.64782],[1.52162,42.64756],[1.52151,42.64741],[1.52122,42.6471],[1.52101,42.64701],[1.5208,42.64676],[1.52057,42.64665],[1.52028,42.64624],[1.52003,42.64601],[1.5192,42.64566],[1.51892,42.64543],[1.51875,42.64542],[1.51805,42.64588],[1.51712,42.64578],[1.516,42.6459],[1.51561,42.64581],[1.51528,42.64582],[1.51478,42.646],[1.51451,42.64591],[1.51411,42.64593],[1.51357,42.64611],[1.5132,42.64616],[1.51236,42.64596],[1.51209,42.64582],[1.51052,42.64558],[1.51016,42.64558],[1.50975,42.64573],[1.50906,42.64574],[1.50744,42.64548],[1.50665,42.64525],[1.50538,42.64531],[1.50418,42.64525],[1.50291,42.64545],[1.50199,42.64553],[1.50162,42.64547],[1.5014,42.64517],[1.50129,42.64513],[1.50105,42.6451],[1.50063,42.64523],[1.5002,42.64527],[1.49965,42.64567],[1.49965,42.64578],[1.4994,42.64653],[1.4995,42.64658],[1.49943,42.64685],[1.49952,42.64732],[1.49946,42.64762],[1.49929,42.64776],[1.49806,42.64836],[1.49737,42.64894],[1.49723,42.64922],[1.49682,42.64964],[1.49618,42.65061],[1.49543,42.65123],[1.49526,42.65144],[1.4952,42.65168],[1.49496,42.6518],[1.49481,42.65198],[1.49375,42.65347],[1.4934,42.65329],[1.49229,42.65294],[1.49184,42.65305],[1.49119,42.65305],[1.48992,42.65256],[1.48925,42.65238],[1.48884,42.6522],[1.48859,42.65199],[1.48835,42.6519],[1.488,42.65194],[1.48674,42.65163],[1.48652,42.65163],[1.48612,42.65176],[1.48559,42.65177],[1.48488,42.65192],[1.4846,42.65192],[1.48428,42.65203],[1.48269,42.65181],[1.48216,42.65144],[1.48181,42.65144],[1.48156,42.65137],[1.48073,42.65138],[1.48009,42.65128],[1.47931,42.65146],[1.47894,42.65165],[1.4787,42.65142],[1.47851,42.6506],[1.47856,42.64995],[1.47885,42.64863],[1.4786,42.6483],[1.47824,42.64729],[1.47826,42.64702],[1.47843,42.64685],[1.47775,42.64627],[1.47724,42.64553],[1.47716,42.64528],[1.4771,42.64454],[1.4775,42.64422],[1.47803,42.64362],[1.47788,42.6434],[1.47768,42.64325],[1.47765,42.6426],[1.47722,42.64209],[1.47723,42.6418],[1.47706,42.64123],[1.47714,42.64084],[1.47707,42.64063],[1.47674,42.64047],[1.47622,42.64009],[1.47546,42.63919],[1.47514,42.63895],[1.475,42.63877],[1.47352,42.63784],[1.47331,42.63747],[1.47262,42.63713],[1.47207,42.63662],[1.4707,42.63614],[1.47048,42.63603],[1.46989,42.63556],[1.46988,42.63526],[1.46961,42.63419],[1.4698,42.63369],[1.46938,42.6332],[1.4689,42.63277],[1.46885,42.63256],[1.46902,42.63234],[1.46861,42.63209],[1.4684,42.63153],[1.46836,42.63115],[1.46829,42.63103],[1.46811,42.63091],[1.46834,42.63075],[1.46853,42.63049],[1.46902,42.63022],[1.46965,42.63013],[1.46989,42.62988],[1.47029,42.62965],[1.47098,42.62946],[1.47097,42.62926],[1.4712,42.62896],[1.47129,42.62856],[1.47131,42.62765],[1.47096,42.62724],[1.47084,42.62686],[1.47042,42.62625],[1.4704,42.62601],[1.4706,42.62521],[1.47102,42.62493],[1.4709,42.62462],[1.47124,42.62426],[1.47217,42.62357],[1.47213,42.62315],[1.47248,42.62254],[1.47316,42.62202],[1.47351,42.62194],[1.47374,42.62167],[1.47398,42.62066],[1.47407,42.62048],[1.47407,42.62015],[1.47442,42.61954],[1.47438,42.61937],[1.47451,42.61919],[1.47445,42.61872],[1.47479,42.61848],[1.47471,42.61816],[1.47479,42.61788],[1.47494,42.61784],[1.47521,42.6176],[1.47522,42.61733],[1.47532,42.61707],[1.47548,42.61692],[1.47551,42.61664],[1.47599,42.61643],[1.47622,42.61603],[1.47647,42.6159],[1.47699,42.6152],[1.47736,42.61496],[1.47749,42.61452],[1.47737,42.61434],[1.47724,42.61377],[1.47685,42.61357],[1.47673,42.6131],[1.47527,42.61267],[1.47469,42.6123],[1.47465,42.61199],[1.47477,42.61182],[1.47465,42.61168],[1.47458,42.61146],[1.47398,42.61118],[1.47365,42.6105],[1.47333,42.61014],[1.47297,42.60986],[1.47216,42.60952],[1.47168,42.60921],[1.47117,42.60906],[1.47032,42.6087],[1.46977,42.60786],[1.46978,42.6077],[1.46941,42.60682],[1.46907,42.6065],[1.46907,42.60631],[1.46915,42.60612],[1.46953,42.60582],[1.47031,42.60503],[1.4705,42.6049],[1.47109,42.60474],[1.47148,42.6044],[1.47185,42.6042],[1.47218,42.60371],[1.47246,42.60351],[1.47305,42.60355],[1.47418,42.60335],[1.47456,42.60338],[1.47692,42.60304],[1.47724,42.60228],[1.4778,42.6019],[1.47813,42.60112],[1.4793,42.6013],[1.48063,42.60113],[1.4815,42.60093],[1.4816,42.60061],[1.48419,42.59938],[1.48483,42.59935],[1.48563,42.5992],[1.48629,42.5986],[1.4883,42.5975],[1.49028,42.59736],[1.49224,42.59789],[1.49271,42.59786],[1.49307,42.59793],[1.49362,42.59721],[1.49448,42.5957],[1.49567,42.59468],[1.49643,42.59391],[1.49606,42.59206],[1.4962,42.59107],[1.49608,42.59065],[1.49669,42.58949],[1.49684,42.58894],[1.49665,42.58813],[1.4971,42.58534],[1.49672,42.58456],[1.49666,42.58384],[1.49653,42.58344],[1.49656,42.58318],[1.49693,42.58242],[1.49717,42.58208],[1.49729,42.58163],[1.49739,42.58059],[1.49723,42.57984],[1.49669,42.57889],[1.49724,42.57892],[1.49809,42.57843],[1.49896,42.57773],[1.4997,42.57689],[1.49989,42.57648],[1.50082,42.57573],[1.5014,42.57513],[1.5019,42.57439],[1.50227,42.57365],[1.50216,42.573],[1.50181,42.57241],[1.50275,42.57135],[1.50417,42.5703],[1.50467,42.56982],[1.50493,42.56952],[1.50503,42.5693],[1.50507,42.56891],[1.50575,42.56845],[1.50758,42.56766],[1.50863,42.56704],[1.5095,42.56674],[1.51229,42.56617],[1.51299,42.56535],[1.51341,42.56439],[1.51393,42.56395],[1.51484,42.56259],[1.51509,42.56201],[1.51523,42.56129],[1.5153,42.56123],[1.51606,42.56112],[1.51627,42.56101],[1.51795,42.56055],[1.51878,42.55906],[1.51915,42.55881],[1.5198,42.55741],[1.51976,42.55704],[1.51947,42.55643],[1.51942,42.55611],[1.51902,42.55544],[1.51905,42.55438],[1.5194,42.55286],[1.51948,42.55263],[1.52057,42.55165],[1.52013,42.55075],[1.52124,42.54976],[1.52153,42.54917],[1.53274,42.54849],[1.53631,42.54737],[1.54005,42.54584],[1.54098,42.54588],[1.54182,42.5462],[1.54324,42.54628],[1.54449,42.54667],[1.5454,42.54665],[1.54621,42.54654],[1.54668,42.54658],[1.548,42.54694],[1.54962,42.5475],[1.55163,42.54773],[1.55289,42.54766],[1.55787,42.54693],[1.56047,42.54663],[1.56172,42.54606],[1.56225,42.54642],[1.56508,42.54723],[1.56538,42.54745],[1.56646,42.54767],[1.5691,42.5485],[1.5697,42.54877],[1.56999,42.54898],[1.57016,42.54917],[1.57064,42.55095],[1.57074,42.5518],[1.5713,42.55352],[1.57164,42.55492],[1.57245,42.55659],[1.5727,42.55724],[1.57278,42.55852],[1.57272,42.55894],[1.57232,42.5599],[1.57175,42.56081],[1.57137,42.56121],[1.57002,42.56234],[1.56864,42.56374],[1.56841,42.56387],[1.56823,42.56471],[1.56762,42.56639],[1.5676,42.56716],[1.56731,42.56756],[1.56732,42.56829],[1.56714,42.56872],[1.56645,42.56956],[1.56577,42.5708],[1.56562,42.57232],[1.56575,42.57375],[1.56588,42.57432],[1.56647,42.57499],[1.56681,42.5767],[1.5669,42.57745],[1.56672,42.5783],[1.56632,42.57915],[1.56631,42.57996],[1.56606,42.58161],[1.56543,42.58352],[1.56551,42.58401],[1.56551,42.58458],[1.56594,42.58482],[1.56729,42.58516],[1.56936,42.5859],[1.56965,42.58619],[1.56998,42.58636],[1.5703,42.58695],[1.57032,42.58736],[1.57095,42.58761],[1.57241,42.58797],[1.57302,42.5884],[1.57324,42.5892],[1.57361,42.59012],[1.57425,42.59115],[1.57458,42.59195],[1.5748,42.59225],[1.57471,42.59255],[1.57518,42.59485],[1.57527,42.59546],[1.57519,42.59596],[1.57548,42.59747],[1.57547,42.59821],[1.57526,42.59879],[1.57755,42.59965],[1.57802,42.60069],[1.57879,42.60166],[1.5793,42.60211],[1.58025,42.60214],[1.58085,42.60227],[1.58229,42.60243],[1.58441,42.60242],[1.58493,42.6026],[1.58554,42.60304],[1.58624,42.6039],[1.58682,42.60447],[1.58774,42.60461],[1.58809,42.60494],[1.5894,42.60575],[1.59033,42.60646],[1.59053,42.60665],[1.59126,42.60762],[1.59277,42.60889],[1.59335,42.60949],[1.59457,42.61093],[1.59504,42.61119],[1.59583,42.61137],[1.5976,42.6115],[1.5984,42.61179],[1.60001,42.61201],[1.601,42.61238],[1.60248,42.6127],[1.60432,42.61276],[1.60501,42.61288],[1.60539,42.61296],[1.60607,42.61326],[1.60687,42.61336],[1.60726,42.61355],[1.60707,42.6146],[1.6066,42.61527],[1.60651,42.61601],[1.60608,42.61662],[1.60569,42.61696],[1.60523,42.6181],[1.60545,42.61912],[1.60593,42.62],[1.60609,42.62069],[1.60613,42.62118],[1.60445,42.62295],[1.60409,42.62388],[1.60363,42.62441],[1.60357,42.62469],[1.60315,42.62551]]],"crs":null},"properties":{"name":"Ordino","abbrev":"ORD","postalCode":"AD300"}},{"type":"Feature","geometry":{"type":"Polygon","coordinates":[[[1.7389,42.55519],[1.7312,42.55698],[1.72284,42.55494],[1.71898,42.55694],[1.70913,42.55755],[1.70244,42.55783],[1.70081,42.55849],[1.69873,42.55874],[1.69341,42.55857],[1.68709,42.55631],[1.68667,42.55618],[1.68628,42.55615],[1.68599,42.55626],[1.68548,42.55661],[1.68528,42.55694],[1.68461,42.55766],[1.68416,42.55774],[1.68364,42.55769],[1.68345,42.55776],[1.68312,42.55822],[1.68308,42.55881],[1.68293,42.55928],[1.67909,42.55745],[1.67847,42.55699],[1.67646,42.55623],[1.67394,42.55449],[1.67377,42.55431],[1.66973,42.55159],[1.66605,42.54881],[1.6583,42.54605],[1.65751,42.54641],[1.65573,42.54663],[1.65251,42.54728],[1.64972,42.5489],[1.64628,42.54868],[1.6419,42.55214],[1.64088,42.5525],[1.64002,42.5529],[1.6303,42.55121],[1.62961,42.55087],[1.62725,42.54943],[1.62495,42.54767],[1.6219,42.54575],[1.61702,42.5451],[1.61411,42.54346],[1.61125,42.54391],[1.61016,42.54357],[1.60884,42.54525],[1.60574,42.54711],[1.60269,42.54679],[1.59213,42.54676],[1.58428,42.5485],[1.57983,42.54809],[1.57521,42.54942],[1.57273,42.54938],[1.57016,42.54917],[1.5697,42.54877],[1.5691,42.5485],[1.56646,42.54767],[1.56538,42.54745],[1.56508,42.54723],[1.56225,42.54642],[1.5598,42.54474],[1.55959,42.54454],[1.55936,42.54409],[1.55936,42.54361],[1.55908,42.54279],[1.55905,42.54254],[1.55912,42.54225],[1.55827,42.54139],[1.55755,42.54084],[1.55713,42.54031],[1.55662,42.53936],[1.5559,42.53882],[1.55483,42.5373],[1.55455,42.53679],[1.55446,42.5363],[1.55438,42.53619],[1.55378,42.5358],[1.5527,42.5355],[1.55167,42.53482],[1.54908,42.53249],[1.54879,42.53216],[1.54837,42.53116],[1.5472,42.52924],[1.54744,42.52867],[1.54793,42.52819],[1.54794,42.52773],[1.54836,42.52747],[1.54851,42.52626],[1.54793,42.5256],[1.54709,42.52504],[1.54624,42.52378],[1.5462,42.52322],[1.54629,42.52255],[1.54646,42.52217],[1.54663,42.52201],[1.54678,42.52165],[1.54675,42.5213],[1.54681,42.52088],[1.54674,42.51964],[1.54755,42.51941],[1.54841,42.51864],[1.54854,42.5183],[1.54907,42.5177],[1.54919,42.51697],[1.54962,42.5162],[1.55237,42.51433],[1.55316,42.51401],[1.55914,42.51472],[1.56152,42.51793],[1.56253,42.51826],[1.56424,42.51837],[1.56557,42.51867],[1.56604,42.5177],[1.56759,42.5177],[1.56905,42.51829],[1.57092,42.51928],[1.57147,42.51932],[1.57287,42.51843],[1.57564,42.51689],[1.58417,42.51224],[1.58666,42.51033],[1.59348,42.50585],[1.59968,42.50288],[1.60145,42.50197],[1.60274,42.5014],[1.60601,42.49974],[1.60768,42.49913],[1.60812,42.49904],[1.60963,42.49917],[1.61026,42.49907],[1.61132,42.49862],[1.61237,42.49847],[1.61263,42.49833],[1.6131,42.49825],[1.61478,42.49829],[1.61529,42.49849],[1.6161,42.49901],[1.61823,42.4994],[1.61905,42.50047],[1.61949,42.50074],[1.61983,42.50085],[1.62042,42.50088],[1.62103,42.5008],[1.62151,42.5007],[1.62235,42.50039],[1.62504,42.49925],[1.62598,42.49901],[1.64373,42.49555],[1.6477,42.49462],[1.65315,42.49425],[1.65818,42.49272],[1.66037,42.49263],[1.66214,42.49232],[1.66343,42.4919],[1.66386,42.49276],[1.66412,42.49292],[1.66604,42.49364],[1.68417,42.49519],[1.68586,42.49541],[1.6885,42.49596],[1.68943,42.49588],[1.69035,42.49596],[1.69091,42.49608],[1.69119,42.49604],[1.69167,42.49576],[1.69245,42.4957],[1.69265,42.49563],[1.7001,42.49114],[1.70258,42.48978],[1.70425,42.48909],[1.70757,42.48983],[1.70908,42.49074],[1.71221,42.49285],[1.71546,42.49564],[1.71651,42.49673],[1.71829,42.4991],[1.71962,42.4997],[1.72054,42.50023],[1.72149,42.50061],[1.72594,42.50272],[1.72565,42.50417],[1.72563,42.50457],[1.72584,42.5049],[1.72568,42.50574],[1.72562,42.50657],[1.72569,42.50694],[1.72565,42.50705],[1.72567,42.50741],[1.7255,42.50866],[1.72576,42.50907],[1.7258,42.50924],[1.72581,42.51011],[1.72597,42.5106],[1.72589,42.5114],[1.72596,42.51175],[1.72542,42.51523],[1.72532,42.51547],[1.72495,42.5158],[1.72413,42.51612],[1.72378,42.51637],[1.72223,42.51693],[1.72146,42.51728],[1.72189,42.51751],[1.72235,42.51753],[1.7225,42.51762],[1.72267,42.5181],[1.72248,42.51845],[1.723,42.51821],[1.72326,42.51822],[1.72405,42.51835],[1.72439,42.51862],[1.72513,42.51878],[1.72537,42.51879],[1.72622,42.51849],[1.72697,42.51845],[1.72728,42.51854],[1.72754,42.51868],[1.72765,42.51899],[1.72781,42.51923],[1.72842,42.5195],[1.72861,42.51989],[1.72899,42.52013],[1.72969,42.5204],[1.72879,42.52262],[1.72888,42.5247],[1.72908,42.52533],[1.72966,42.52602],[1.73059,42.52647],[1.73061,42.52676],[1.73096,42.52721],[1.73129,42.52779],[1.73134,42.52832],[1.73149,42.52887],[1.73164,42.52894],[1.73263,42.52766],[1.73319,42.52768],[1.73352,42.52786],[1.73321,42.53014],[1.73308,42.53035],[1.73318,42.53078],[1.73312,42.53088],[1.73358,42.53134],[1.73349,42.53146],[1.73371,42.53189],[1.73359,42.53212],[1.73363,42.5323],[1.73417,42.53255],[1.73432,42.53272],[1.7343,42.53292],[1.73435,42.53305],[1.73458,42.53342],[1.73473,42.5335],[1.73489,42.53372],[1.73467,42.53392],[1.73455,42.53447],[1.73442,42.53456],[1.73441,42.53477],[1.73423,42.53502],[1.73432,42.53525],[1.73428,42.53552],[1.73445,42.53579],[1.73431,42.53614],[1.73444,42.53652],[1.73414,42.53698],[1.73388,42.53705],[1.73369,42.53728],[1.73366,42.53755],[1.73384,42.53778],[1.73386,42.53794],[1.73375,42.53809],[1.73352,42.5382],[1.7335,42.53831],[1.73356,42.53844],[1.73349,42.53877],[1.7336,42.53897],[1.7338,42.53911],[1.73406,42.53914],[1.73408,42.53959],[1.73429,42.53982],[1.73431,42.54012],[1.73443,42.5404],[1.73437,42.54054],[1.73399,42.54082],[1.73401,42.54103],[1.73414,42.54124],[1.73404,42.54148],[1.73405,42.54162],[1.73434,42.54205],[1.7349,42.54239],[1.7352,42.54268],[1.73542,42.54271],[1.73557,42.54284],[1.7357,42.54325],[1.73568,42.54337],[1.73527,42.54378],[1.73527,42.54399],[1.73519,42.54398],[1.73509,42.54437],[1.73563,42.54493],[1.73549,42.54588],[1.73564,42.54644],[1.73541,42.54683],[1.73508,42.54709],[1.73474,42.54756],[1.73489,42.54783],[1.73542,42.5482],[1.7361,42.54851],[1.73677,42.5487],[1.73774,42.54854],[1.73771,42.54871],[1.73752,42.54891],[1.73748,42.54906],[1.73757,42.54922],[1.73782,42.54938],[1.73788,42.54957],[1.7369,42.54962],[1.73663,42.54947],[1.73651,42.54912],[1.73606,42.54901],[1.73523,42.54868],[1.73481,42.54841],[1.73446,42.54901],[1.73495,42.54996],[1.73505,42.55005],[1.7353,42.54989],[1.73565,42.55001],[1.73603,42.55034],[1.73637,42.55075],[1.73697,42.55101],[1.73687,42.55129],[1.73689,42.5515],[1.73704,42.55167],[1.73696,42.55177],[1.73766,42.55206],[1.73786,42.55241],[1.73788,42.55275],[1.73818,42.55295],[1.73843,42.55347],[1.73839,42.55368],[1.73806,42.55401],[1.73805,42.55421],[1.73851,42.55458],[1.73872,42.55503],[1.7389,42.55519]]],"crs":null},"properties":{"name":"Encamp","abbrev":"ENC","postalCode":"AD200"}},{"type":"Feature","geometry":{"type":"Polygon","coordinates":[[[1.7389,42.55519],[1.739,42.5553],[1.73896,42.55553],[1.73903,42.5557],[1.73962,42.55587],[1.74008,42.55615],[1.74006,42.55636],[1.73977,42.55656],[1.73982,42.55677],[1.74005,42.55684],[1.74044,42.55682],[1.74083,42.55698],[1.74092,42.55719],[1.74107,42.55732],[1.74178,42.55761],[1.7422,42.55815],[1.74286,42.55826],[1.74293,42.5583],[1.74295,42.55848],[1.74327,42.55856],[1.74332,42.55868],[1.74319,42.55898],[1.74355,42.55921],[1.74371,42.55953],[1.74435,42.5598],[1.74456,42.56016],[1.74485,42.56021],[1.7449,42.56033],[1.74516,42.56053],[1.7452,42.56062],[1.74495,42.56098],[1.74505,42.56108],[1.74564,42.56131],[1.74587,42.56151],[1.74643,42.56161],[1.74659,42.56176],[1.74695,42.56188],[1.74701,42.56208],[1.74683,42.56227],[1.74685,42.56235],[1.74705,42.56244],[1.74717,42.56261],[1.7478,42.56278],[1.74815,42.56312],[1.74832,42.56314],[1.74857,42.56302],[1.74952,42.56309],[1.74974,42.56337],[1.74985,42.56369],[1.75043,42.56413],[1.7507,42.56418],[1.7512,42.56397],[1.75138,42.56405],[1.75153,42.56424],[1.75169,42.56428],[1.75225,42.5641],[1.75244,42.56423],[1.75276,42.56431],[1.75288,42.56448],[1.75335,42.56464],[1.75361,42.5648],[1.75424,42.56482],[1.75524,42.5651],[1.75579,42.5651],[1.75604,42.56493],[1.75631,42.56486],[1.75661,42.56487],[1.75713,42.56502],[1.75772,42.56474],[1.75795,42.56477],[1.75829,42.56493],[1.75872,42.565],[1.75925,42.56536],[1.76026,42.56529],[1.76071,42.56515],[1.7613,42.56536],[1.76183,42.56511],[1.76204,42.56507],[1.76255,42.5654],[1.76279,42.56541],[1.76309,42.56528],[1.76332,42.56528],[1.76371,42.56539],[1.76387,42.56556],[1.76401,42.5656],[1.76451,42.56541],[1.7651,42.56555],[1.76533,42.56551],[1.76553,42.56537],[1.76568,42.56505],[1.76593,42.56492],[1.76728,42.56506],[1.76772,42.5646],[1.76789,42.56455],[1.76855,42.56466],[1.7689,42.56487],[1.76933,42.56473],[1.76965,42.56477],[1.77014,42.56524],[1.77037,42.56566],[1.77052,42.56571],[1.7709,42.56567],[1.77104,42.56574],[1.77116,42.56601],[1.7711,42.56619],[1.77117,42.56627],[1.77148,42.5663],[1.77167,42.56616],[1.77192,42.56609],[1.7725,42.56623],[1.77296,42.56617],[1.77327,42.56622],[1.77342,42.56636],[1.77385,42.56654],[1.77413,42.56679],[1.77458,42.5669],[1.77488,42.56704],[1.775,42.56722],[1.77506,42.56785],[1.77538,42.56796],[1.77589,42.56778],[1.77652,42.56782],[1.77686,42.56809],[1.77715,42.56851],[1.77736,42.56857],[1.77767,42.56856],[1.77807,42.56869],[1.7789,42.5693],[1.77947,42.56941],[1.78045,42.56987],[1.78089,42.57033],[1.78165,42.57049],[1.7818,42.57069],[1.78194,42.57107],[1.7821,42.57125],[1.78353,42.57196],[1.78441,42.57212],[1.78498,42.57235],[1.78516,42.57267],[1.78509,42.57305],[1.78513,42.57329],[1.78551,42.57326],[1.78572,42.57331],[1.78606,42.57358],[1.78625,42.57389],[1.78671,42.57415],[1.78631,42.5746],[1.78535,42.57502],[1.78456,42.57548],[1.78437,42.57599],[1.78442,42.57643],[1.78428,42.5768],[1.78426,42.57704],[1.78313,42.58012],[1.78118,42.58253],[1.78022,42.58224],[1.77991,42.58226],[1.77884,42.58206],[1.77789,42.58205],[1.77713,42.58175],[1.77662,42.58169],[1.77579,42.58135],[1.77542,42.5814],[1.77505,42.58131],[1.77464,42.58109],[1.77403,42.58101],[1.7737,42.58083],[1.77315,42.58069],[1.7726,42.58046],[1.77197,42.58058],[1.77111,42.58048],[1.77099,42.58053],[1.77006,42.58031],[1.76942,42.58041],[1.76844,42.5804],[1.76779,42.58033],[1.76637,42.58044],[1.76523,42.58062],[1.76497,42.58062],[1.76465,42.58048],[1.76448,42.58047],[1.76382,42.58071],[1.763,42.58067],[1.76156,42.58081],[1.76046,42.58081],[1.75962,42.58131],[1.7587,42.58166],[1.75831,42.58194],[1.75728,42.58219],[1.7568,42.58224],[1.75631,42.58248],[1.75564,42.58267],[1.75417,42.58274],[1.75363,42.58247],[1.75336,42.58243],[1.75298,42.58243],[1.75239,42.58258],[1.75194,42.58282],[1.7514,42.58326],[1.75099,42.58347],[1.74991,42.5845],[1.74932,42.58462],[1.7489,42.5845],[1.7486,42.58448],[1.74776,42.58488],[1.74717,42.58527],[1.74688,42.58535],[1.74631,42.58563],[1.74536,42.58586],[1.74499,42.58615],[1.74408,42.58643],[1.74269,42.58731],[1.74221,42.58774],[1.7419,42.58783],[1.74143,42.58768],[1.73995,42.5878],[1.73801,42.5876],[1.73766,42.58765],[1.73742,42.5878],[1.7367,42.58781],[1.73498,42.58801],[1.73424,42.58828],[1.73366,42.58861],[1.73307,42.58832],[1.73244,42.58825],[1.73192,42.588],[1.73152,42.5879],[1.73124,42.5879],[1.73068,42.58811],[1.72942,42.58812],[1.72888,42.58821],[1.72863,42.58816],[1.72761,42.58829],[1.72682,42.58886],[1.7266,42.58916],[1.72622,42.58951],[1.72611,42.58964],[1.72615,42.58983],[1.7261,42.58996],[1.72588,42.59016],[1.72576,42.59043],[1.72577,42.59066],[1.72608,42.59093],[1.72609,42.59108],[1.72599,42.59159],[1.72602,42.59172],[1.72577,42.59195],[1.72607,42.59237],[1.7261,42.59251],[1.72596,42.59416],[1.72582,42.59445],[1.72586,42.59468],[1.7261,42.59485],[1.72595,42.59496],[1.72608,42.59522],[1.72609,42.59542],[1.72599,42.59566],[1.72615,42.59587],[1.72616,42.59633],[1.72624,42.59641],[1.72629,42.59699],[1.72609,42.59706],[1.72604,42.59728],[1.72604,42.5977],[1.7263,42.59815],[1.72624,42.59891],[1.7264,42.59926],[1.7262,42.60005],[1.72629,42.60055],[1.72678,42.60069],[1.72747,42.60076],[1.72767,42.60088],[1.72768,42.60099],[1.72887,42.60148],[1.72895,42.60175],[1.72966,42.60231],[1.73075,42.60283],[1.73074,42.60326],[1.73085,42.60341],[1.73089,42.60361],[1.73098,42.60371],[1.73136,42.60384],[1.7317,42.60425],[1.73177,42.60455],[1.73169,42.60495],[1.73172,42.60553],[1.73155,42.60585],[1.7314,42.606],[1.73151,42.60612],[1.73174,42.60623],[1.7319,42.60642],[1.73201,42.60704],[1.73194,42.60733],[1.73205,42.60744],[1.73205,42.6076],[1.73259,42.60773],[1.73265,42.60782],[1.73325,42.60791],[1.73346,42.60806],[1.73384,42.60806],[1.73403,42.60825],[1.73439,42.60837],[1.7345,42.60853],[1.73478,42.60866],[1.73533,42.60907],[1.73565,42.60921],[1.73603,42.60953],[1.73614,42.60972],[1.73613,42.60992],[1.73622,42.61018],[1.73611,42.61045],[1.73596,42.61057],[1.73614,42.61064],[1.73629,42.61092],[1.73656,42.61113],[1.73776,42.61171],[1.73785,42.61218],[1.73748,42.61243],[1.73762,42.61262],[1.73772,42.61264],[1.73765,42.613],[1.73732,42.61337],[1.73705,42.61425],[1.73665,42.61463],[1.73648,42.61469],[1.73617,42.61516],[1.736,42.61523],[1.73578,42.61566],[1.73554,42.61563],[1.73535,42.61551],[1.73477,42.61542],[1.73405,42.61544],[1.73383,42.61558],[1.73347,42.61563],[1.73334,42.6157],[1.73344,42.61538],[1.73315,42.61521],[1.7328,42.6148],[1.73241,42.61455],[1.7322,42.61426],[1.73157,42.61454],[1.731,42.61449],[1.7302,42.61457],[1.72938,42.61494],[1.72862,42.6152],[1.72839,42.61557],[1.72697,42.61555],[1.72609,42.61562],[1.72552,42.61597],[1.72413,42.61618],[1.72362,42.61635],[1.72273,42.61653],[1.7217,42.61589],[1.72084,42.61561],[1.71987,42.61514],[1.71923,42.61508],[1.71836,42.61485],[1.71757,42.61482],[1.71695,42.61497],[1.71613,42.6149],[1.71595,42.61471],[1.71365,42.61462],[1.71346,42.61473],[1.71304,42.61476],[1.71294,42.61488],[1.71245,42.61515],[1.71217,42.61521],[1.71184,42.6158],[1.71153,42.61598],[1.71123,42.61634],[1.71087,42.6164],[1.71017,42.61634],[1.70975,42.61644],[1.70903,42.61702],[1.70739,42.61787],[1.7072,42.61839],[1.70693,42.61868],[1.70626,42.61914],[1.70517,42.61939],[1.70462,42.61961],[1.70398,42.62009],[1.70218,42.62054],[1.70181,42.62089],[1.70054,42.62109],[1.70007,42.62148],[1.70014,42.62181],[1.69976,42.62207],[1.69965,42.62243],[1.69844,42.62281],[1.6966,42.62237],[1.69593,42.62248],[1.69562,42.62244],[1.69452,42.62252],[1.6942,42.62248],[1.69356,42.62234],[1.69318,42.62217],[1.69213,42.62196],[1.69201,42.62205],[1.69195,42.62221],[1.6914,42.6226],[1.69124,42.6227],[1.69079,42.62283],[1.69075,42.623],[1.69052,42.6233],[1.69004,42.62341],[1.68936,42.62368],[1.68892,42.62368],[1.68852,42.62384],[1.68777,42.62395],[1.68726,42.6239],[1.68675,42.62394],[1.68634,42.62411],[1.68583,42.62416],[1.68477,42.62446],[1.68344,42.62499],[1.68255,42.62485],[1.68182,42.6249],[1.68094,42.62487],[1.6804,42.62473],[1.67947,42.62389],[1.679,42.62322],[1.67883,42.62287],[1.67849,42.62253],[1.67819,42.62244],[1.67749,42.6224],[1.67716,42.62241],[1.67658,42.62252],[1.67514,42.6221],[1.67478,42.62187],[1.67445,42.62144],[1.67407,42.62113],[1.67382,42.62108],[1.67353,42.6207],[1.67274,42.62106],[1.67213,42.62114],[1.6715,42.62134],[1.67023,42.62121],[1.66985,42.62132],[1.6695,42.62126],[1.66845,42.62149],[1.66815,42.62163],[1.667,42.62133],[1.66605,42.62094],[1.6654,42.62057],[1.66538,42.62033],[1.66466,42.62009],[1.66473,42.61996],[1.66491,42.61981],[1.6647,42.61959],[1.66469,42.6194],[1.66452,42.61918],[1.6642,42.61892],[1.66383,42.61912],[1.66337,42.61908],[1.6628,42.61943],[1.6622,42.61951],[1.66181,42.61963],[1.66137,42.61987],[1.66116,42.62004],[1.66094,42.62039],[1.6608,42.62044],[1.65995,42.62047],[1.65939,42.62069],[1.65888,42.62068],[1.65805,42.62089],[1.65718,42.62093],[1.65692,42.62101],[1.65671,42.62181],[1.65632,42.6221],[1.65568,42.62224],[1.65546,42.62238],[1.65534,42.62255],[1.6554,42.62387],[1.65528,42.62421],[1.65507,42.62432],[1.65504,42.62458],[1.65484,42.62461],[1.65482,42.62478],[1.65472,42.62491],[1.65401,42.62511],[1.65396,42.62603],[1.65385,42.62619],[1.65344,42.62638],[1.65115,42.62676],[1.65033,42.62678],[1.64994,42.62691],[1.64869,42.62707],[1.64847,42.62718],[1.64773,42.62721],[1.64615,42.62748],[1.6453,42.6275],[1.64485,42.62766],[1.64323,42.62796],[1.64234,42.6282],[1.64096,42.62818],[1.64048,42.62825],[1.6394,42.62814],[1.63872,42.62846],[1.63793,42.6294],[1.63779,42.62986],[1.63725,42.63033],[1.63631,42.63007],[1.63486,42.62938],[1.63376,42.62908],[1.63329,42.62883],[1.63253,42.62865],[1.63046,42.62782],[1.63009,42.62751],[1.62988,42.62722],[1.62968,42.62709],[1.62854,42.62663],[1.62807,42.62659],[1.62766,42.6264],[1.62723,42.62654],[1.62707,42.62665],[1.62634,42.62653],[1.62623,42.62673],[1.62578,42.62672],[1.6252,42.62655],[1.62504,42.62659],[1.62457,42.62698],[1.6224,42.62733],[1.62082,42.62669],[1.6202,42.62634],[1.61974,42.62591],[1.61913,42.62577],[1.61842,42.62585],[1.61777,42.6261],[1.61733,42.6263],[1.61708,42.62661],[1.61664,42.62671],[1.61654,42.62686],[1.61561,42.62669],[1.61472,42.62678],[1.61331,42.62671],[1.61302,42.62678],[1.61142,42.62664],[1.61112,42.62683],[1.61099,42.62708],[1.61056,42.62738],[1.61048,42.62768],[1.6094,42.62856],[1.60874,42.6284],[1.60836,42.62841],[1.60816,42.62848],[1.6078,42.62838],[1.60699,42.62789],[1.6064,42.62739],[1.60515,42.62697],[1.60475,42.62676],[1.60455,42.62638],[1.60315,42.62551],[1.60357,42.62469],[1.60363,42.62441],[1.60409,42.62388],[1.60445,42.62295],[1.60613,42.62118],[1.60609,42.62069],[1.60593,42.62],[1.60545,42.61912],[1.60523,42.6181],[1.60569,42.61696],[1.60608,42.61662],[1.60651,42.61601],[1.6066,42.61527],[1.60707,42.6146],[1.60726,42.61355],[1.60687,42.61336],[1.60607,42.61326],[1.60539,42.61296],[1.60501,42.61288],[1.60432,42.61276],[1.60248,42.6127],[1.601,42.61238],[1.60001,42.61201],[1.5984,42.61179],[1.5976,42.6115],[1.59583,42.61137],[1.59504,42.61119],[1.59457,42.61093],[1.59335,42.60949],[1.59277,42.60889],[1.59126,42.60762],[1.59053,42.60665],[1.59033,42.60646],[1.5894,42.60575],[1.58809,42.60494],[1.58774,42.60461],[1.58682,42.60447],[1.58624,42.6039],[1.58554,42.60304],[1.58493,42.6026],[1.58441,42.60242],[1.58229,42.60243],[1.58085,42.60227],[1.58025,42.60214],[1.5793,42.60211],[1.57879,42.60166],[1.57802,42.60069],[1.57755,42.59965],[1.57526,42.59879],[1.57547,42.59821],[1.57548,42.59747],[1.57519,42.59596],[1.57527,42.59546],[1.57518,42.59485],[1.57471,42.59255],[1.5748,42.59225],[1.57458,42.59195],[1.57425,42.59115],[1.57361,42.59012],[1.57324,42.5892],[1.57302,42.5884],[1.57241,42.58797],[1.57095,42.58761],[1.57032,42.58736],[1.5703,42.58695],[1.56998,42.58636],[1.56965,42.58619],[1.56936,42.5859],[1.56729,42.58516],[1.56594,42.58482],[1.56551,42.58458],[1.56551,42.58401],[1.56543,42.58352],[1.56606,42.58161],[1.56631,42.57996],[1.56632,42.57915],[1.56672,42.5783],[1.5669,42.57745],[1.56681,42.5767],[1.56647,42.57499],[1.56588,42.57432],[1.56575,42.57375],[1.56562,42.57232],[1.56577,42.5708],[1.56645,42.56956],[1.56714,42.56872],[1.56732,42.56829],[1.56731,42.56756],[1.5676,42.56716],[1.56762,42.56639],[1.56823,42.56471],[1.56841,42.56387],[1.56864,42.56374],[1.57002,42.56234],[1.57137,42.56121],[1.57175,42.56081],[1.57232,42.5599],[1.57272,42.55894],[1.57278,42.55852],[1.5727,42.55724],[1.57245,42.55659],[1.57164,42.55492],[1.5713,42.55352],[1.57074,42.5518],[1.57064,42.55095],[1.57016,42.54917],[1.57273,42.54938],[1.57521,42.54942],[1.57983,42.54809],[1.58428,42.5485],[1.59213,42.54676],[1.60269,42.54679],[1.60574,42.54711],[1.60884,42.54525],[1.61016,42.54357],[1.61125,42.54391],[1.61411,42.54346],[1.61702,42.5451],[1.6219,42.54575],[1.62495,42.54767],[1.62725,42.54943],[1.62961,42.55087],[1.6303,42.55121],[1.64002,42.5529],[1.64088,42.5525],[1.6419,42.55214],[1.64628,42.54868],[1.64972,42.5489],[1.65251,42.54728],[1.65573,42.54663],[1.65751,42.54641],[1.6583,42.54605],[1.66605,42.54881],[1.66973,42.55159],[1.67377,42.55431],[1.67394,42.55449],[1.67646,42.55623],[1.67847,42.55699],[1.67909,42.55745],[1.68293,42.55928],[1.68308,42.55881],[1.68312,42.55822],[1.68345,42.55776],[1.68364,42.55769],[1.68416,42.55774],[1.68461,42.55766],[1.68528,42.55694],[1.68548,42.55661],[1.68599,42.55626],[1.68628,42.55615],[1.68667,42.55618],[1.68709,42.55631],[1.69341,42.55857],[1.69873,42.55874],[1.70081,42.55849],[1.70244,42.55783],[1.70913,42.55755],[1.71898,42.55694],[1.72284,42.55494],[1.7312,42.55698],[1.7389,42.55519]]],"crs":null},"properties":{"name":"Canillo","abbrev":"CAN","postalCode":"AD100"}}],"metadata":{"generatedAt":"2026-10-06T09:53:42.789Z","source":"govern-sig","attribution":"Base topogràfica cedida pel Govern d’Andorra","note":"Govern layer is labelled “no oficial” (non-official parish limits)."}}