{"type":"FeatureCollection","features":[{"type":"Feature","geometry":{"type":"Point","coordinates":[1.52125,42.50694]},"properties":{"name":"Andorra la Vella","place":"town","population":24678,"ele":1011}},{"type":"Feature","geometry":{"type":"Point","coordinates":[1.53349,42.55615]},"properties":{"name":"Ordino","place":"town"}},{"type":"Feature","geometry":{"type":"Point","coordinates":[1.49214,42.45368]},"properties":{"name":"Aubinyà","place":"village"}},{"type":"Feature","geometry":{"type":"Point","coordinates":[1.49178,42.43917]},"properties":{"name":"Juberri","place":"village"}},{"type":"Feature","geometry":{"type":"Point","coordinates":[1.49959,42.47051]},"properties":{"name":"Nagol","place":"village"}},{"type":"Feature","geometry":{"type":"Point","coordinates":[1.45668,42.48363]},"properties":{"name":"Bixessarri","place":"village"}},{"type":"Feature","geometry":{"type":"Point","coordinates":[1.6497,42.58033]},"properties":{"name":"el Tarter","place":"village"}},{"type":"Feature","geometry":{"type":"Point","coordinates":[1.59366,42.56056]},"properties":{"name":"Prats","place":"village"}},{"type":"Feature","geometry":{"type":"Point","coordinates":[1.65316,42.5785]},"properties":{"name":"Sant Pere","place":"village"}},{"type":"Feature","geometry":{"type":"Point","coordinates":[1.59776,42.56683]},"properties":{"name":"Canillo","place":"town"}},{"type":"Feature","geometry":{"type":"Point","coordinates":[1.5274,42.56493]},"properties":{"name":"Sornàs","place":"village"}},{"type":"Feature","geometry":{"type":"Point","coordinates":[1.73349,42.54471]},"properties":{"name":"Pas de la Casa","place":"village","population":2996,"ele":2080}},{"type":"Feature","geometry":{"type":"Point","coordinates":[1.5389,42.61958]},"properties":{"name":"el Serrat","place":"village"}},{"type":"Feature","geometry":{"type":"Point","coordinates":[1.63748,42.58168]},"properties":{"name":"Ransol","place":"village"}},{"type":"Feature","geometry":{"type":"Point","coordinates":[1.56662,42.53185]},"properties":{"name":"Vila","place":"village"}},{"type":"Feature","geometry":{"type":"Point","coordinates":[1.49659,42.56149]},"properties":{"name":"Erts","place":"village"}},{"type":"Feature","geometry":{"type":"Point","coordinates":[1.52215,42.56902]},"properties":{"name":"Ansalonga","place":"village"}},{"type":"Feature","geometry":{"type":"Point","coordinates":[1.54189,42.51205]},"properties":{"name":"Engordany","place":"village"}},{"type":"Feature","geometry":{"type":"Point","coordinates":[1.4844,42.57208]},"properties":{"name":"Arinsal","place":"village"}},{"type":"Feature","geometry":{"type":"Point","coordinates":[1.49233,42.46685]},"properties":{"name":"Sant Julià de Lòria","place":"town","population":9207}},{"type":"Feature","geometry":{"type":"Point","coordinates":[1.46402,42.45431]},"properties":{"name":"Fontaneda","place":"village"}},{"type":"Feature","geometry":{"type":"Point","coordinates":[1.49971,42.495]},"properties":{"name":"Santa Coloma","place":"village"}},{"type":"Feature","geometry":{"type":"Point","coordinates":[1.47598,42.5458]},"properties":{"name":"Pal","place":"village"}},{"type":"Feature","geometry":{"type":"Point","coordinates":[1.48787,42.55312]},"properties":{"name":"Xixerella","place":"village"}},{"type":"Feature","geometry":{"type":"Point","coordinates":[1.48875,42.47698]},"properties":{"name":"Aixovall","place":"village"}},{"type":"Feature","geometry":{"type":"Point","coordinates":[1.52618,42.59626]},"properties":{"name":"Llorts","place":"village"}},{"type":"Feature","geometry":{"type":"Point","coordinates":[1.66827,42.57689]},"properties":{"name":"Soldeu","place":"village"}},{"type":"Feature","geometry":{"type":"Point","coordinates":[1.51934,42.57557]},"properties":{"name":"la Cortinada","place":"village"}},{"type":"Feature","geometry":{"type":"Point","coordinates":[1.51168,42.47215]},"properties":{"name":"Llumeneres","place":"village"}},{"type":"Feature","geometry":{"type":"Point","coordinates":[1.51807,42.58253]},"properties":{"name":"Arans","place":"village"}},{"type":"Feature","geometry":{"type":"Point","coordinates":[1.51638,42.5442]},"properties":{"name":"La Massana","place":"town","population":11591}},{"type":"Feature","geometry":{"type":"Point","coordinates":[1.53806,42.55706]},"properties":{"name":"Segudet","place":"village"}},{"type":"Feature","geometry":{"type":"Point","coordinates":[1.58361,42.53604]},"properties":{"name":"Encamp","place":"town"}},{"type":"Feature","geometry":{"type":"Point","coordinates":[1.54041,42.509]},"properties":{"name":"les Escaldes","place":"town"}},{"type":"Feature","geometry":{"type":"Point","coordinates":[1.50162,42.462]},"properties":{"name":"Aixirivall","place":"village"}},{"type":"Feature","geometry":{"type":"Point","coordinates":[1.50615,42.47608]},"properties":{"name":"Certers","place":"village"}},{"type":"Feature","geometry":{"type":"Point","coordinates":[1.59064,42.55363]},"properties":{"name":"Meritxell","place":"village"}},{"type":"Feature","geometry":{"type":"Point","coordinates":[1.70179,42.5369]},"properties":{"name":"Grau Roig","place":"village"}},{"type":"Feature","geometry":{"type":"Point","coordinates":[1.55923,42.51051]},"properties":{"name":"Engolasters","place":"village"}},{"type":"Feature","geometry":{"type":"Point","coordinates":[1.4914,42.48701]},"properties":{"name":"la Margineda","place":"village"}},{"type":"Feature","geometry":{"type":"Point","coordinates":[1.6849,42.55997]},"properties":{"name":"les Bordes d'Envalira","place":"village"}}],"metadata":{"generatedAt":"2026-10-06T09:54:27.074Z","source":"osm","attribution":"© OpenStreetMap contributors (ODbL)"}}