{"type":"FeatureCollection","features":[{"type":"Feature","geometry":{"type":"Point","coordinates":[1.51878,42.64543]},"properties":{"name":"Pic de les Fangasses / Pic des Fangasses","kind":"peak","ele":2682}},{"type":"Feature","geometry":{"type":"Point","coordinates":[1.43417,42.59026]},"properties":{"name":"Agulla de Baiau","kind":"peak","ele":2860.5}},{"type":"Feature","geometry":{"type":"Point","coordinates":[1.44199,42.60372]},"properties":{"name":"Pic de Medacorba / Pic de Médécourbe","kind":"peak","ele":2914}},{"type":"Feature","geometry":{"type":"Point","coordinates":[1.54933,42.6559]},"properties":{"name":"Pic d'Arial","kind":"peak","ele":2685}},{"type":"Feature","geometry":{"type":"Point","coordinates":[1.576,42.64326]},"properties":{"name":"Pic de Soulanet","kind":"peak","ele":2584}},{"type":"Feature","geometry":{"type":"Point","coordinates":[1.62855,42.62662]},"properties":{"name":"Pic de l'Estany Mort","kind":"peak","ele":2746}},{"type":"Feature","geometry":{"type":"Point","coordinates":[1.63429,42.62921]},"properties":{"name":"Pic de Mil Menut / Pic del Mil Menut","kind":"peak","ele":2778}},{"type":"Feature","geometry":{"type":"Point","coordinates":[1.65333,42.62639]},"properties":{"name":"Pic de Ransol","kind":"peak","ele":2733}},{"type":"Feature","geometry":{"type":"Point","coordinates":[1.56548,42.58459]},"properties":{"name":"Pic Oest de Casamanya","kind":"peak","ele":2746}},{"type":"Feature","geometry":{"type":"Point","coordinates":[1.5703,42.58737]},"properties":{"name":"Casamanya Nord","kind":"peak","ele":2757}},{"type":"Feature","geometry":{"type":"Point","coordinates":[1.56917,42.58582]},"properties":{"name":"Casamanya Mig","kind":"peak","ele":2731}},{"type":"Feature","geometry":{"type":"Point","coordinates":[1.56114,42.45866]},"properties":{"name":"Pic Negre de Claror","kind":"peak","ele":2642}},{"type":"Feature","geometry":{"type":"Point","coordinates":[1.60252,42.62554]},"properties":{"name":"Pic de la Serrera / Pic de Serrère","kind":"peak","ele":2912}},{"type":"Feature","geometry":{"type":"Point","coordinates":[1.51454,42.59688]},"properties":{"name":"Roc de Castell","kind":"peak","ele":1934}},{"type":"Feature","geometry":{"type":"Point","coordinates":[1.50901,42.61927]},"properties":{"name":"Pic de l'Hortell","kind":"peak","ele":2562}},{"type":"Feature","geometry":{"type":"Point","coordinates":[1.43128,42.48244]},"properties":{"name":"Bony dels Llorers","kind":"peak","ele":2207}},{"type":"Feature","geometry":{"type":"Point","coordinates":[1.60582,42.46475]},"properties":{"name":"Pic del Sirvent","kind":"peak","ele":2722.5}},{"type":"Feature","geometry":{"type":"Point","coordinates":[1.62057,42.46547]},"properties":{"name":"Pic de la Colilla","kind":"peak","ele":2835.8}},{"type":"Feature","geometry":{"type":"Point","coordinates":[1.44436,42.56725]},"properties":{"name":"Pic Negre","kind":"peak","ele":2570.3}},{"type":"Feature","geometry":{"type":"Point","coordinates":[1.48563,42.61797]},"properties":{"name":"la Coma","kind":"lift"}},{"type":"Feature","geometry":{"type":"Point","coordinates":[1.64627,42.54868]},"properties":{"name":"Tosa de Llosada","kind":"peak","ele":2560}},{"type":"Feature","geometry":{"type":"Point","coordinates":[1.66171,42.5428]},"properties":{"name":"Cortals","kind":"peak","ele":2502}},{"type":"Feature","geometry":{"type":"Point","coordinates":[1.65359,42.5546]},"properties":{"name":"Tosa de Espiolets","kind":"peak","ele":2467}},{"type":"Feature","geometry":{"type":"Point","coordinates":[1.47003,42.53385]},"properties":{"name":"La Sierra","kind":"lift"}},{"type":"Feature","geometry":{"type":"Point","coordinates":[1.44366,42.5918]},"properties":{"name":"Pic de Comapedrosa","kind":"peak","ele":2943}},{"type":"Feature","geometry":{"type":"Point","coordinates":[1.53434,42.64969]},"properties":{"name":"Pic de la Font Blanca / Pic du Port","kind":"peak","ele":2903}},{"type":"Feature","geometry":{"type":"Point","coordinates":[1.46809,42.63089]},"properties":{"name":"Pic de Cabanyó / Pic de Cabayrou","kind":"peak","ele":2732}},{"type":"Feature","geometry":{"type":"Point","coordinates":[1.46997,42.63547]},"properties":{"name":"Pic de Caraussans / Pic de Creussans","kind":"peak","ele":2682}},{"type":"Feature","geometry":{"type":"Point","coordinates":[1.44059,42.59444]},"properties":{"name":"Pic de Baiau","kind":"peak","ele":2886}},{"type":"Feature","geometry":{"type":"Point","coordinates":[1.72275,42.61651]},"properties":{"name":"Pic Negre de Juclar","kind":"peak","ele":2627}},{"type":"Feature","geometry":{"type":"Point","coordinates":[1.57476,42.64794]},"properties":{"name":"Pic de Bagnels / Pic del Port de Siguer","kind":"peak","ele":2638}},{"type":"Feature","geometry":{"type":"Point","coordinates":[1.50667,42.64524]},"properties":{"name":"Pic de l'Albeille / Pic de les Planes","kind":"peak","ele":2788}},{"type":"Feature","geometry":{"type":"Point","coordinates":[1.47129,42.62817]},"properties":{"name":"Pic del Coll del Baser Negre","kind":"peak","ele":2671}},{"type":"Feature","geometry":{"type":"Point","coordinates":[1.44219,42.59839]},"properties":{"name":"Roca Entravessada","kind":"peak","ele":2928.6}},{"type":"Feature","geometry":{"type":"Point","coordinates":[1.47701,42.64063]},"properties":{"name":"Pointe de Peyreguils / Punta de Peiraguils","kind":"peak","ele":2702}},{"type":"Feature","geometry":{"type":"Point","coordinates":[1.49434,42.51431]},"properties":{"name":"Pic Carroi","kind":"peak","ele":2331}},{"type":"Feature","geometry":{"type":"Point","coordinates":[1.65112,42.52541]},"properties":{"name":"Alt del Griu","kind":"peak","ele":2875}},{"type":"Feature","geometry":{"type":"Point","coordinates":[1.68656,42.50896]},"properties":{"name":"Montmalús","kind":"peak","ele":2791}},{"type":"Feature","geometry":{"type":"Point","coordinates":[1.73566,42.60921]},"properties":{"name":"Pic d'Escobes","kind":"peak","ele":2781}},{"type":"Feature","geometry":{"type":"Point","coordinates":[1.58552,42.45912]},"properties":{"name":"Pic de Perafita","kind":"peak","ele":2753}},{"type":"Feature","geometry":{"type":"Point","coordinates":[1.57668,42.63623]},"properties":{"name":"Turó del Forn","kind":"peak","ele":2662.5}},{"type":"Feature","geometry":{"type":"Point","coordinates":[1.63617,42.46809]},"properties":{"name":"Pic de Coma Extrema","kind":"peak","ele":2809.4}},{"type":"Feature","geometry":{"type":"Point","coordinates":[1.56202,42.54629]},"properties":{"name":"Bony de les Neres","kind":"peak","ele":2211}},{"type":"Feature","geometry":{"type":"Point","coordinates":[1.54605,42.5238]},"properties":{"name":"Pic de Padern","kind":"peak","ele":1861}},{"type":"Feature","geometry":{"type":"Point","coordinates":[1.50545,42.56911]},"properties":{"name":"Pic del Solà d'Erts","kind":"peak","ele":1980}},{"type":"Feature","geometry":{"type":"Point","coordinates":[1.59261,42.60868]},"properties":{"name":"Pic de l'Estanyó","kind":"peak","ele":2915}},{"type":"Feature","geometry":{"type":"Point","coordinates":[1.60732,42.61353]},"properties":{"name":"Pic de la Cabaneta","kind":"peak","ele":2862}},{"type":"Feature","geometry":{"type":"Point","coordinates":[1.47819,42.60115]},"properties":{"name":"Pic de les Fonts","kind":"peak","ele":2749}},{"type":"Feature","geometry":{"type":"Point","coordinates":[1.51457,42.56051]},"properties":{"name":"Roc de la Cauba","kind":"peak","ele":1819}},{"type":"Feature","geometry":{"type":"Point","coordinates":[1.5563,42.46293]},"properties":{"name":"Pic de Claror","kind":"peak","ele":2620.3}},{"type":"Feature","geometry":{"type":"Point","coordinates":[1.47659,42.51254]},"properties":{"name":"Pic de Coll Pa","kind":"peak","ele":2289}},{"type":"Feature","geometry":{"type":"Point","coordinates":[1.49558,42.59487]},"properties":{"name":"Pic del Clot del Cavall","kind":"peak","ele":2586}},{"type":"Feature","geometry":{"type":"Point","coordinates":[1.48554,42.59918]},"properties":{"name":"Pic de la Burna","kind":"peak","ele":2656}},{"type":"Feature","geometry":{"type":"Point","coordinates":[1.45258,42.57393]},"properties":{"name":"Pic dels Aspres","kind":"peak","ele":2562}},{"type":"Feature","geometry":{"type":"Point","coordinates":[1.45776,42.5752]},"properties":{"name":"Cap de les Canales de Ribanelles","kind":"peak","ele":2497.4}},{"type":"Feature","geometry":{"type":"Point","coordinates":[1.42799,42.55907]},"properties":{"name":"Cap de l'Ovella","kind":"peak","ele":2541}},{"type":"Feature","geometry":{"type":"Point","coordinates":[1.66017,42.52035]},"properties":{"name":"Ensagents","kind":"peak","ele":2857}},{"type":"Feature","geometry":{"type":"Point","coordinates":[1.60042,42.48202]},"properties":{"name":"Pic de la Maiana","kind":"peak","ele":2520}},{"type":"Feature","geometry":{"type":"Point","coordinates":[1.66467,42.50813]},"properties":{"name":"Pessons","kind":"peak","ele":2864}},{"type":"Feature","geometry":{"type":"Point","coordinates":[1.49091,42.61607]},"properties":{"name":"Pic d'Arcalís","kind":"peak","ele":2776}},{"type":"Feature","geometry":{"type":"Point","coordinates":[1.47486,42.61247]},"properties":{"name":"Pic de l'Angonella / Pic des Langounelles","kind":"peak","ele":2819}},{"type":"Feature","geometry":{"type":"Point","coordinates":[1.47735,42.61495]},"properties":{"name":"Pic de Cataperdis","kind":"peak","ele":2805}},{"type":"Feature","geometry":{"type":"Point","coordinates":[1.47097,42.62456]},"properties":{"name":"Cap de la Costa Gran / Cap de la Coste Grande","kind":"peak","ele":2685}},{"type":"Feature","geometry":{"type":"Point","coordinates":[1.7419,42.58783]},"properties":{"name":"Roc Mélé","kind":"peak","ele":2811}},{"type":"Feature","geometry":{"type":"Point","coordinates":[1.73367,42.58877]},"properties":{"name":"Pic de la Cabaneta","kind":"peak","ele":2847}},{"type":"Feature","geometry":{"type":"Point","coordinates":[1.7078,42.50736]},"properties":{"name":"Pic de Serra-seca","kind":"peak","ele":2775.5}},{"type":"Feature","geometry":{"type":"Point","coordinates":[1.71276,42.51338]},"properties":{"name":"Pic d’Engaït o de la Menera","kind":"peak","ele":2773.9}},{"type":"Feature","geometry":{"type":"Point","coordinates":[1.72006,42.55482]},"properties":{"name":"Pic de Maià","kind":"peak","ele":2618}},{"type":"Feature","geometry":{"type":"Point","coordinates":[1.59367,42.63283]},"properties":{"name":"Pic de la Sal / Pic du Sal","kind":"peak","ele":2743}},{"type":"Feature","geometry":{"type":"Point","coordinates":[1.68251,42.62485]},"properties":{"name":"Pic d'Anrodat / Pic de la Coume d'Enfer","kind":"peak","ele":2730}},{"type":"Feature","geometry":{"type":"Point","coordinates":[1.6094,42.62857]},"properties":{"name":"Pic de la Coma de Senyac / Pic de la Coume de Seignac","kind":"peak","ele":2857}},{"type":"Feature","geometry":{"type":"Point","coordinates":[1.45401,42.56302]},"properties":{"name":"Alt de la Capa","kind":"peak","ele":2573}},{"type":"Feature","geometry":{"type":"Point","coordinates":[1.66037,42.62042]},"properties":{"name":"Pic de la Portaneille","kind":"peak","ele":2728}},{"type":"Feature","geometry":{"type":"Point","coordinates":[1.47418,42.53015]},"properties":{"name":"Pla de la Cot I","kind":"lift"}},{"type":"Feature","geometry":{"type":"Point","coordinates":[1.67129,42.50573]},"properties":{"name":"Ribuls Occ.","kind":"peak","ele":2819}},{"type":"Feature","geometry":{"type":"Point","coordinates":[1.67534,42.50729]},"properties":{"name":"Pic L'Alig","kind":"peak","ele":2781}},{"type":"Feature","geometry":{"type":"Point","coordinates":[1.67171,42.50654]},"properties":{"name":"Ribuls","kind":"peak","ele":2826}},{"type":"Feature","geometry":{"type":"Point","coordinates":[1.67288,42.5073]},"properties":{"name":"Ribuls Or.","kind":"peak","ele":2817}},{"type":"Feature","geometry":{"type":"Point","coordinates":[1.72742,42.58845]},"properties":{"name":"Tosa de Siscaro","kind":"peak","ele":2818}},{"type":"Feature","geometry":{"type":"Point","coordinates":[1.72592,42.60063]},"properties":{"name":"Pic de Siscaro","kind":"peak","ele":2636}},{"type":"Feature","geometry":{"type":"Point","coordinates":[1.72595,42.58514]},"properties":{"name":"Tosa del Cap del Siscaró","kind":"peak","ele":2774}},{"type":"Feature","geometry":{"type":"Point","coordinates":[1.66444,42.61911]},"properties":{"name":"Pic de la Coma de Varilles / Pics de la Portaneille","kind":"peak","ele":2760}},{"type":"Feature","geometry":{"type":"Point","coordinates":[1.72143,42.51727]},"properties":{"name":"Pic d'Envalira","kind":"peak","ele":2823}},{"type":"Feature","geometry":{"type":"Point","coordinates":[1.60254,42.60839]},"properties":{"name":"Pic de les Fonts","kind":"peak","ele":2757.8}},{"type":"Feature","geometry":{"type":"Point","coordinates":[1.61519,42.47492]},"properties":{"name":"Pic de Serramitjana","kind":"peak","ele":2523}},{"type":"Feature","geometry":{"type":"Point","coordinates":[1.71948,42.51538]},"properties":{"name":"Pic","kind":"peak","ele":2779.7}},{"type":"Feature","geometry":{"type":"Point","coordinates":[1.70401,42.50477]},"properties":{"name":"Pic de la Portella dels Colells","kind":"peak","ele":2773.2}},{"type":"Feature","geometry":{"type":"Point","coordinates":[1.692,42.50625]},"properties":{"name":"Pic dels Colells","kind":"peak","ele":2746}},{"type":"Feature","geometry":{"type":"Point","coordinates":[1.64927,42.5051]},"properties":{"name":"Pic dels Llops","kind":"peak","ele":2843.2}},{"type":"Feature","geometry":{"type":"Point","coordinates":[1.49662,42.58955]},"properties":{"name":"Pic de Percanela","kind":"peak","ele":2495}},{"type":"Feature","geometry":{"type":"Point","coordinates":[1.47587,42.59046]},"properties":{"name":"Bony del Covil d'Erts","kind":"peak","ele":2326}},{"type":"Feature","geometry":{"type":"Point","coordinates":[1.47445,42.59505]},"properties":{"name":"Pic de la Pala de Coll Carnisser","kind":"peak","ele":2561.3}},{"type":"Feature","geometry":{"type":"Point","coordinates":[1.47288,42.43533]},"properties":{"name":"Duana andorrana","kind":"border"}},{"type":"Feature","geometry":{"type":"Point","coordinates":[1.62455,42.5939]},"properties":{"name":"Pic de Torradella","kind":"peak","ele":2543}},{"type":"Feature","geometry":{"type":"Point","coordinates":[1.62545,42.60821]},"properties":{"name":"Pic de la Pala Alta","kind":"peak","ele":2681}},{"type":"Feature","geometry":{"type":"Point","coordinates":[1.72152,42.60211]},"properties":{"name":"Pic de la Tosa de Juclar","kind":"peak","ele":2699}},{"type":"Feature","geometry":{"type":"Point","coordinates":[1.63313,42.55717]},"properties":{"name":"Pic d'Encampadana","kind":"peak","ele":2491}},{"type":"Feature","geometry":{"type":"Point","coordinates":[1.6278,42.55238]},"properties":{"name":"Pic dels Maians","kind":"peak","ele":2466}},{"type":"Feature","geometry":{"type":"Point","coordinates":[1.70417,42.61013]},"properties":{"name":"Alt de Juclar","kind":"peak","ele":2588}},{"type":"Feature","geometry":{"type":"Point","coordinates":[1.70958,42.61171]},"properties":{"name":"Alt de Juclar","kind":"peak","ele":2586}},{"type":"Feature","geometry":{"type":"Point","coordinates":[1.6703,42.5278]},"properties":{"name":"Pic Alt del Cubil","kind":"peak","ele":2833}},{"type":"Feature","geometry":{"type":"Point","coordinates":[1.67831,42.53023]},"properties":{"name":"Pic Baix del Cubil","kind":"peak","ele":2705}},{"type":"Feature","geometry":{"type":"Point","coordinates":[1.72057,42.52203]},"properties":{"name":"Pic Blanc","kind":"peak","ele":2723}},{"type":"Feature","geometry":{"type":"Point","coordinates":[1.69597,42.58481]},"properties":{"name":"Tossal d'Incles","kind":"peak","ele":2568}},{"type":"Feature","geometry":{"type":"Point","coordinates":[1.48156,42.63669]},"properties":{"name":"Roc del Vaquer","kind":"peak","ele":2517}},{"type":"Feature","geometry":{"type":"Point","coordinates":[1.48583,42.62365]},"properties":{"name":"Les Portelles","kind":"peak","ele":2523}},{"type":"Feature","geometry":{"type":"Point","coordinates":[1.46404,42.60678]},"properties":{"name":"Pic del Pla de l'Estany / Pic des Bareytes","kind":"peak","ele":2859.7}},{"type":"Feature","geometry":{"type":"Point","coordinates":[1.63286,42.622]},"properties":{"name":"Bony de la Pala de Jan","kind":"peak","ele":2525}},{"type":"Feature","geometry":{"type":"Point","coordinates":[1.69509,42.57243]},"properties":{"name":"Cap dels Clots de Massat","kind":"peak","ele":2572}},{"type":"Feature","geometry":{"type":"Point","coordinates":[1.53779,42.6384]},"properties":{"name":"Pic de Besalí","kind":"peak","ele":2639}},{"type":"Feature","geometry":{"type":"Point","coordinates":[1.45291,42.44813]},"properties":{"name":"Pic del Cussol","kind":"peak","ele":1761.4}},{"type":"Feature","geometry":{"type":"Point","coordinates":[1.47599,42.56108]},"properties":{"name":"Pic de Palomer","kind":"peak","ele":2072}},{"type":"Feature","geometry":{"type":"Point","coordinates":[1.63448,42.47174]},"properties":{"name":"Pic del Feixar","kind":"peak","ele":2722}},{"type":"Feature","geometry":{"type":"Point","coordinates":[1.70818,42.5674]},"properties":{"name":"Pic d'Ortafà II","kind":"peak","ele":2614}},{"type":"Feature","geometry":{"type":"Point","coordinates":[1.62288,42.50046]},"properties":{"name":"Cap dels Agols","kind":"peak","ele":2665}},{"type":"Feature","geometry":{"type":"Point","coordinates":[1.70856,42.56554]},"properties":{"name":"Pic d'Ortafà I","kind":"peak","ele":2608}},{"type":"Feature","geometry":{"type":"Point","coordinates":[1.70016,42.57243]},"properties":{"name":"Pic d'Ortafà III","kind":"peak","ele":2595}},{"type":"Feature","geometry":{"type":"Point","coordinates":[1.62336,42.49293]},"properties":{"name":"Turó de l'Estany Blau","kind":"peak","ele":2636}},{"type":"Feature","geometry":{"type":"Point","coordinates":[1.59855,42.50274]},"properties":{"name":"Tossa del Braibal","kind":"peak","ele":2657}},{"type":"Feature","geometry":{"type":"Point","coordinates":[1.71089,42.58065]},"properties":{"name":"Pic del Cap del Port Dret","kind":"peak","ele":2749}},{"type":"Feature","geometry":{"type":"Point","coordinates":[1.61814,42.62599]},"properties":{"name":"Pic de Meners / Pic dels Meners","kind":"peak","ele":2716}},{"type":"Feature","geometry":{"type":"Point","coordinates":[1.47875,42.65148]},"properties":{"name":"Faux pic de l'Étang Fourcat / Pic de Costa Rodona","kind":"peak","ele":2820}},{"type":"Feature","geometry":{"type":"Point","coordinates":[1.73056,42.54544]},"properties":{"name":"Urgències del Pas","kind":"hospital"}},{"type":"Feature","geometry":{"type":"Point","coordinates":[1.49379,42.65346]},"properties":{"name":"Pic de Tristagne / Pic de Tristaina","kind":"peak","ele":2878}},{"type":"Feature","geometry":{"type":"Point","coordinates":[1.65986,42.60831]},"properties":{"name":"Tossa de Caraup","kind":"peak","ele":2633}},{"type":"Feature","geometry":{"type":"Point","coordinates":[1.57261,42.61558]},"properties":{"name":"roc del Rellotge","kind":"peak","ele":2393.4}},{"type":"Feature","geometry":{"type":"Point","coordinates":[1.73263,42.6078]},"properties":{"name":"Cylindre d'Escobes","kind":"peak","ele":2668}},{"type":"Feature","geometry":{"type":"Point","coordinates":[1.70976,42.61646]},"properties":{"name":"Pic Negre de Juclar","kind":"peak","ele":2493}},{"type":"Feature","geometry":{"type":"Point","coordinates":[1.48187,42.63157]},"properties":{"name":"Telecabina Tristaina","kind":"lift"}},{"type":"Feature","geometry":{"type":"Point","coordinates":[1.65269,42.60025]},"properties":{"name":"Cap de la Tosa d'Entor","kind":"peak","ele":2506}},{"type":"Feature","geometry":{"type":"Point","coordinates":[1.49997,42.43479]},"properties":{"name":"Roca Major","kind":"peak","ele":1714}},{"type":"Feature","geometry":{"type":"Point","coordinates":[1.50427,42.457]},"properties":{"name":"La Portella","kind":"peak","ele":1465.5}},{"type":"Feature","geometry":{"type":"Point","coordinates":[1.47294,42.43529]},"properties":{"name":"Duana andorrana","kind":"border"}},{"type":"Feature","geometry":{"type":"Point","coordinates":[1.67705,42.62242]},"properties":{"name":"Tossa de les Mussoles","kind":"peak","ele":2679}},{"type":"Feature","geometry":{"type":"Point","coordinates":[1.69222,42.622]},"properties":{"name":"Pic de Fontargent / Pic de Fontargente","kind":"peak","ele":2618}},{"type":"Feature","geometry":{"type":"Point","coordinates":[1.53257,42.54393]},"properties":{"name":"Pic de les Angleves","kind":"peak","ele":1639}},{"type":"Feature","geometry":{"type":"Point","coordinates":[1.74968,42.58455]},"properties":{"name":"Cap de la Cometa del Forn","kind":"peak","ele":2691}},{"type":"Feature","geometry":{"type":"Point","coordinates":[1.54262,42.47218]},"properties":{"name":"Pic de la Peguera","kind":"peak","ele":2607}},{"type":"Feature","geometry":{"type":"Point","coordinates":[1.53375,42.43458]},"properties":{"name":"Roca de Pimes","kind":"peak","ele":2171}},{"type":"Feature","geometry":{"type":"Point","coordinates":[1.45688,42.54957]},"properties":{"name":"Roca del Tut","kind":"peak","ele":2082}},{"type":"Feature","geometry":{"type":"Point","coordinates":[1.51386,42.50769]},"properties":{"name":"Roc dels Corbs","kind":"peak","ele":1233}},{"type":"Feature","geometry":{"type":"Point","coordinates":[1.52385,42.51173]},"properties":{"name":"Roc de Patapou","kind":"peak","ele":1201}},{"type":"Feature","geometry":{"type":"Point","coordinates":[1.70732,42.51846]},"properties":{"name":"Bony d'Envalira","kind":"peak","ele":2681}},{"type":"Feature","geometry":{"type":"Point","coordinates":[1.47427,42.53021]},"properties":{"name":"Pla de la Cot II","kind":"lift"}},{"type":"Feature","geometry":{"type":"Point","coordinates":[1.47284,42.43537]},"properties":{"name":"Duana andorrana","kind":"border"}},{"type":"Feature","geometry":{"type":"Point","coordinates":[1.47279,42.43541]},"properties":{"name":"Duana andorrana","kind":"border"}},{"type":"Feature","geometry":{"type":"Point","coordinates":[1.49091,42.53692]},"properties":{"name":"Pedres Blanques II","kind":"lift"}},{"type":"Feature","geometry":{"type":"Point","coordinates":[1.49018,42.53696]},"properties":{"name":"Pedres Blanques II","kind":"lift"}},{"type":"Feature","geometry":{"type":"Point","coordinates":[1.4369,42.56294]},"properties":{"name":"Roc Rodó","kind":"peak","ele":2512.7}},{"type":"Feature","geometry":{"type":"Point","coordinates":[1.41629,42.54182]},"properties":{"name":"Pic de Setúria","kind":"peak","ele":2519}},{"type":"Feature","geometry":{"type":"Point","coordinates":[1.50677,42.48649]},"properties":{"name":"Roc de Salobre","kind":"peak","ele":1659}},{"type":"Feature","geometry":{"type":"Point","coordinates":[1.7055,42.58028]},"properties":{"name":"Pas de les Vaques","kind":"peak","ele":2694}},{"type":"Feature","geometry":{"type":"Point","coordinates":[1.64447,42.62771]},"properties":{"name":"Pic de la Pala de Jan","kind":"peak","ele":2776}},{"type":"Feature","geometry":{"type":"Point","coordinates":[1.61304,42.60961]},"properties":{"name":"Pic de la Pala Rodona","kind":"peak","ele":2792}},{"type":"Feature","geometry":{"type":"Point","coordinates":[1.60998,42.54376]},"properties":{"name":"Cap de Rep","kind":"peak","ele":2302}},{"type":"Feature","geometry":{"type":"Point","coordinates":[1.44763,42.60378]},"properties":{"name":"Pic de Racofred Occidental","kind":"peak","ele":2874}},{"type":"Feature","geometry":{"type":"Point","coordinates":[1.45166,42.60261]},"properties":{"name":"Pic de Racofred Oriental","kind":"peak","ele":2837}},{"type":"Feature","geometry":{"type":"Point","coordinates":[1.54992,42.55002]},"properties":{"name":"Bony de l'Artic","kind":"peak","ele":1860}},{"type":"Feature","geometry":{"type":"Point","coordinates":[1.64186,42.52418]},"properties":{"name":"Pic de l'Aspra","kind":"peak","ele":2693}},{"type":"Feature","geometry":{"type":"Point","coordinates":[1.66387,42.61202]},"properties":{"name":"Pic de les Pales de Cabana Sorda","kind":"peak","ele":2679}},{"type":"Feature","geometry":{"type":"Point","coordinates":[1.67159,42.62131]},"properties":{"name":"Pic del Recó de l'Estany","kind":"peak","ele":2675}},{"type":"Feature","geometry":{"type":"Point","coordinates":[1.63134,42.48841]},"properties":{"name":"Pic del Pla de l'Ingla","kind":"peak","ele":2567}},{"type":"Feature","geometry":{"type":"Point","coordinates":[1.63433,42.51162]},"properties":{"name":"Cap de Collades Baixes","kind":"peak","ele":2633}},{"type":"Feature","geometry":{"type":"Point","coordinates":[1.49963,42.64566]},"properties":{"name":"Pic de l'Arbella","kind":"peak","ele":2768}},{"type":"Feature","geometry":{"type":"Point","coordinates":[1.73989,42.58781]},"properties":{"name":"Pic del Roc Méler","kind":"peak","ele":2817}},{"type":"Feature","geometry":{"type":"Point","coordinates":[1.7362,42.61081]},"properties":{"name":"Pic de Noé","kind":"peak","ele":2737}},{"type":"Feature","geometry":{"type":"Point","coordinates":[1.77834,42.58205]},"properties":{"name":"Cap de la Palomera","kind":"peak","ele":2157}},{"type":"Feature","geometry":{"type":"Point","coordinates":[1.73989,42.58781]},"properties":{"name":"Pic del Roc Méler","kind":"peak","ele":2817}},{"type":"Feature","geometry":{"type":"Point","coordinates":[1.72247,42.51845]},"properties":{"name":"Pic Negre d'Envalira","kind":"peak","ele":2815.8}},{"type":"Feature","geometry":{"type":"Point","coordinates":[1.53393,42.51147]},"properties":{"name":"Hospital de Nostra Senyora de Meritxell","kind":"hospital"}},{"type":"Feature","geometry":{"type":"Point","coordinates":[1.69655,42.53161]},"properties":{"name":"Centre Mèdic Grau","kind":"hospital"}},{"type":"Feature","geometry":{"type":"Point","coordinates":[1.48334,42.6309]},"properties":{"name":"la Coma","kind":"lift"}},{"type":"Feature","geometry":{"type":"Point","coordinates":[1.48563,42.61799]},"properties":{"name":"la Coma","kind":"lift"}},{"type":"Feature","geometry":{"type":"Point","coordinates":[1.48658,42.61808]},"properties":{"name":"la Basera","kind":"lift"}},{"type":"Feature","geometry":{"type":"Point","coordinates":[1.48974,42.62739]},"properties":{"name":"Ordino-Arcalís","kind":"ski"}},{"type":"Feature","geometry":{"type":"Point","coordinates":[1.4699,42.55228]},"properties":{"name":"Pal-Arinsal","kind":"ski"}},{"type":"Feature","geometry":{"type":"Point","coordinates":[1.53414,42.51213]},"properties":{"name":"Clínica Verge de Meritxell","kind":"hospital"}},{"type":"Feature","geometry":{"type":"Point","coordinates":[1.48192,42.63156]},"properties":{"name":"Telecabina Tristaina","kind":"lift"}},{"type":"Feature","geometry":{"type":"Point","coordinates":[1.5007,42.63152]},"properties":{"name":"Telecabina Tristaina","kind":"lift"}},{"type":"Feature","geometry":{"type":"Point","coordinates":[1.5002,42.63123]},"properties":{"name":"la Basera","kind":"lift"}}],"metadata":{"generatedAt":"2026-10-06T09:54:43.540Z","source":"osm","attribution":"© OpenStreetMap contributors (ODbL)"}}